G21
G90
G17
G0 Z10.00

G0 X-182.78 Y251.00
G1 X-182.78 Y251.00 Z0.00 F1000.00
G1 X-182.32 Y250.81 Z-0.40
G1 X-181.86 Y250.63 Z-0.62
G1 X-181.40 Y250.44 Z-0.80
G1 X-181.14 Y250.34 Z-1.52
G1 X-180.69 Y250.23 Z-1.78
G1 X-180.52 Y250.19 Z-1.74
G1 X-180.40 Y250.14 Z-1.70
G1 X-180.21 Y250.11 Z-1.64
G1 X-179.82 Y250.13 Z-1.53
G1 X-179.11 Y250.23 Z-1.34
G1 X-178.91 Y250.26 Z-1.29
G1 X-178.69 Y250.30 Z-1.24
G1 X-178.45 Y250.35 Z-1.18
G1 X-178.18 Y250.40 Z-1.12
G1 X-177.89 Y250.46 Z-1.05
G1 X-177.59 Y250.51 Z-0.99
G1 X-177.27 Y250.58 Z-0.93
G1 X-176.94 Y250.64 Z-0.87
G1 X-176.60 Y250.71 Z-0.81
G1 X-176.25 Y250.78 Z-0.76
G1 X-175.89 Y250.86 Z-0.71
G1 X-175.54 Y250.93 Z-0.68
G1 X-175.18 Y251.00 Z-0.64
G1 X-174.82 Y251.08 Z-0.62
G1 X-174.46 Y251.15 Z-0.61
G1 X-174.12 Y251.22 Z-0.60
G1 X-173.78 Y251.29 Z-0.60
G1 X-173.45 Y251.36 Z-0.61
G1 X-173.13 Y251.42 Z-0.62
G1 X-172.83 Y251.48 Z-0.64
G1 X-172.54 Y251.54 Z-0.66
G1 X-172.28 Y251.59 Z-0.69
G1 X-172.04 Y251.64 Z-0.72
G1 X-171.82 Y251.68 Z-0.74
G1 X-171.63 Y251.72 Z-0.77
G1 X-170.84 Y251.86 Z-0.90
G1 X-170.53 Y251.91 Z-0.96
G1 X-170.42 Y251.90 Z-0.98
G1 X-170.26 Y251.90 Z-1.01
G1 X-169.77 Y251.87 Z-1.11
G1 X-169.45 Y251.81 Z-1.19
G1 X-168.72 Y251.68 Z-1.37
G1 X-167.99 Y251.55 Z-1.57
G1 X-167.25 Y251.42 Z-1.78
G1 X-166.52 Y251.29 Z-2.00
G1 X-167.25 Y251.42 Z0.00
G1 X-167.99 Y251.55 Z0.00
G1 X-168.72 Y251.68 Z0.00
G1 X-169.45 Y251.81 Z0.00
G1 X-169.77 Y251.87 Z0.00
G0 Z0.00
G0 Z30.00

G0 X-187.19 Y242.66
G1 X-187.19 Y242.66 Z0.00 F1000.00
G1 X-186.72 Y242.50 Z-0.39
G1 X-186.25 Y242.35 Z-0.61
G1 X-185.78 Y242.19 Z-0.79
G1 X-185.47 Y242.08 Z-1.55
G1 X-185.04 Y241.98 Z-1.85
G1 X-184.99 Y241.91 Z-1.84
G1 X-184.92 Y241.86 Z-1.82
G1 X-184.02 Y241.98 Z-1.65
G1 X-183.85 Y242.01 Z-1.62
G1 X-183.65 Y242.04 Z-1.58
G1 X-183.43 Y242.07 Z-1.54
G1 X-183.20 Y242.11 Z-1.50
G1 X-182.95 Y242.16 Z-1.45
G1 X-182.69 Y242.20 Z-1.41
G1 X-182.41 Y242.25 Z-1.36
G1 X-182.12 Y242.30 Z-1.31
G1 X-181.82 Y242.35 Z-1.26
G1 X-181.52 Y242.41 Z-1.21
G1 X-181.20 Y242.46 Z-1.16
G1 X-180.87 Y242.52 Z-1.11
G1 X-180.54 Y242.58 Z-1.06
G1 X-180.20 Y242.64 Z-1.01
G1 X-179.86 Y242.70 Z-0.97
G1 X-179.52 Y242.76 Z-0.92
G1 X-179.18 Y242.82 Z-0.88
G1 X-178.83 Y242.88 Z-0.84
G1 X-178.49 Y242.94 Z-0.81
G1 X-178.15 Y243.00 Z-0.77
G1 X-177.81 Y243.06 Z-0.74
G1 X-177.48 Y243.12 Z-0.72
G1 X-177.15 Y243.17 Z-0.69
G1 X-176.83 Y243.22 Z-0.67
G1 X-176.52 Y243.27 Z-0.65
G1 X-176.22 Y243.32 Z-0.64
G1 X-175.93 Y243.37 Z-0.63
G1 X-175.65 Y243.41 Z-0.62
G1 X-175.32 Y243.46 Z-0.61
G1 X-174.98 Y243.51 Z-0.60
G1 X-174.64 Y243.55 Z-0.60
G1 X-174.30 Y243.60 Z-0.60
G1 X-173.96 Y243.65 Z-0.60
G1 X-173.62 Y243.69 Z-0.61
G1 X-173.28 Y243.74 Z-0.62
G1 X-172.95 Y243.78 Z-0.63
G1 X-172.61 Y243.83 Z-0.65
G1 X-172.28 Y243.87 Z-0.67
G1 X-171.96 Y243.91 Z-0.69
G1 X-171.64 Y243.95 Z-0.71
G1 X-171.33 Y243.98 Z-0.73
G1 X-171.02 Y244.02 Z-0.76
G1 X-170.73 Y244.05 Z-0.79
G1 X-170.44 Y244.08 Z-0.81
G1 X-170.17 Y244.11 Z-0.84
G1 X-169.91 Y244.14 Z-0.87
G1 X-169.66 Y244.17 Z-0.90
G1 X-169.42 Y244.19 Z-0.93
G1 X-169.20 Y244.21 Z-0.96
G1 X-168.99 Y244.23 Z-0.98
G1 X-168.80 Y244.24 Z-1.01
G1 X-168.15 Y244.27 Z-1.10
G1 X-167.79 Y244.25 Z-1.16
G1 X-167.61 Y244.20 Z-1.18
G1 X-167.48 Y244.13 Z-1.21
G1 X-167.28 Y244.06 Z-1.24
G1 X-166.94 Y243.98 Z-1.30
G1 X-166.60 Y243.87 Z-1.36
G1 X-166.32 Y243.77 Z-1.41
G1 X-166.12 Y243.71 Z-1.45
G1 X-165.77 Y243.59 Z-1.51
G1 X-165.41 Y243.47 Z-1.58
G1 X-165.06 Y243.35 Z-1.65
G1 X-164.71 Y243.22 Z-1.72
G1 X-164.36 Y243.10 Z-1.79
G1 X-164.00 Y242.98 Z-1.86
G1 X-163.65 Y242.86 Z-1.93
G1 X-163.30 Y242.74 Z-2.00
G1 X-163.65 Y242.86 Z0.00
G1 X-164.00 Y242.98 Z0.00
G1 X-164.36 Y243.10 Z0.00
G1 X-164.71 Y243.22 Z0.00
G1 X-165.06 Y243.35 Z0.00
G1 X-165.41 Y243.47 Z0.00
G1 X-165.77 Y243.59 Z0.00
G1 X-166.12 Y243.71 Z0.00
G0 Z0.00
G0 Z30.00

G0 X-178.07 Y249.43
G1 X-178.07 Y249.43 Z0.00 F1000.00
G1 X-177.86 Y249.34 Z-0.23
G1 X-177.55 Y249.21 Z-0.53
G1 X-177.20 Y249.06 Z-0.80
G1 X-176.89 Y248.92 Z-1.00
G1 X-176.49 Y248.50 Z-1.22
G1 X-176.50 Y248.33 Z-1.15
G1 X-176.52 Y248.12 Z-1.08
G1 X-176.54 Y247.89 Z-1.01
G1 X-176.56 Y247.63 Z-0.93
G1 X-176.59 Y247.35 Z-0.85
G1 X-176.62 Y247.05 Z-0.78
G1 X-176.65 Y246.73 Z-0.71
G1 X-176.69 Y246.39 Z-0.66
G1 X-176.72 Y246.05 Z-0.62
G1 X-176.76 Y245.69 Z-0.60
G1 X-176.80 Y245.33 Z-0.60
G1 X-176.84 Y244.97 Z-0.62
G1 X-176.88 Y244.60 Z-0.65
G1 X-176.92 Y244.24 Z-0.71
G1 X-176.96 Y243.89 Z-0.77
G1 X-176.99 Y243.54 Z-0.86
G1 X-177.03 Y243.21 Z-0.95
G1 X-177.07 Y242.88 Z-1.05
G1 X-177.11 Y242.58 Z-1.16
G1 X-177.14 Y242.30 Z-1.26
G1 X-177.17 Y242.03 Z-1.37
G1 X-177.20 Y241.80 Z-1.46
G1 X-177.23 Y241.59 Z-1.67
G1 X-177.32 Y240.98 Z-2.00
G1 X-177.40 Y240.58 Z-2.00
G1 X-177.47 Y240.32 Z-2.00
G1 X-177.54 Y240.12 Z-1.99
G1 X-177.61 Y239.92 Z-1.84
G1 X-177.71 Y239.65 Z-1.68
G1 X-177.80 Y239.37 Z-1.64
G1 X-177.90 Y239.07 Z-1.60
G1 X-178.01 Y238.77 Z-1.56
G1 X-178.13 Y238.47 Z-1.51
G1 X-178.24 Y238.17 Z-1.47
G1 X-178.36 Y237.89 Z-1.44
G1 X-178.48 Y237.63 Z-1.40
G1 X-178.62 Y237.34 Z-1.36
G1 X-178.75 Y237.08 Z-1.32
G1 X-178.88 Y236.83 Z-1.29
G1 X-179.02 Y236.59 Z-1.25
G1 X-179.18 Y236.34 Z-1.21
G1 X-179.38 Y236.08 Z-1.17
G1 X-179.55 Y235.84 Z-1.13
G1 X-179.72 Y235.61 Z-1.10
G1 X-179.90 Y235.37 Z-1.06
G1 X-180.10 Y235.13 Z-1.02
G1 X-180.34 Y234.88 Z-0.97
G1 X-180.63 Y234.62 Z-0.92
G1 X-180.99 Y234.35 Z-0.87
G1 X-181.19 Y234.21 Z-0.84
G1 X-181.43 Y234.06 Z-0.80
G1 X-181.68 Y233.90 Z-0.76
G1 X-181.96 Y233.73 Z-0.72
G1 X-182.25 Y233.57 Z-0.68
G1 X-182.54 Y233.40 Z-0.63
G1 X-182.85 Y233.23 Z-0.59
G1 X-183.15 Y233.06 Z-0.55
G1 X-183.46 Y232.90 Z-0.50
G1 X-183.75 Y232.75 Z-0.46
G1 X-184.04 Y232.60 Z-0.42
G1 X-184.31 Y232.47 Z-0.38
G1 X-184.57 Y232.34 Z-0.34
G1 X-184.80 Y232.24 Z-0.31
G1 X-185.18 Y232.07 Z-0.26
G1 X-185.54 Y231.94 Z-0.21
G1 X-185.88 Y231.83 Z-0.16
G1 X-186.20 Y231.75 Z-0.12
G1 X-186.49 Y231.67 Z-0.08
G1 X-186.74 Y231.62 Z-0.05
G1 X-186.95 Y231.57 Z-0.02
G1 X-187.41 Y231.44 Z-1.00
G1 X-187.70 Y231.36 Z-1.00
G1 X-187.99 Y231.29 Z-1.00
G1 X-188.27 Y231.21 Z-1.00
G1 X-188.56 Y231.13 Z-1.00
G1 X-188.85 Y231.05 Z-1.00
G1 X-189.14 Y230.98 Z-1.00
G1 X-189.42 Y230.90 Z-1.00
G1 X-189.71 Y230.82 Z-1.00
G1 X-190.00 Y230.74 Z-1.00
G0 Z0.00
G0 Z30.00

G0 X-176.07 Y242.48
G1 X-176.07 Y242.48 Z0.00 F1000.00
G1 X-176.04 Y242.22 Z-0.29
G1 X-175.92 Y241.80 Z-0.76
G1 X-175.81 Y241.56 Z-1.02
G1 X-175.69 Y241.31 Z-1.31
G1 X-175.50 Y240.99 Z-1.67
G1 X-175.23 Y240.55 Z-1.62
G1 X-175.12 Y240.35 Z-1.60
G1 X-174.99 Y240.15 Z-1.58
G1 X-174.85 Y239.93 Z-1.56
G1 X-174.71 Y239.69 Z-1.54
G1 X-174.55 Y239.44 Z-1.52
G1 X-174.39 Y239.18 Z-1.49
G1 X-174.21 Y238.91 Z-1.46
G1 X-174.02 Y238.62 Z-1.44
G1 X-173.81 Y238.32 Z-1.41
G1 X-173.59 Y238.01 Z-1.37
G1 X-173.36 Y237.69 Z-1.34
G1 X-173.20 Y237.48 Z-1.32
G1 X-173.03 Y237.25 Z-1.30
G1 X-172.85 Y237.01 Z-1.27
G1 X-172.65 Y236.75 Z-1.24
G1 X-172.45 Y236.49 Z-1.22
G1 X-172.24 Y236.22 Z-1.19
G1 X-172.03 Y235.94 Z-1.16
G1 X-171.81 Y235.66 Z-1.13
G1 X-171.59 Y235.39 Z-1.10
G1 X-171.37 Y235.11 Z-1.07
G1 X-171.15 Y234.84 Z-1.04
G1 X-170.94 Y234.58 Z-1.01
G1 X-170.73 Y234.32 Z-0.99
G1 X-170.53 Y234.08 Z-0.96
G1 X-170.34 Y233.85 Z-0.94
G1 X-170.16 Y233.64 Z-0.91
G1 X-169.99 Y233.45 Z-0.89
G1 X-169.84 Y233.28 Z-0.87
G1 X-169.53 Y232.93 Z-0.84
G1 X-169.33 Y232.68 Z-0.81
G1 X-169.17 Y232.50 Z-0.79
G1 X-169.02 Y232.36 Z-0.77
G1 X-168.83 Y232.25 Z-0.75
G1 X-168.56 Y232.13 Z-0.73
G1 X-168.14 Y231.97 Z-0.69
G1 X-167.93 Y231.89 Z-0.67
G1 X-167.69 Y231.82 Z-0.65
G1 X-167.41 Y231.74 Z-0.63
G1 X-167.12 Y231.66 Z-0.60
G1 X-166.80 Y231.57 Z-0.58
G1 X-166.46 Y231.49 Z-0.55
G1 X-166.12 Y231.41 Z-0.52
G1 X-165.77 Y231.33 Z-0.49
G1 X-165.42 Y231.24 Z-0.46
G1 X-165.07 Y231.17 Z-0.43
G1 X-164.72 Y231.09 Z-0.40
G1 X-164.39 Y231.02 Z-0.37
G1 X-164.08 Y230.95 Z-0.35
G1 X-163.78 Y230.88 Z-0.32
G1 X-163.51 Y230.82 Z-0.30
G1 X-163.27 Y230.77 Z-0.28
G1 X-163.07 Y230.73 Z-0.26
G1 X-162.49 Y230.59 Z-0.21
G1 X-162.07 Y230.49 Z-0.18
G1 X-161.66 Y230.39 Z-0.14
G1 X-161.24 Y230.29 Z-0.11
G1 X-160.83 Y230.20 Z-0.07
G1 X-160.41 Y230.10 Z-0.04
G1 X-160.00 Y230.00 Z0.00
G0 Z0.00
G0 Z30.00

G0 X-159.37 Y242.46
G1 X-159.37 Y242.46 Z0.00 F1000.00
G1 X-158.81 Y242.42 Z-0.47
G1 X-158.25 Y242.39 Z-0.72
G1 X-157.69 Y242.36 Z-0.93
G1 X-157.48 Y242.34 Z-1.68
G1 X-157.20 Y242.31 Z-1.83
G1 X-156.84 Y242.29 Z-1.70
G1 X-156.37 Y242.33 Z-1.54
G1 X-155.77 Y242.46 Z-1.34
G1 X-155.52 Y242.53 Z-1.26
G1 X-155.24 Y242.62 Z-1.17
G1 X-154.92 Y242.73 Z-1.08
G1 X-154.59 Y242.85 Z-0.99
G1 X-154.23 Y242.98 Z-0.90
G1 X-153.86 Y243.11 Z-0.82
G1 X-153.49 Y243.26 Z-0.75
G1 X-153.11 Y243.40 Z-0.69
G1 X-152.73 Y243.54 Z-0.65
G1 X-152.36 Y243.68 Z-0.62
G1 X-152.01 Y243.81 Z-0.60
G1 X-151.68 Y243.93 Z-0.60
G1 X-151.37 Y244.04 Z-0.61
G1 X-151.09 Y244.14 Z-0.62
G1 X-150.84 Y244.21 Z-0.64
G1 X-150.25 Y244.36 Z-0.71
G1 X-149.80 Y244.43 Z-0.78
G1 X-149.47 Y244.44 Z-0.85
G1 X-149.22 Y244.44 Z-0.90
G1 X-147.90 Y244.49 Z-1.24
G1 X-146.77 Y244.54 Z-1.61
G1 X-145.65 Y244.58 Z-2.00
G1 X-146.77 Y244.54 Z0.00
G1 X-147.90 Y244.49 Z0.00
G1 X-149.02 Y244.45 Z0.00
G0 Z0.00
G0 Z30.00

G0 X-154.28 Y252.65
G1 X-154.28 Y252.65 Z0.00 F1000.00
G1 X-154.08 Y252.49 Z-0.26
G1 X-153.77 Y252.26 Z-0.62
G1 X-153.43 Y252.00 Z-1.00
G1 X-153.08 Y251.72 Z-1.34
G1 X-152.77 Y251.47 Z-1.61
G1 X-152.56 Y251.26 Z-1.55
G1 X-152.41 Y251.71 Z-1.46
G1 X-152.49 Y250.59 Z-1.26
G1 X-152.50 Y250.40 Z-1.22
G1 X-152.50 Y250.19 Z-1.19
G1 X-152.50 Y249.95 Z-1.15
G1 X-152.50 Y249.70 Z-1.11
G1 X-152.51 Y249.43 Z-1.06
G1 X-152.51 Y249.14 Z-1.02
G1 X-152.51 Y248.83 Z-0.98
G1 X-152.51 Y248.51 Z-0.93
G1 X-152.52 Y248.17 Z-0.89
G1 X-152.52 Y247.82 Z-0.85
G1 X-152.53 Y247.46 Z-0.81
G1 X-152.53 Y247.08 Z-0.77
G1 X-152.53 Y246.70 Z-0.73
G1 X-152.54 Y246.31 Z-0.70
G1 X-152.54 Y245.91 Z-0.67
G1 X-152.55 Y245.51 Z-0.65
G1 X-152.55 Y245.09 Z-0.63
G1 X-152.56 Y244.68 Z-0.61
G1 X-152.56 Y244.26 Z-0.60
G1 X-152.57 Y243.84 Z-0.60
G1 X-152.57 Y243.42 Z-0.60
G1 X-152.58 Y243.00 Z-0.61
G1 X-152.58 Y242.58 Z-0.62
G1 X-152.59 Y242.17 Z-0.64
G1 X-152.60 Y241.76 Z-0.66
G1 X-152.60 Y241.35 Z-0.68
G1 X-152.61 Y240.95 Z-0.72
G1 X-152.62 Y240.56 Z-0.75
G1 X-152.62 Y240.18 Z-0.79
G1 X-152.63 Y239.80 Z-0.83
G1 X-152.64 Y239.44 Z-0.87
G1 X-152.65 Y239.09 Z-0.91
G1 X-152.66 Y238.75 Z-0.96
G1 X-152.66 Y238.43 Z-1.01
G1 X-152.67 Y238.12 Z-1.05
G1 X-152.68 Y237.83 Z-1.10
G1 X-152.69 Y237.55 Z-1.14
G1 X-152.70 Y237.30 Z-1.18
G1 X-152.71 Y237.06 Z-1.22
G1 X-152.72 Y236.85 Z-1.26
G1 X-152.73 Y236.66 Z-1.29
G1 X-152.93 Y235.37 Z-1.54
G1 X-153.17 Y235.55 Z-1.59
G1 X-153.34 Y235.81 Z-1.66
G1 X-153.64 Y236.28 Z-1.77
G1 X-153.95 Y236.76 Z-1.88
G1 X-154.25 Y237.23 Z-2.00
G1 X-154.55 Y237.70 Z-1.00
G1 X-154.86 Y238.18 Z-1.00
G1 X-155.16 Y238.65 Z-1.00
G1 X-154.86 Y238.18 Z0.00
G1 X-154.55 Y237.70 Z0.00
G1 X-154.25 Y237.23 Z0.00
G1 X-153.95 Y236.76 Z0.00
G1 X-153.64 Y236.28 Z0.00
G1 X-153.34 Y235.81 Z0.00
G1 X-153.17 Y235.55 Z0.00
G0 Z0.00
G0 Z30.00

G0 X-160.00 Y234.20
G1 X-160.00 Y234.20 Z0.00 F1000.00
G1 X-159.54 Y233.87 Z-0.47
G1 X-159.09 Y233.54 Z-0.73
G1 X-158.63 Y233.21 Z-0.94
G1 X-158.47 Y233.10 Z-1.68
G1 X-158.30 Y232.89 Z-1.82
G1 X-158.02 Y232.70 Z-1.69
G1 X-157.52 Y232.67 Z-1.51
G1 X-156.71 Y232.91 Z-1.22
G1 X-156.51 Y233.00 Z-1.15
G1 X-156.28 Y233.10 Z-1.08
G1 X-156.04 Y233.22 Z-1.00
G1 X-155.76 Y233.36 Z-0.92
G1 X-155.47 Y233.51 Z-0.85
G1 X-155.16 Y233.67 Z-0.78
G1 X-154.84 Y233.84 Z-0.71
G1 X-154.51 Y234.02 Z-0.66
G1 X-154.16 Y234.21 Z-0.63
G1 X-153.80 Y234.40 Z-0.60
G1 X-153.44 Y234.60 Z-0.60
G1 X-153.08 Y234.81 Z-0.62
G1 X-152.71 Y235.01 Z-0.65
G1 X-152.34 Y235.22 Z-0.70
G1 X-151.98 Y235.43 Z-0.77
G1 X-151.62 Y235.63 Z-0.85
G1 X-151.26 Y235.84 Z-0.95
G1 X-150.92 Y236.03 Z-1.06
G1 X-150.58 Y236.22 Z-1.17
G1 X-150.26 Y236.41 Z-1.29
G1 X-149.96 Y236.58 Z-1.41
G1 X-149.67 Y236.75 Z-1.53
G1 X-149.41 Y236.90 Z-1.64
G1 X-149.16 Y237.04 Z-1.75
G1 X-148.94 Y237.16 Z-1.84
G1 X-148.75 Y237.27 Z-1.93
G1 X-148.94 Y237.16 Z0.00
G1 X-149.16 Y237.04 Z0.00
G1 X-149.41 Y236.90 Z0.00
G1 X-149.67 Y236.75 Z0.00
G1 X-149.96 Y236.58 Z0.00
G1 X-150.26 Y236.41 Z0.00
G1 X-150.58 Y236.22 Z0.00
G0 Z0.00
G0 Z30.00

G0 X-152.05 Y240.23
G1 X-152.05 Y240.23 Z0.00 F1000.00
G1 X-151.49 Y240.17 Z-0.49
G1 X-150.93 Y240.12 Z-0.77
G1 X-150.37 Y240.06 Z-0.98
G1 X-150.20 Y240.05 Z-1.77
G1 X-150.01 Y239.99 Z-1.91
G1 X-149.76 Y239.94 Z-1.86
G1 X-149.41 Y239.94 Z-1.78
G1 X-148.93 Y240.04 Z-1.67
G1 X-148.28 Y240.27 Z-1.51
G1 X-148.07 Y240.35 Z-1.46
G1 X-147.84 Y240.46 Z-1.41
G1 X-147.59 Y240.57 Z-1.35
G1 X-147.32 Y240.70 Z-1.29
G1 X-147.04 Y240.83 Z-1.23
G1 X-146.74 Y240.98 Z-1.17
G1 X-146.43 Y241.13 Z-1.11
G1 X-146.11 Y241.29 Z-1.04
G1 X-145.78 Y241.46 Z-0.98
G1 X-145.45 Y241.63 Z-0.93
G1 X-145.11 Y241.80 Z-0.87
G1 X-144.76 Y241.98 Z-0.82
G1 X-144.42 Y242.16 Z-0.77
G1 X-144.08 Y242.34 Z-0.73
G1 X-143.74 Y242.52 Z-0.70
G1 X-143.40 Y242.70 Z-0.67
G1 X-143.07 Y242.87 Z-0.64
G1 X-142.75 Y243.04 Z-0.63
G1 X-142.44 Y243.21 Z-0.61
G1 X-142.14 Y243.37 Z-0.60
G1 X-141.85 Y243.52 Z-0.60
G1 X-141.58 Y243.67 Z-0.60
G1 X-141.33 Y243.81 Z-0.60
G1 X-140.93 Y244.02 Z-0.62
G1 X-140.55 Y244.24 Z-0.63
G1 X-140.19 Y244.45 Z-0.66
G1 X-139.84 Y244.66 Z-0.69
G1 X-139.50 Y244.87 Z-0.72
G1 X-139.17 Y245.07 Z-0.76
G1 X-138.86 Y245.26 Z-0.80
G1 X-138.57 Y245.45 Z-0.85
G1 X-138.28 Y245.63 Z-0.89
G1 X-138.01 Y245.79 Z-0.94
G1 X-137.76 Y245.95 Z-0.99
G1 X-137.52 Y246.09 Z-1.03
G1 X-137.29 Y246.22 Z-1.08
G1 X-137.08 Y246.34 Z-1.12
G1 X-136.49 Y246.62 Z-1.24
G1 X-136.10 Y246.76 Z-1.32
G1 X-135.82 Y246.80 Z-1.38
G1 X-135.56 Y246.81 Z-1.44
G1 X-135.05 Y246.94 Z-1.55
G1 X-134.75 Y246.41 Z-1.69
G1 X-134.15 Y246.65 Z-2.00
G1 X-133.55 Y246.89 Z-2.00
G1 X-132.96 Y247.13 Z-2.00
G1 X-134.73 Y246.20 Z-1.74
G1 X-134.72 Y245.96 Z-1.92
G1 X-134.71 Y245.68 Z-2.00
G1 X-134.71 Y245.38 Z-2.00
G1 X-134.71 Y245.05 Z-2.00
G1 X-134.72 Y244.70 Z-2.00
G1 X-134.73 Y244.33 Z-1.99
G1 X-134.75 Y243.95 Z-1.73
G1 X-134.77 Y243.55 Z-1.47
G1 X-134.79 Y243.15 Z-1.34
G1 X-134.82 Y242.75 Z-1.21
G1 X-134.85 Y242.34 Z-1.10
G1 X-134.88 Y241.94 Z-0.99
G1 X-134.92 Y241.55 Z-0.90
G1 X-134.95 Y241.23 Z-0.83
G1 X-134.98 Y240.90 Z-0.77
G1 X-135.02 Y240.55 Z-0.71
G1 X-135.06 Y240.18 Z-0.67
G1 X-135.11 Y239.81 Z-0.63
G1 X-135.16 Y239.42 Z-0.61
G1 X-135.21 Y239.04 Z-0.60
G1 X-135.26 Y238.65 Z-0.61
G1 X-135.31 Y238.27 Z-0.63
G1 X-135.36 Y237.89 Z-0.66
G1 X-135.42 Y237.52 Z-0.70
G1 X-135.47 Y237.17 Z-0.76
G1 X-135.52 Y236.83 Z-0.82
G1 X-135.58 Y236.51 Z-0.89
G1 X-135.63 Y236.22 Z-0.96
G1 X-135.67 Y235.95 Z-1.03
G1 X-135.72 Y235.71 Z-1.09
G1 X-135.76 Y235.51 Z-1.15
G1 X-136.08 Y234.78 Z-1.39
G1 X-136.94 Y235.04 Z-1.83
G1 X-137.13 Y235.16 Z-2.00
G1 X-137.37 Y235.31 Z-2.00
G1 X-137.64 Y235.48 Z-2.00
G1 X-137.95 Y235.68 Z-1.38
G1 X-138.28 Y235.90 Z-1.25
G1 X-138.63 Y236.12 Z-1.12
G1 X-138.99 Y236.36 Z-0.70
G1 X-139.36 Y236.60 Z-0.63
G1 X-139.72 Y236.84 Z-0.56
G1 X-140.08 Y237.08 Z-0.49
G1 X-140.42 Y237.30 Z-0.42
G1 X-140.75 Y237.51 Z-0.37
G1 X-141.04 Y237.71 Z-0.31
G1 X-141.30 Y237.88 Z-0.27
G1 X-141.52 Y238.03 Z-0.24
G1 X-141.92 Y238.28 Z-0.18
G1 X-142.13 Y238.42 Z-0.15
G1 X-142.35 Y238.57 Z-0.13
G1 X-142.57 Y238.71 Z-0.10
G1 X-142.78 Y238.85 Z-0.08
G1 X-143.00 Y238.99 Z-0.06
G1 X-143.22 Y239.13 Z-0.05
G1 X-143.44 Y239.28 Z-0.03
G1 X-143.65 Y239.42 Z-0.02
G1 X-143.87 Y239.56 Z-0.01
G1 X-144.09 Y239.70 Z-0.01
G1 X-144.30 Y239.84 Z-0.00
G1 X-144.52 Y239.99 Z0.00
G0 Z0.00
G0 Z30.00

G0 X-140.89 Y254.30
G1 X-140.89 Y254.30 Z0.00 F1000.00
G1 X-140.85 Y254.21 Z-0.09
G1 X-140.79 Y253.99 Z-0.32
G1 X-140.79 Y253.05 Z-1.08
G1 X-140.80 Y252.60 Z-1.38
G1 X-140.80 Y252.34 Z-1.53
G1 X-140.81 Y252.06 Z-1.46
G1 X-140.82 Y251.77 Z-1.40
G1 X-140.83 Y251.45 Z-1.33
G1 X-140.83 Y251.13 Z-1.26
G1 X-140.84 Y250.78 Z-1.19
G1 X-140.85 Y250.43 Z-1.12
G1 X-140.87 Y250.06 Z-1.05
G1 X-140.88 Y249.69 Z-0.99
G1 X-140.89 Y249.31 Z-0.93
G1 X-140.91 Y248.92 Z-0.87
G1 X-140.92 Y248.52 Z-0.81
G1 X-140.94 Y248.13 Z-0.77
G1 X-140.96 Y247.73 Z-0.72
G1 X-140.97 Y247.33 Z-0.69
G1 X-141.00 Y246.92 Z-0.66
G1 X-141.02 Y246.53 Z-0.63
G1 X-141.04 Y246.13 Z-0.61
G1 X-141.06 Y245.74 Z-0.60
G1 X-141.09 Y245.36 Z-0.60
G1 X-141.12 Y245.03 Z-0.60
G1 X-141.14 Y244.68 Z-0.61
G1 X-141.17 Y244.33 Z-0.62
G1 X-141.20 Y243.96 Z-0.64
G1 X-141.24 Y243.58 Z-0.66
G1 X-141.27 Y243.19 Z-0.70
G1 X-141.31 Y242.79 Z-0.73
G1 X-141.35 Y242.39 Z-0.78
G1 X-141.39 Y241.99 Z-0.83
G1 X-141.43 Y241.58 Z-0.89
G1 X-141.47 Y241.18 Z-0.95
G1 X-141.51 Y240.77 Z-1.02
G1 X-141.55 Y240.37 Z-1.09
G1 X-141.59 Y239.98 Z-1.17
G1 X-141.63 Y239.60 Z-1.25
G1 X-141.67 Y239.22 Z-1.33
G1 X-141.71 Y238.85 Z-1.41
G1 X-141.74 Y238.50 Z-1.48
G1 X-141.78 Y238.16 Z-1.56
G1 X-141.81 Y237.84 Z-1.64
G1 X-141.85 Y237.54 Z-1.71
G1 X-141.88 Y237.25 Z-1.78
G1 X-141.90 Y236.99 Z-1.84
G1 X-141.93 Y236.75 Z-1.90
G1 X-141.95 Y236.54 Z-1.95
G1 X-141.93 Y236.75 Z0.00
G1 X-141.90 Y236.99 Z0.00
G1 X-141.88 Y237.25 Z0.00
G1 X-141.85 Y237.54 Z0.00
G1 X-141.81 Y237.84 Z0.00
G1 X-141.78 Y238.16 Z0.00
G1 X-141.74 Y238.50 Z0.00
G1 X-141.71 Y238.85 Z0.00
G1 X-141.67 Y239.22 Z0.00
G1 X-141.63 Y239.60 Z0.00
G1 X-141.59 Y239.98 Z0.00
G0 Z0.00
G0 Z30.00

G0 X-147.20 Y247.89
G1 X-147.20 Y247.89 Z0.00 F1000.00
G1 X-146.99 Y247.69 Z-0.28
G1 X-146.69 Y247.42 Z-0.63
G1 X-146.45 Y247.15 Z-0.92
G1 X-146.28 Y247.23 Z-1.07
G1 X-146.22 Y246.47 Z-1.55
G1 X-146.22 Y246.27 Z-1.51
G1 X-146.22 Y246.03 Z-1.46
G1 X-146.23 Y245.76 Z-1.41
G1 X-146.24 Y245.47 Z-1.35
G1 X-146.25 Y245.15 Z-1.28
G1 X-146.27 Y244.81 Z-1.22
G1 X-146.28 Y244.45 Z-1.15
G1 X-146.30 Y244.07 Z-1.09
G1 X-146.31 Y243.69 Z-1.02
G1 X-146.33 Y243.29 Z-0.96
G1 X-146.35 Y242.89 Z-0.90
G1 X-146.36 Y242.48 Z-0.85
G1 X-146.38 Y242.08 Z-0.80
G1 X-146.40 Y241.68 Z-0.76
G1 X-146.41 Y241.29 Z-0.72
G1 X-146.42 Y240.90 Z-0.68
G1 X-146.44 Y240.53 Z-0.66
G1 X-146.44 Y240.18 Z-0.64
G1 X-146.45 Y239.84 Z-0.62
G1 X-146.46 Y239.53 Z-0.61
G1 X-146.46 Y239.24 Z-0.60
G1 X-146.45 Y238.98 Z-0.60
G1 X-146.44 Y238.43 Z-0.60
G1 X-146.41 Y237.97 Z-0.61
G1 X-146.38 Y237.57 Z-0.62
G1 X-146.33 Y237.22 Z-0.64
G1 X-146.28 Y236.91 Z-0.66
G1 X-146.23 Y236.62 Z-0.68
G1 X-146.17 Y236.34 Z-0.70
G1 X-146.11 Y236.05 Z-0.73
G1 X-146.05 Y235.74 Z-0.76
G1 X-145.98 Y235.33 Z-0.81
G1 X-145.92 Y234.94 Z-0.86
G1 X-145.85 Y234.56 Z-0.91
G1 X-145.77 Y234.19 Z-0.97
G1 X-145.68 Y233.83 Z-1.02
G1 X-145.56 Y233.48 Z-1.09
G1 X-145.41 Y233.15 Z-1.15
G1 X-145.23 Y232.81 Z-1.22
G1 X-145.02 Y232.47 Z-1.30
G1 X-144.79 Y232.14 Z-1.38
G1 X-144.53 Y231.83 Z-1.46
G1 X-144.26 Y231.55 Z-1.54
G1 X-143.97 Y231.31 Z-1.62
G1 X-143.65 Y231.12 Z-1.70
G1 X-143.58 Y230.75 Z-2.00
G1 X-143.50 Y230.37 Z-2.00
G1 X-143.42 Y230.00 Z-2.00
G1 X-143.65 Y231.12 Z-1.70
G1 X-143.36 Y231.01 Z-1.90
G1 X-143.04 Y230.94 Z-2.00
G1 X-142.70 Y230.91 Z-2.00
G1 X-142.35 Y230.90 Z-2.00
G1 X-141.99 Y230.91 Z-2.00
G1 X-141.63 Y230.92 Z-2.00
G1 X-141.27 Y230.93 Z-1.77
G1 X-140.92 Y230.92 Z-1.53
G1 X-140.58 Y230.90 Z-1.42
G1 X-140.25 Y230.89 Z-1.32
G1 X-139.91 Y230.87 Z-1.23
G1 X-139.58 Y230.85 Z-1.14
G1 X-139.24 Y230.85 Z-1.05
G1 X-138.89 Y230.84 Z-0.97
G1 X-138.53 Y230.84 Z-0.89
G1 X-138.16 Y230.85 Z-0.82
G1 X-137.84 Y230.87 Z-0.77
G1 X-137.51 Y230.89 Z-0.72
G1 X-137.17 Y230.91 Z-0.68
G1 X-136.83 Y230.94 Z-0.64
G1 X-136.48 Y230.97 Z-0.62
G1 X-136.13 Y231.01 Z-0.60
G1 X-135.78 Y231.04 Z-0.60
G1 X-135.44 Y231.08 Z-0.61
G1 X-135.10 Y231.12 Z-0.62
G1 X-134.78 Y231.16 Z-0.64
G1 X-134.39 Y231.19 Z-0.68
G1 X-133.99 Y231.22 Z-0.73
G1 X-133.60 Y231.25 Z-0.79
G1 X-133.22 Y231.27 Z-0.86
G1 X-132.85 Y231.32 Z-0.94
G1 X-132.50 Y231.38 Z-1.02
G1 X-132.18 Y231.47 Z-1.10
G1 X-131.88 Y231.60 Z-1.19
G1 X-131.58 Y231.76 Z-1.28
G1 X-131.30 Y231.91 Z-1.38
G1 X-131.05 Y232.10 Z-1.47
G1 X-130.83 Y232.32 Z-1.57
G1 X-130.64 Y232.62 Z-1.81
G1 X-130.47 Y233.01 Z-2.00
G1 X-130.33 Y233.52 Z-2.00
G1 X-130.28 Y233.76 Z-0.91
G1 X-130.24 Y234.05 Z-0.87
G1 X-130.21 Y234.36 Z-0.82
G1 X-130.18 Y234.71 Z-0.76
G1 X-130.16 Y235.08 Z-0.71
G1 X-130.14 Y235.47 Z-0.65
G1 X-130.13 Y235.87 Z-0.59
G1 X-130.12 Y236.28 Z-0.53
G1 X-130.11 Y236.69 Z-0.47
G1 X-130.11 Y237.10 Z-0.42
G1 X-130.11 Y237.50 Z-0.37
G1 X-130.11 Y237.89 Z-0.32
G1 X-130.10 Y238.25 Z-0.28
G1 X-130.10 Y238.60 Z-0.24
G1 X-130.10 Y238.91 Z-0.21
G1 X-130.10 Y239.19 Z-0.18
G1 X-130.10 Y239.43 Z-0.16
G1 X-130.09 Y239.87 Z-0.12
G1 X-130.08 Y240.11 Z-0.11
G1 X-130.07 Y240.35 Z-0.09
G1 X-130.07 Y240.59 Z-0.07
G1 X-130.06 Y240.83 Z-0.06
G1 X-130.05 Y241.07 Z-0.05
G1 X-130.05 Y241.31 Z-0.04
G1 X-130.04 Y241.55 Z-0.03
G1 X-130.03 Y241.79 Z-0.02
G1 X-130.03 Y242.03 Z-0.01
G1 X-130.02 Y242.27 Z-0.01
G1 X-130.01 Y242.51 Z-0.00
G1 X-130.01 Y242.76 Z-0.00
G1 X-130.00 Y243.00 Z0.00
G0 Z0.00
G0 Z30.00

G0 X-128.90 Y251.39
G1 X-128.90 Y251.39 Z0.00 F1000.00
G1 X-128.42 Y251.11 Z-0.51
G1 X-127.94 Y250.82 Z-0.80
G1 X-127.46 Y250.54 Z-1.02
G1 X-127.34 Y250.47 Z-1.83
G1 X-127.24 Y250.35 Z-1.95
G1 X-127.02 Y250.24 Z-1.92
G1 X-126.54 Y250.18 Z-1.84
G1 X-125.65 Y250.24 Z-1.70
G1 X-125.44 Y250.26 Z-1.67
G1 X-125.21 Y250.29 Z-1.63
G1 X-124.97 Y250.33 Z-1.60
G1 X-124.72 Y250.36 Z-1.56
G1 X-124.44 Y250.41 Z-1.52
G1 X-124.16 Y250.45 Z-1.48
G1 X-123.86 Y250.50 Z-1.43
G1 X-123.54 Y250.55 Z-1.39
G1 X-123.22 Y250.61 Z-1.34
G1 X-122.89 Y250.66 Z-1.29
G1 X-122.55 Y250.72 Z-1.25
G1 X-122.20 Y250.78 Z-1.20
G1 X-121.84 Y250.85 Z-1.16
G1 X-121.48 Y250.91 Z-1.11
G1 X-121.11 Y250.98 Z-1.07
G1 X-120.74 Y251.04 Z-1.02
G1 X-120.36 Y251.11 Z-0.98
G1 X-119.99 Y251.17 Z-0.94
G1 X-119.61 Y251.24 Z-0.90
G1 X-119.23 Y251.30 Z-0.86
G1 X-118.85 Y251.37 Z-0.83
G1 X-118.48 Y251.43 Z-0.80
G1 X-118.10 Y251.49 Z-0.77
G1 X-117.73 Y251.55 Z-0.74
G1 X-117.37 Y251.61 Z-0.72
G1 X-117.01 Y251.66 Z-0.70
G1 X-116.65 Y251.72 Z-0.68
G1 X-116.31 Y251.77 Z-0.66
G1 X-115.97 Y251.81 Z-0.65
G1 X-115.62 Y251.86 Z-0.63
G1 X-115.27 Y251.91 Z-0.62
G1 X-114.90 Y251.95 Z-0.61
G1 X-114.54 Y252.00 Z-0.61
G1 X-114.17 Y252.05 Z-0.60
G1 X-113.79 Y252.09 Z-0.60
G1 X-113.41 Y252.14 Z-0.60
G1 X-113.03 Y252.19 Z-0.60
G1 X-112.65 Y252.23 Z-0.61
G1 X-112.27 Y252.28 Z-0.62
G1 X-111.89 Y252.32 Z-0.63
G1 X-111.51 Y252.37 Z-0.64
G1 X-111.13 Y252.41 Z-0.66
G1 X-110.76 Y252.45 Z-0.68
G1 X-110.39 Y252.49 Z-0.70
G1 X-110.02 Y252.53 Z-0.72
G1 X-109.66 Y252.57 Z-0.74
G1 X-109.31 Y252.60 Z-0.77
G1 X-108.97 Y252.63 Z-0.80
G1 X-108.63 Y252.67 Z-0.82
G1 X-108.31 Y252.69 Z-0.85
G1 X-107.99 Y252.72 Z-0.88
G1 X-107.69 Y252.74 Z-0.91
G1 X-107.39 Y252.76 Z-0.94
G1 X-107.11 Y252.78 Z-0.97
G1 X-106.85 Y252.80 Z-1.00
G1 X-106.60 Y252.81 Z-1.03
G1 X-106.36 Y252.82 Z-1.06
G1 X-105.71 Y252.81 Z-1.13
G1 X-105.17 Y252.77 Z-1.20
G1 X-104.72 Y252.70 Z-1.26
G1 X-104.35 Y252.61 Z-1.31
G1 X-104.04 Y252.51 Z-1.36
G1 X-103.79 Y252.41 Z-1.40
G1 X-103.58 Y252.31 Z-1.43
G1 X-103.39 Y252.23 Z-1.46
G1 X-102.86 Y252.08 Z-1.54
G1 X-102.50 Y251.97 Z-1.60
G1 X-102.14 Y251.87 Z-1.65
G1 X-101.78 Y251.76 Z-1.71
G1 X-101.43 Y251.66 Z-1.77
G1 X-101.07 Y251.55 Z-1.83
G1 X-100.71 Y251.45 Z-1.88
G1 X-100.36 Y251.34 Z-1.94
G1 X-100.00 Y251.24 Z-2.00
G1 X-100.36 Y251.34 Z0.00
G1 X-100.71 Y251.45 Z0.00
G1 X-101.07 Y251.55 Z0.00
G1 X-101.43 Y251.66 Z0.00
G1 X-101.78 Y251.76 Z0.00
G1 X-102.14 Y251.87 Z0.00
G1 X-102.50 Y251.97 Z0.00
G1 X-102.86 Y252.08 Z0.00
G1 X-103.21 Y252.18 Z0.00
G1 X-103.39 Y252.23 Z0.00
G0 Z0.00
G0 Z30.00

G0 X-117.04 Y258.17
G1 X-117.04 Y258.17 Z0.00 F1000.00
G1 X-116.85 Y257.97 Z-0.29
G1 X-116.56 Y257.68 Z-0.66
G1 X-116.29 Y257.33 Z-1.00
G1 X-116.14 Y256.94 Z-1.25
G1 X-116.12 Y256.67 Z-1.37
G1 X-116.15 Y256.41 Z-1.29
G1 X-116.21 Y256.13 Z-1.20
G1 X-116.31 Y255.81 Z-1.10
G1 X-116.43 Y255.41 Z-1.00
G1 X-116.57 Y254.93 Z-0.88
G1 X-116.65 Y254.66 Z-0.82
G1 X-116.73 Y254.37 Z-0.77
G1 X-116.81 Y254.05 Z-0.72
G1 X-116.91 Y253.72 Z-0.67
G1 X-117.01 Y253.36 Z-0.64
G1 X-117.11 Y253.00 Z-0.61
G1 X-117.22 Y252.63 Z-0.60
G1 X-117.34 Y252.25 Z-0.60
G1 X-117.45 Y251.88 Z-0.62
G1 X-117.57 Y251.51 Z-0.65
G1 X-117.70 Y251.15 Z-0.69
G1 X-117.82 Y250.80 Z-0.75
G1 X-117.95 Y250.47 Z-0.81
G1 X-118.09 Y250.13 Z-0.88
G1 X-118.23 Y249.78 Z-0.97
G1 X-118.39 Y249.44 Z-1.06
G1 X-118.54 Y249.11 Z-1.17
G1 X-118.70 Y248.78 Z-1.28
G1 X-118.87 Y248.45 Z-1.39
G1 X-119.03 Y248.13 Z-1.51
G1 X-119.20 Y247.81 Z-1.76
G1 X-119.36 Y247.50 Z-2.00
G1 X-119.53 Y247.20 Z-2.00
G1 X-119.69 Y246.91 Z-2.00
G1 X-119.85 Y246.62 Z-2.00
G1 X-120.04 Y246.29 Z-1.96
G1 X-120.22 Y245.98 Z-1.80
G1 X-120.40 Y245.69 Z-1.63
G1 X-120.58 Y245.40 Z-1.59
G1 X-120.76 Y245.12 Z-1.55
G1 X-120.95 Y244.85 Z-1.51
G1 X-121.14 Y244.58 Z-1.47
G1 X-121.34 Y244.30 Z-1.43
G1 X-121.54 Y244.03 Z-1.38
G1 X-121.76 Y243.74 Z-1.34
G1 X-121.97 Y243.48 Z-1.30
G1 X-122.19 Y243.21 Z-1.26
G1 X-122.42 Y242.94 Z-1.22
G1 X-122.66 Y242.66 Z-1.17
G1 X-122.89 Y242.39 Z-1.13
G1 X-123.14 Y242.12 Z-1.08
G1 X-123.39 Y241.85 Z-1.04
G1 X-123.63 Y241.59 Z-1.00
G1 X-123.88 Y241.33 Z-0.95
G1 X-124.13 Y241.08 Z-0.91
G1 X-124.37 Y240.83 Z-0.87
G1 X-124.64 Y240.57 Z-0.82
G1 X-124.91 Y240.31 Z-0.78
G1 X-125.18 Y240.06 Z-0.73
G1 X-125.46 Y239.81 Z-0.69
G1 X-125.73 Y239.57 Z-0.64
G1 X-126.01 Y239.33 Z-0.60
G1 X-126.28 Y239.09 Z-0.55
G1 X-126.56 Y238.86 Z-0.51
G1 X-126.84 Y238.64 Z-0.47
G1 X-127.12 Y238.42 Z-0.42
G1 X-127.42 Y238.19 Z-0.38
G1 X-127.73 Y237.96 Z-0.33
G1 X-128.07 Y237.73 Z-0.28
G1 X-128.40 Y237.50 Z-0.23
G1 X-128.73 Y237.28 Z-0.18
G1 X-129.05 Y237.07 Z-0.14
G1 X-129.34 Y236.88 Z-0.10
G1 X-129.61 Y236.70 Z-0.06
G1 X-129.83 Y236.56 Z-0.03
G1 X-130.00 Y236.44 Z0.00
G0 Z0.00
G0 Z30.00

G0 X-118.78 Y245.75
G1 X-118.78 Y245.75 Z0.00 F1000.00
G1 X-118.76 Y245.53 Z-0.25
G1 X-118.73 Y245.27 Z-0.52
G1 X-118.72 Y244.95 Z-0.82
G1 X-118.71 Y244.54 Z-1.16
G1 X-118.72 Y244.01 Z-1.52
G1 X-118.72 Y243.75 Z-1.45
G1 X-118.73 Y243.46 Z-1.38
G1 X-118.74 Y243.14 Z-1.30
G1 X-118.75 Y242.80 Z-1.22
G1 X-118.76 Y242.45 Z-1.14
G1 X-118.78 Y242.08 Z-1.06
G1 X-118.79 Y241.71 Z-0.98
G1 X-118.81 Y241.33 Z-0.91
G1 X-118.83 Y240.94 Z-0.85
G1 X-118.86 Y240.56 Z-0.79
G1 X-118.89 Y240.19 Z-0.74
G1 X-118.92 Y239.82 Z-0.70
G1 X-118.95 Y239.49 Z-0.67
G1 X-118.98 Y239.15 Z-0.64
G1 X-119.02 Y238.80 Z-0.62
G1 X-119.05 Y238.44 Z-0.61
G1 X-119.09 Y238.09 Z-0.60
G1 X-119.14 Y237.73 Z-0.60
G1 X-119.18 Y237.38 Z-0.61
G1 X-119.23 Y237.03 Z-0.62
G1 X-119.27 Y236.69 Z-0.64
G1 X-119.32 Y236.36 Z-0.67
G1 X-119.38 Y236.04 Z-0.70
G1 X-119.43 Y235.73 Z-0.74
G1 X-119.49 Y235.44 Z-0.78
G1 X-119.57 Y235.04 Z-0.84
G1 X-119.66 Y234.65 Z-0.90
G1 X-119.76 Y234.29 Z-0.97
G1 X-119.86 Y233.94 Z-1.04
G1 X-119.97 Y233.61 Z-1.12
G1 X-120.07 Y233.30 Z-1.19
G1 X-120.18 Y232.99 Z-1.27
G1 X-120.28 Y232.70 Z-1.34
G1 X-120.39 Y232.42 Z-1.42
G1 X-120.56 Y232.02 Z-1.53
G1 X-120.74 Y231.64 Z-1.64
G1 X-120.93 Y231.28 Z-1.75
G1 X-121.11 Y230.97 Z-1.85
G1 X-121.25 Y230.71 Z-1.94
G1 X-121.11 Y230.97 Z0.00
G1 X-120.93 Y231.28 Z0.00
G1 X-120.74 Y231.64 Z0.00
G1 X-120.56 Y232.02 Z0.00
G1 X-120.39 Y232.42 Z0.00
G1 X-120.28 Y232.70 Z0.00
G1 X-120.18 Y232.99 Z0.00
G1 X-120.07 Y233.30 Z0.00
G1 X-119.97 Y233.61 Z0.00
G0 Z0.00
G0 Z30.00

G0 X-119.59 Y247.09
G1 X-119.59 Y247.09 Z0.00 F1000.00
G1 X-119.12 Y246.79 Z-0.41
G1 X-118.65 Y246.49 Z-0.64
G1 X-118.18 Y246.19 Z-0.83
G1 X-117.90 Y246.01 Z-1.53
G1 X-117.51 Y245.85 Z-1.66
G1 X-117.30 Y245.82 Z-1.56
G1 X-116.57 Y245.99 Z-1.25
G1 X-116.34 Y246.04 Z-1.16
G1 X-116.06 Y246.12 Z-1.06
G1 X-115.74 Y246.21 Z-0.95
G1 X-115.38 Y246.31 Z-0.84
G1 X-115.00 Y246.42 Z-0.75
G1 X-114.61 Y246.53 Z-0.68
G1 X-114.20 Y246.64 Z-0.63
G1 X-113.79 Y246.76 Z-0.60
G1 X-113.40 Y246.87 Z-0.60
G1 X-113.01 Y246.97 Z-0.63
G1 X-112.66 Y247.05 Z-0.68
G1 X-112.33 Y247.13 Z-0.74
G1 X-112.05 Y247.19 Z-0.80
G1 X-111.82 Y247.22 Z-0.86
G1 X-111.19 Y247.19 Z-1.05
G1 X-110.97 Y246.96 Z-1.16
G1 X-110.81 Y246.72 Z-1.27
G1 X-110.52 Y246.76 Z-1.39
G1 X-110.34 Y246.15 Z-1.79
G1 X-109.68 Y246.15 Z-2.00
G1 X-109.02 Y246.15 Z-2.00
G1 X-108.36 Y246.14 Z-2.00
G1 X-110.33 Y245.94 Z-2.00
G1 X-110.32 Y245.70 Z-2.00
G1 X-110.32 Y245.42 Z-2.00
G1 X-110.31 Y245.12 Z-2.00
G1 X-110.31 Y244.79 Z-2.00
G1 X-110.31 Y244.45 Z-1.89
G1 X-110.32 Y244.08 Z-1.68
G1 X-110.32 Y243.70 Z-1.59
G1 X-110.32 Y243.31 Z-1.50
G1 X-110.33 Y242.91 Z-1.41
G1 X-110.33 Y242.51 Z-1.33
G1 X-110.33 Y242.10 Z-1.24
G1 X-110.33 Y241.69 Z-1.16
G1 X-110.33 Y241.28 Z-1.08
G1 X-110.32 Y240.88 Z-1.01
G1 X-110.31 Y240.49 Z-0.95
G1 X-110.30 Y240.16 Z-0.90
G1 X-110.29 Y239.82 Z-0.85
G1 X-110.27 Y239.46 Z-0.80
G1 X-110.25 Y239.09 Z-0.76
G1 X-110.23 Y238.71 Z-0.72
G1 X-110.21 Y238.33 Z-0.68
G1 X-110.19 Y237.94 Z-0.65
G1 X-110.17 Y237.56 Z-0.63
G1 X-110.14 Y237.17 Z-0.62
G1 X-110.12 Y236.79 Z-0.60
G1 X-110.10 Y236.41 Z-0.60
G1 X-110.08 Y236.04 Z-0.60
G1 X-110.06 Y235.68 Z-0.61
G1 X-110.04 Y235.33 Z-0.62
G1 X-110.02 Y234.99 Z-0.64
G1 X-110.01 Y234.67 Z-0.66
G1 X-109.99 Y234.37 Z-0.68
G1 X-109.98 Y234.09 Z-0.70
G1 X-109.98 Y233.83 Z-0.73
G1 X-109.97 Y233.29 Z-0.79
G1 X-109.97 Y232.84 Z-0.85
G1 X-109.97 Y232.45 Z-0.90
G1 X-109.98 Y232.13 Z-0.95
G1 X-110.01 Y231.84 Z-1.00
G1 X-110.03 Y231.59 Z-1.04
G1 X-110.07 Y231.35 Z-1.09
G1 X-110.11 Y231.12 Z-1.13
G1 X-110.26 Y230.59 Z-1.24
G1 X-110.46 Y230.24 Z-1.32
G1 X-110.71 Y230.05 Z-1.39
G1 X-110.97 Y230.00 Z-1.45
G1 X-111.27 Y230.10 Z-1.52
G1 X-111.75 Y230.32 Z-1.64
G1 X-112.02 Y230.43 Z-1.83
G1 X-112.35 Y230.59 Z-2.00
G1 X-112.73 Y230.77 Z-2.00
G1 X-113.12 Y230.97 Z-2.00
G1 X-113.51 Y231.16 Z-1.38
G1 X-113.86 Y231.34 Z-1.25
G1 X-114.15 Y231.48 Z-0.56
G1 X-114.36 Y231.59 Z-0.50
G1 X-114.66 Y231.74 Z-0.42
G1 X-114.96 Y231.88 Z-0.34
G1 X-115.26 Y232.03 Z-0.27
G1 X-115.56 Y232.18 Z-0.20
G1 X-115.86 Y232.33 Z-0.14
G1 X-116.16 Y232.48 Z-0.09
G1 X-116.46 Y232.63 Z-0.05
G1 X-116.76 Y232.78 Z-0.02
G1 X-117.06 Y232.92 Z-0.01
G1 X-117.36 Y233.07 Z0.00
G0 Z0.00
G0 Z30.00

G0 X-119.19 Y241.00
G1 X-119.19 Y241.00 Z0.00 F1000.00
G1 X-118.66 Y241.14 Z-0.45
G1 X-118.12 Y241.29 Z-0.70
G1 X-117.58 Y241.43 Z-0.90
G1 X-117.34 Y241.50 Z-1.60
G1 X-117.03 Y241.57 Z-1.70
G1 X-116.67 Y241.66 Z-1.50
G1 X-116.27 Y241.74 Z-1.31
G1 X-115.87 Y241.83 Z-1.12
G1 X-115.46 Y241.90 Z-0.96
G1 X-115.07 Y241.97 Z-0.83
G1 X-114.72 Y242.03 Z-0.74
G1 X-114.43 Y242.07 Z-0.68
G1 X-113.89 Y242.09 Z-0.61
G1 X-113.45 Y242.04 Z-0.60
G1 X-113.10 Y241.98 Z-0.62
G1 X-112.86 Y241.93 Z-0.65
G1 X-109.56 Y241.37 Z-2.00
G1 X-112.86 Y241.93 Z0.00
G0 Z0.00
G0 Z30.00

G0 X-119.57 Y236.59
G1 X-119.57 Y236.59 Z0.00 F1000.00
G1 X-119.04 Y236.76 Z-0.45
G1 X-118.51 Y236.94 Z-0.70
G1 X-117.98 Y237.11 Z-0.89
G1 X-117.73 Y237.19 Z-1.61
G1 X-117.43 Y237.28 Z-1.71
G1 X-117.07 Y237.36 Z-1.53
G1 X-116.64 Y237.45 Z-1.33
G1 X-116.35 Y237.50 Z-1.20
G1 X-116.02 Y237.56 Z-1.07
G1 X-115.66 Y237.62 Z-0.94
G1 X-115.30 Y237.68 Z-0.83
G1 X-114.94 Y237.73 Z-0.74
G1 X-114.60 Y237.76 Z-0.67
G1 X-114.30 Y237.78 Z-0.63
G1 X-113.82 Y237.76 Z-0.60
G1 X-113.38 Y237.69 Z-0.61
G1 X-113.01 Y237.60 Z-0.65
G1 X-112.76 Y237.55 Z-0.69
G1 X-111.12 Y237.20 Z-1.20
G1 X-109.48 Y236.84 Z-2.00
G1 X-111.12 Y237.20 Z0.00
G1 X-112.76 Y237.55 Z0.00
G0 Z0.00
G0 Z30.00

G0 X-92.53 Y252.62
G1 X-92.53 Y252.62 Z0.00 F1000.00
G1 X-91.96 Y252.47 Z-0.42
G1 X-91.40 Y252.31 Z-0.65
G1 X-90.84 Y252.16 Z-0.84
G1 X-90.54 Y252.07 Z-1.59
G1 X-90.10 Y251.96 Z-1.83
G1 X-89.64 Y251.88 Z-1.72
G1 X-89.52 Y251.81 Z-1.69
G1 X-89.54 Y251.73 Z-1.67
G1 X-89.24 Y251.72 Z-1.61
G1 X-88.20 Y251.88 Z-1.38
G1 X-87.99 Y251.91 Z-1.34
G1 X-87.75 Y251.95 Z-1.29
G1 X-87.48 Y252.00 Z-1.24
G1 X-87.19 Y252.06 Z-1.18
G1 X-86.87 Y252.11 Z-1.12
G1 X-86.54 Y252.18 Z-1.06
G1 X-86.19 Y252.24 Z-1.01
G1 X-85.82 Y252.31 Z-0.95
G1 X-85.44 Y252.39 Z-0.89
G1 X-85.04 Y252.46 Z-0.84
G1 X-84.64 Y252.54 Z-0.79
G1 X-84.22 Y252.62 Z-0.74
G1 X-83.80 Y252.70 Z-0.70
G1 X-83.37 Y252.79 Z-0.67
G1 X-82.95 Y252.87 Z-0.64
G1 X-82.52 Y252.95 Z-0.62
G1 X-82.09 Y253.04 Z-0.61
G1 X-81.66 Y253.12 Z-0.60
G1 X-81.24 Y253.20 Z-0.60
G1 X-80.82 Y253.28 Z-0.61
G1 X-80.42 Y253.36 Z-0.62
G1 X-80.02 Y253.44 Z-0.64
G1 X-79.63 Y253.51 Z-0.67
G1 X-79.26 Y253.58 Z-0.70
G1 X-78.91 Y253.65 Z-0.73
G1 X-78.57 Y253.71 Z-0.76
G1 X-78.26 Y253.77 Z-0.80
G1 X-77.96 Y253.82 Z-0.84
G1 X-77.69 Y253.87 Z-0.87
G1 X-77.44 Y253.91 Z-0.91
G1 X-77.23 Y253.94 Z-0.94
G1 X-76.11 Y254.08 Z-1.12
G1 X-75.70 Y254.06 Z-1.20
G1 X-75.63 Y253.97 Z-1.22
G1 X-74.96 Y253.52 Z-1.38
G1 X-74.37 Y253.14 Z-1.53
G1 X-73.78 Y252.75 Z-1.68
G1 X-73.20 Y252.37 Z-1.84
G1 X-72.61 Y251.98 Z-2.00
G1 X-73.20 Y252.37 Z0.00
G1 X-73.78 Y252.75 Z0.00
G1 X-74.37 Y253.14 Z0.00
G1 X-74.96 Y253.52 Z0.00
G1 X-75.54 Y253.91 Z0.00
G0 Z0.00
G0 Z30.00

G0 X-85.29 Y251.00
G1 X-85.29 Y251.00 Z0.00 F1000.00
G1 X-85.00 Y250.88 Z-0.17
G1 X-84.58 Y250.72 Z-0.39
G1 X-83.86 Y249.98 Z-0.83
G1 X-83.75 Y250.46 Z-0.99
G1 X-83.71 Y249.17 Z-1.32
G1 X-83.71 Y248.76 Z-1.25
G1 X-83.71 Y248.26 Z-1.17
G1 X-83.71 Y247.98 Z-1.12
G1 X-83.72 Y247.68 Z-1.08
G1 X-83.72 Y247.36 Z-1.03
G1 X-83.72 Y247.03 Z-0.98
G1 X-83.72 Y246.69 Z-0.94
G1 X-83.72 Y246.33 Z-0.89
G1 X-83.72 Y245.96 Z-0.85
G1 X-83.72 Y245.58 Z-0.81
G1 X-83.72 Y245.18 Z-0.77
G1 X-83.72 Y244.78 Z-0.73
G1 X-83.72 Y244.37 Z-0.70
G1 X-83.72 Y243.96 Z-0.67
G1 X-83.72 Y243.53 Z-0.65
G1 X-83.73 Y243.11 Z-0.63
G1 X-83.73 Y242.68 Z-0.61
G1 X-83.73 Y242.25 Z-0.60
G1 X-83.73 Y241.81 Z-0.60
G1 X-83.73 Y241.38 Z-0.60
G1 X-83.74 Y240.95 Z-0.61
G1 X-83.74 Y240.52 Z-0.62
G1 X-83.74 Y240.09 Z-0.64
G1 X-83.75 Y239.67 Z-0.66
G1 X-83.75 Y239.25 Z-0.68
G1 X-83.76 Y238.84 Z-0.71
G1 X-83.76 Y238.44 Z-0.75
G1 X-83.77 Y238.05 Z-0.78
G1 X-83.77 Y237.67 Z-0.82
G1 X-83.78 Y237.29 Z-0.86
G1 X-83.78 Y236.93 Z-0.91
G1 X-83.79 Y236.59 Z-0.95
G1 X-83.80 Y236.26 Z-1.00
G1 X-83.80 Y235.94 Z-1.04
G1 X-83.81 Y235.64 Z-1.09
G1 X-83.82 Y235.36 Z-1.13
G1 X-83.83 Y235.10 Z-1.17
G1 X-83.84 Y234.86 Z-1.21
G1 X-83.85 Y234.64 Z-1.25
G1 X-83.86 Y234.44 Z-1.28
G1 X-84.07 Y233.09 Z-1.52
G1 X-84.35 Y233.28 Z-1.59
G1 X-84.56 Y233.57 Z-1.65
G1 X-84.89 Y234.04 Z-1.77
G1 X-85.23 Y234.52 Z-1.88
G1 X-85.57 Y235.00 Z-2.00
G1 X-85.91 Y235.47 Z-1.00
G1 X-86.25 Y235.95 Z-1.00
G1 X-86.59 Y236.43 Z-1.00
G1 X-86.25 Y235.95 Z0.00
G1 X-85.91 Y235.47 Z0.00
G1 X-85.57 Y235.00 Z0.00
G1 X-85.23 Y234.52 Z0.00
G1 X-84.89 Y234.04 Z0.00
G1 X-84.56 Y233.57 Z0.00
G1 X-84.35 Y233.28 Z0.00
G0 Z0.00
G0 Z30.00

G0 X-83.21 Y243.24
G1 X-83.21 Y243.24 Z0.00 F1000.00
G1 X-82.64 Y243.37 Z-0.46
G1 X-82.07 Y243.50 Z-0.71
G1 X-81.50 Y243.63 Z-0.91
G1 X-81.26 Y243.69 Z-1.64
G1 X-80.96 Y243.76 Z-1.76
G1 X-80.61 Y243.85 Z-1.61
G1 X-80.23 Y243.95 Z-1.44
G1 X-79.81 Y244.05 Z-1.28
G1 X-79.39 Y244.16 Z-1.12
G1 X-78.95 Y244.27 Z-0.98
G1 X-78.52 Y244.38 Z-0.86
G1 X-78.11 Y244.47 Z-0.76
G1 X-77.73 Y244.56 Z-0.69
G1 X-77.38 Y244.63 Z-0.64
G1 X-77.09 Y244.68 Z-0.62
G1 X-76.49 Y244.75 Z-0.60
G1 X-76.00 Y244.75 Z-0.62
G1 X-75.60 Y244.71 Z-0.67
G1 X-75.29 Y244.67 Z-0.71
G1 X-73.30 Y244.49 Z-1.27
G1 X-71.56 Y244.33 Z-2.00
G1 X-73.30 Y244.49 Z0.00
G1 X-75.05 Y244.65 Z0.00
G0 Z0.00
G0 Z30.00

G0 X-93.40 Y244.23
G1 X-93.40 Y244.23 Z0.00 F1000.00
G1 X-93.19 Y244.14 Z-0.24
G1 X-92.90 Y244.08 Z-0.53
G1 X-92.55 Y243.98 Z-0.85
G1 X-92.21 Y243.76 Z-1.16
G1 X-91.90 Y243.33 Z-1.49
G1 X-91.68 Y242.62 Z-1.30
G1 X-91.64 Y242.39 Z-1.24
G1 X-91.61 Y242.12 Z-1.18
G1 X-91.58 Y241.82 Z-1.11
G1 X-91.55 Y241.50 Z-1.04
G1 X-91.53 Y241.15 Z-0.97
G1 X-91.51 Y240.78 Z-0.90
G1 X-91.49 Y240.39 Z-0.84
G1 X-91.48 Y239.98 Z-0.78
G1 X-91.46 Y239.57 Z-0.72
G1 X-91.45 Y239.14 Z-0.68
G1 X-91.45 Y238.70 Z-0.64
G1 X-91.44 Y238.26 Z-0.62
G1 X-91.44 Y237.82 Z-0.60
G1 X-91.43 Y237.39 Z-0.60
G1 X-91.43 Y236.95 Z-0.61
G1 X-91.43 Y236.53 Z-0.63
G1 X-91.43 Y236.12 Z-0.66
G1 X-91.42 Y235.73 Z-0.69
G1 X-91.42 Y235.35 Z-0.73
G1 X-91.42 Y234.99 Z-0.78
G1 X-91.42 Y234.66 Z-0.83
G1 X-91.41 Y234.36 Z-0.88
G1 X-91.41 Y234.08 Z-0.93
G1 X-91.40 Y233.84 Z-0.98
G1 X-91.26 Y233.36 Z-1.08
G1 X-91.00 Y232.52 Z-1.28
G1 X-90.74 Y231.68 Z-1.51
G1 X-90.49 Y230.84 Z-1.75
G1 X-90.23 Y230.00 Z-2.00
G1 X-90.49 Y230.84 Z0.00
G1 X-90.74 Y231.68 Z0.00
G1 X-91.00 Y232.52 Z0.00
G1 X-91.26 Y233.36 Z0.00
G0 Z0.00
G0 Z30.00

G0 X-100.00 Y232.38
G1 X-100.00 Y232.38 Z0.00 F1000.00
G1 X-99.45 Y232.19 Z-0.40
G1 X-98.89 Y232.00 Z-0.63
G1 X-98.34 Y231.81 Z-0.81
G1 X-98.01 Y231.70 Z-1.57
G1 X-97.54 Y231.54 Z-1.87
G1 X-97.08 Y231.43 Z-1.80
G1 X-97.02 Y231.35 Z-1.79
G1 X-96.98 Y231.32 Z-1.78
G1 X-95.96 Y231.43 Z-1.62
G1 X-95.75 Y231.45 Z-1.59
G1 X-95.52 Y231.48 Z-1.56
G1 X-95.28 Y231.51 Z-1.53
G1 X-95.02 Y231.54 Z-1.49
G1 X-94.74 Y231.58 Z-1.45
G1 X-94.45 Y231.61 Z-1.41
G1 X-94.15 Y231.65 Z-1.37
G1 X-93.83 Y231.70 Z-1.32
G1 X-93.50 Y231.74 Z-1.28
G1 X-93.16 Y231.79 Z-1.23
G1 X-92.80 Y231.83 Z-1.19
G1 X-92.44 Y231.88 Z-1.15
G1 X-92.07 Y231.93 Z-1.10
G1 X-91.69 Y231.98 Z-1.06
G1 X-91.30 Y232.03 Z-1.01
G1 X-90.91 Y232.08 Z-0.97
G1 X-90.51 Y232.13 Z-0.93
G1 X-90.11 Y232.19 Z-0.89
G1 X-89.70 Y232.24 Z-0.86
G1 X-89.29 Y232.29 Z-0.82
G1 X-88.88 Y232.34 Z-0.79
G1 X-88.47 Y232.39 Z-0.76
G1 X-88.06 Y232.44 Z-0.73
G1 X-87.65 Y232.48 Z-0.70
G1 X-87.24 Y232.53 Z-0.68
G1 X-86.83 Y232.57 Z-0.66
G1 X-86.43 Y232.61 Z-0.65
G1 X-86.03 Y232.65 Z-0.63
G1 X-85.71 Y232.68 Z-0.62
G1 X-85.37 Y232.72 Z-0.61
G1 X-85.03 Y232.75 Z-0.61
G1 X-84.67 Y232.78 Z-0.60
G1 X-84.31 Y232.81 Z-0.60
G1 X-83.93 Y232.84 Z-0.60
G1 X-83.55 Y232.88 Z-0.60
G1 X-83.17 Y232.91 Z-0.61
G1 X-82.77 Y232.94 Z-0.61
G1 X-82.38 Y232.97 Z-0.62
G1 X-81.98 Y233.01 Z-0.64
G1 X-81.58 Y233.04 Z-0.65
G1 X-81.17 Y233.07 Z-0.67
G1 X-80.77 Y233.10 Z-0.69
G1 X-80.37 Y233.13 Z-0.71
G1 X-79.96 Y233.16 Z-0.74
G1 X-79.56 Y233.19 Z-0.77
G1 X-79.16 Y233.22 Z-0.80
G1 X-78.77 Y233.25 Z-0.83
G1 X-78.38 Y233.28 Z-0.86
G1 X-78.00 Y233.31 Z-0.90
G1 X-77.62 Y233.34 Z-0.93
G1 X-77.26 Y233.36 Z-0.97
G1 X-76.90 Y233.39 Z-1.01
G1 X-76.55 Y233.41 Z-1.05
G1 X-76.21 Y233.44 Z-1.09
G1 X-75.88 Y233.46 Z-1.12
G1 X-75.57 Y233.48 Z-1.16
G1 X-75.26 Y233.50 Z-1.20
G1 X-74.98 Y233.52 Z-1.24
G1 X-74.71 Y233.54 Z-1.27
G1 X-74.45 Y233.56 Z-1.30
G1 X-74.21 Y233.57 Z-1.34
G1 X-73.99 Y233.59 Z-1.37
G1 X-73.79 Y233.60 Z-1.39
G1 X-72.62 Y233.68 Z-1.56
G1 X-72.69 Y233.65 Z-1.57
G1 X-72.60 Y233.53 Z-1.59
G1 X-72.28 Y233.44 Z-1.64
G1 X-71.88 Y233.32 Z-1.70
G1 X-71.45 Y233.18 Z-1.77
G1 X-71.00 Y233.03 Z-1.84
G1 X-70.59 Y232.89 Z-1.90
G1 X-70.25 Y232.77 Z-1.96
G1 X-70.00 Y232.69 Z-2.00
G1 X-70.25 Y232.77 Z0.00
G1 X-70.59 Y232.89 Z0.00
G1 X-71.00 Y233.03 Z0.00
G1 X-71.45 Y233.18 Z0.00
G1 X-71.88 Y233.32 Z0.00
G1 X-72.28 Y233.44 Z0.00
G1 X-72.60 Y233.53 Z0.00
G1 X-72.69 Y233.65 Z0.00
G1 X-72.62 Y233.68 Z0.00
G1 X-73.79 Y233.60 Z0.00
G0 Z0.00
G0 Z30.00

G0 X-59.90 Y259.35
G1 X-59.90 Y259.35 Z0.00 F1000.00
G1 X-59.67 Y259.11 Z-0.34
G1 X-59.45 Y258.82 Z-0.68
G1 X-59.42 Y258.33 Z-1.04
G1 X-59.49 Y258.06 Z-1.20
G1 X-59.58 Y257.76 Z-1.35
G1 X-59.71 Y257.42 Z-1.24
G1 X-59.85 Y257.06 Z-1.12
G1 X-60.03 Y256.67 Z-1.00
G1 X-60.23 Y256.27 Z-0.89
G1 X-60.45 Y255.86 Z-0.79
G1 X-60.70 Y255.45 Z-0.71
G1 X-60.88 Y255.17 Z-0.67
G1 X-61.07 Y254.87 Z-0.63
G1 X-61.28 Y254.56 Z-0.61
G1 X-61.50 Y254.24 Z-0.60
G1 X-61.73 Y253.92 Z-0.61
G1 X-61.97 Y253.60 Z-0.63
G1 X-62.22 Y253.27 Z-0.67
G1 X-62.48 Y252.95 Z-0.73
G1 X-62.74 Y252.63 Z-0.80
G1 X-63.00 Y252.32 Z-0.89
G1 X-63.27 Y252.02 Z-0.98
G1 X-63.54 Y251.73 Z-1.09
G1 X-63.83 Y251.45 Z-1.21
G1 X-64.14 Y251.16 Z-1.35
G1 X-64.47 Y250.87 Z-1.63
G1 X-64.82 Y250.58 Z-1.91
G1 X-65.17 Y250.30 Z-2.00
G1 X-65.52 Y250.03 Z-2.00
G1 X-65.86 Y249.77 Z-2.00
G1 X-66.18 Y249.52 Z-1.79
G1 X-66.48 Y249.30 Z-1.54
G1 X-66.75 Y249.10 Z-1.31
G1 X-66.97 Y248.92 Z-1.22
G1 X-67.86 Y248.22 Z-0.86
G1 X-68.57 Y247.65 Z-0.58
G1 X-69.29 Y247.09 Z-0.29
G1 X-70.00 Y246.52 Z0.00
G0 Z0.00
G0 Z30.00

G0 X-62.23 Y253.82
G1 X-62.23 Y253.82 Z0.00 F1000.00
G1 X-61.62 Y253.85 Z-0.47
G1 X-61.01 Y253.89 Z-0.74
G1 X-60.41 Y253.92 Z-0.95
G1 X-60.19 Y253.93 Z-1.72
G1 X-59.92 Y253.94 Z-1.87
G1 X-59.61 Y253.94 Z-1.79
G1 X-59.25 Y253.95 Z-1.69
G1 X-58.85 Y253.97 Z-1.59
G1 X-58.41 Y254.00 Z-1.47
G1 X-57.92 Y254.05 Z-1.35
G1 X-57.38 Y254.12 Z-1.23
G1 X-56.80 Y254.21 Z-1.10
G1 X-56.52 Y254.27 Z-1.04
G1 X-56.20 Y254.33 Z-0.98
G1 X-55.86 Y254.40 Z-0.92
G1 X-55.50 Y254.48 Z-0.86
G1 X-55.11 Y254.57 Z-0.80
G1 X-54.72 Y254.66 Z-0.75
G1 X-54.31 Y254.76 Z-0.70
G1 X-53.89 Y254.86 Z-0.66
G1 X-53.47 Y254.96 Z-0.63
G1 X-53.05 Y255.07 Z-0.61
G1 X-52.63 Y255.17 Z-0.60
G1 X-52.22 Y255.27 Z-0.60
G1 X-51.82 Y255.37 Z-0.61
G1 X-51.43 Y255.46 Z-0.62
G1 X-51.05 Y255.55 Z-0.65
G1 X-50.70 Y255.64 Z-0.68
G1 X-50.37 Y255.71 Z-0.71
G1 X-50.07 Y255.78 Z-0.74
G1 X-49.79 Y255.84 Z-0.78
G1 X-49.55 Y255.89 Z-0.81
G1 X-48.72 Y256.00 Z-0.95
G1 X-48.30 Y255.99 Z-1.02
G1 X-48.11 Y255.93 Z-1.06
G1 X-47.07 Y255.66 Z-1.30
G1 X-46.19 Y255.44 Z-1.52
G1 X-45.30 Y255.22 Z-1.76
G1 X-44.42 Y255.00 Z-2.00
G1 X-45.30 Y255.22 Z0.00
G1 X-46.19 Y255.44 Z0.00
G1 X-47.07 Y255.66 Z0.00
G1 X-47.95 Y255.89 Z0.00
G0 Z0.00
G0 Z30.00

G0 X-63.75 Y249.80
G1 X-63.75 Y249.80 Z0.00 F1000.00
G1 X-63.14 Y249.73 Z-0.43
G1 X-62.54 Y249.66 Z-0.67
G1 X-61.94 Y249.58 Z-0.86
G1 X-61.65 Y249.55 Z-1.60
G1 X-61.23 Y249.50 Z-1.79
G1 X-60.77 Y249.46 Z-1.65
G1 X-60.34 Y249.44 Z-1.52
G1 X-60.04 Y249.43 Z-1.44
G1 X-59.82 Y249.42 Z-1.38
G1 X-59.47 Y249.47 Z-1.29
G1 X-58.77 Y249.62 Z-1.11
G1 X-58.51 Y249.69 Z-1.05
G1 X-58.21 Y249.77 Z-0.98
G1 X-57.86 Y249.86 Z-0.91
G1 X-57.49 Y249.97 Z-0.84
G1 X-57.09 Y250.08 Z-0.77
G1 X-56.67 Y250.20 Z-0.72
G1 X-56.24 Y250.33 Z-0.67
G1 X-55.80 Y250.45 Z-0.63
G1 X-55.36 Y250.58 Z-0.61
G1 X-54.93 Y250.70 Z-0.60
G1 X-54.51 Y250.82 Z-0.60
G1 X-54.11 Y250.93 Z-0.62
G1 X-53.74 Y251.03 Z-0.64
G1 X-53.39 Y251.12 Z-0.67
G1 X-53.09 Y251.20 Z-0.71
G1 X-52.83 Y251.26 Z-0.74
G1 X-52.10 Y251.38 Z-0.85
G1 X-51.70 Y251.36 Z-0.93
G1 X-51.47 Y251.30 Z-0.97
G1 X-50.12 Y251.00 Z-1.30
G1 X-48.93 Y250.73 Z-1.64
G1 X-47.75 Y250.46 Z-2.00
G1 X-48.93 Y250.73 Z0.00
G1 X-50.12 Y251.00 Z0.00
G1 X-51.30 Y251.26 Z0.00
G0 Z0.00
G0 Z30.00

G0 X-68.09 Y244.63
G1 X-68.09 Y244.63 Z0.00 F1000.00
G1 X-67.52 Y244.43 Z-0.42
G1 X-66.95 Y244.22 Z-0.65
G1 X-66.38 Y244.01 Z-0.84
G1 X-66.08 Y243.90 Z-1.58
G1 X-65.64 Y243.75 Z-1.81
G1 X-65.18 Y243.65 Z-1.69
G1 X-64.87 Y243.60 Z-1.62
G1 X-64.54 Y243.60 Z-1.54
G1 X-63.80 Y243.72 Z-1.37
G1 X-63.55 Y243.77 Z-1.31
G1 X-63.27 Y243.82 Z-1.25
G1 X-62.97 Y243.88 Z-1.19
G1 X-62.65 Y243.94 Z-1.12
G1 X-62.31 Y244.01 Z-1.06
G1 X-61.94 Y244.09 Z-0.99
G1 X-61.57 Y244.17 Z-0.93
G1 X-61.17 Y244.25 Z-0.87
G1 X-60.77 Y244.34 Z-0.81
G1 X-60.36 Y244.44 Z-0.76
G1 X-59.94 Y244.54 Z-0.71
G1 X-59.51 Y244.64 Z-0.67
G1 X-59.09 Y244.74 Z-0.64
G1 X-58.66 Y244.85 Z-0.62
G1 X-58.33 Y244.94 Z-0.61
G1 X-57.99 Y245.03 Z-0.60
G1 X-57.62 Y245.13 Z-0.60
G1 X-57.24 Y245.24 Z-0.61
G1 X-56.85 Y245.35 Z-0.62
G1 X-56.44 Y245.46 Z-0.64
G1 X-56.04 Y245.58 Z-0.67
G1 X-55.63 Y245.70 Z-0.70
G1 X-55.22 Y245.82 Z-0.75
G1 X-54.81 Y245.94 Z-0.80
G1 X-54.41 Y246.05 Z-0.85
G1 X-54.02 Y246.17 Z-0.91
G1 X-53.65 Y246.28 Z-0.98
G1 X-53.29 Y246.38 Z-1.04
G1 X-52.95 Y246.48 Z-1.11
G1 X-52.63 Y246.57 Z-1.17
G1 X-52.34 Y246.65 Z-1.23
G1 X-52.08 Y246.72 Z-1.29
G1 X-51.85 Y246.78 Z-1.34
G1 X-50.98 Y246.96 Z-1.54
G1 X-50.72 Y246.94 Z-1.61
G1 X-50.28 Y246.71 Z-1.85
G1 X-50.00 Y246.49 Z-2.00
G1 X-49.81 Y246.09 Z-2.00
G1 X-49.87 Y245.78 Z-2.00
G1 X-50.00 Y245.41 Z-1.81
G1 X-50.17 Y244.96 Z-1.13
G1 X-50.32 Y244.38 Z-0.73
G1 X-50.38 Y244.06 Z-0.80
G1 X-50.44 Y243.70 Z-1.18
G1 X-50.50 Y243.30 Z-1.77
G1 X-50.56 Y242.88 Z-2.00
G1 X-50.62 Y242.46 Z-1.38
G1 X-50.68 Y242.03 Z-1.25
G1 X-50.72 Y241.62 Z-1.12
G1 X-50.76 Y241.23 Z-1.00
G1 X-50.79 Y240.88 Z-1.00
G1 X-50.82 Y240.42 Z-1.00
G1 X-50.83 Y240.02 Z-1.00
G1 X-50.82 Y239.64 Z-1.00
G1 X-50.80 Y239.27 Z-1.00
G1 X-50.77 Y238.89 Z-1.00
G1 X-50.72 Y238.48 Z-1.00
G1 X-50.67 Y238.13 Z-1.00
G1 X-50.62 Y237.77 Z-1.00
G1 X-50.55 Y237.40 Z-1.00
G1 X-50.48 Y237.01 Z-1.00
G1 X-50.39 Y236.63 Z-1.00
G1 X-50.30 Y236.26 Z-1.00
G1 X-50.21 Y235.90 Z-1.00
G1 X-50.10 Y235.56 Z-1.00
G1 X-49.96 Y235.19 Z-1.00
G1 X-49.81 Y234.82 Z-1.00
G1 X-49.64 Y234.45 Z-1.00
G1 X-49.46 Y234.11 Z-1.00
G1 X-49.29 Y233.78 Z-1.00
G1 X-49.12 Y233.49 Z-1.00
G1 X-48.97 Y233.23 Z-1.00
G1 X-48.68 Y232.80 Z-1.00
G1 X-48.42 Y232.51 Z-1.00
G1 X-48.10 Y232.21 Z-1.00
G1 X-47.85 Y231.99 Z-1.00
G1 X-47.58 Y231.76 Z-1.00
G1 X-47.29 Y231.54 Z-1.00
G1 X-46.98 Y231.32 Z-1.00
G1 X-46.64 Y231.12 Z-1.00
G1 X-46.26 Y230.94 Z-2.00
G1 X-45.85 Y230.76 Z-1.78
G1 X-45.42 Y230.61 Z-1.56
G1 X-45.00 Y230.47 Z-1.36
G1 X-44.60 Y230.35 Z-1.18
G1 X-44.16 Y230.24 Z-1.01
G1 X-43.75 Y230.14 Z-0.88
G1 X-43.34 Y230.09 Z-0.77
G1 X-42.89 Y230.10 Z-0.68
G1 X-42.47 Y230.07 Z-0.62
G1 X-42.01 Y230.00 Z-0.60
G1 X-41.54 Y230.00 Z-0.61
G1 X-41.12 Y230.18 Z-0.67
G1 X-40.78 Y230.65 Z-0.78
G1 X-40.69 Y230.88 Z-0.84
G1 X-40.61 Y231.16 Z-0.93
G1 X-40.54 Y231.50 Z-1.05
G1 X-40.47 Y231.87 Z-1.19
G1 X-40.41 Y232.27 Z-1.49
G1 X-40.35 Y232.70 Z-1.81
G1 X-40.30 Y233.14 Z-1.00
G1 X-40.26 Y233.59 Z-0.91
G1 X-40.22 Y234.04 Z-0.82
G1 X-40.18 Y234.49 Z-0.74
G1 X-40.14 Y234.92 Z-0.66
G1 X-40.11 Y235.33 Z-0.58
G1 X-40.08 Y235.71 Z-0.52
G1 X-40.06 Y236.05 Z-0.46
G1 X-40.03 Y236.34 Z-0.41
G1 X-40.01 Y236.58 Z-0.37
G1 X-40.00 Y237.39 Z-0.26
G1 X-40.28 Y237.61 Z-0.21
G1 X-40.66 Y237.91 Z-0.16
G1 X-41.04 Y238.21 Z-0.11
G1 X-41.42 Y238.50 Z-0.07
G1 X-41.80 Y238.80 Z-0.04
G1 X-42.19 Y239.10 Z-0.02
G1 X-42.57 Y239.40 Z-0.00
G1 X-42.95 Y239.70 Z0.00
G0 Z0.00
G0 Z30.00

G0 Z0.00
M30
