G21
G90
G17
G0 Z40.00

G0 X122.93 Y314.51
G1 X122.93 Y314.51 Z30.00 F1800.00
G1 X123.62 Y314.23 Z27.35
G1 X124.83 Y313.95 Z23.05
G1 X125.28 Y313.85 Z21.53
G1 X125.60 Y313.72 Z20.39
G1 X126.12 Y313.64 Z18.68
G1 X127.16 Y313.69 Z15.38
G1 X129.04 Y313.95 Z9.67
G1 X129.56 Y314.04 Z8.15
G1 X130.16 Y314.14 Z6.45
G1 X130.81 Y314.26 Z4.59
G1 X131.52 Y314.40 Z4.88
G1 X132.29 Y314.55 Z5.16
G1 X133.10 Y314.71 Z5.45
G1 X133.95 Y314.87 Z5.74
G1 X134.83 Y315.05 Z6.01
G1 X135.74 Y315.23 Z6.26
G1 X136.67 Y315.42 Z6.49
G1 X137.62 Y315.61 Z6.69
G1 X138.57 Y315.81 Z6.86
G1 X139.53 Y316.01 Z7.00
G1 X140.48 Y316.20 Z7.10
G1 X141.43 Y316.40 Z7.17
G1 X142.36 Y316.59 Z7.20
G1 X143.26 Y316.77 Z7.19
G1 X144.14 Y316.95 Z7.16
G1 X144.99 Y317.13 Z7.10
G1 X145.79 Y317.29 Z7.01
G1 X146.55 Y317.44 Z6.91
G1 X147.25 Y317.58 Z6.80
G1 X147.90 Y317.71 Z6.68
G1 X148.48 Y317.83 Z6.55
G1 X148.99 Y317.92 Z6.44
G1 X151.08 Y318.30 Z5.87
G1 X151.93 Y318.42 Z5.60
G1 X152.22 Y318.41 Z5.50
G1 X152.64 Y318.40 Z5.36
G1 X153.94 Y318.31 Z4.88
G1 X154.79 Y318.16 Z4.55
G1 X156.74 Y317.82 Z3.72
G1 X158.70 Y317.47 Z2.82
G1 X160.66 Y317.13 Z1.87
G1 X162.61 Y316.78 Z0.90
G1 X160.66 Y317.13 Z9.00
G1 X158.70 Y317.47 Z9.00
G1 X156.74 Y317.82 Z9.00
G1 X154.79 Y318.16 Z9.00
G1 X153.94 Y318.31 Z9.00
G0 Z30.00
G0 Z60.00

G0 X111.25 Y292.50
G1 X111.25 Y292.50 Z30.00 F1800.00
G1 X112.07 Y292.22 Z26.79
G1 X113.23 Y291.94 Z22.49
G1 X113.35 Y291.76 Z21.71
G1 X113.55 Y291.64 Z20.89
G1 X115.93 Y291.94 Z12.68
G1 X116.41 Y292.02 Z11.09
G1 X116.93 Y292.10 Z9.35
G1 X117.51 Y292.20 Z7.47
G1 X118.13 Y292.30 Z5.46
G1 X118.79 Y292.41 Z3.36
G1 X119.49 Y292.54 Z3.57
G1 X120.23 Y292.66 Z3.78
G1 X121.00 Y292.80 Z4.00
G1 X121.80 Y292.94 Z4.23
G1 X122.63 Y293.09 Z4.46
G1 X123.47 Y293.24 Z4.68
G1 X124.34 Y293.39 Z4.91
G1 X125.23 Y293.55 Z5.13
G1 X126.12 Y293.71 Z5.34
G1 X127.03 Y293.87 Z5.54
G1 X127.95 Y294.03 Z5.74
G1 X128.86 Y294.19 Z5.93
G1 X129.78 Y294.35 Z6.10
G1 X130.70 Y294.51 Z6.27
G1 X131.61 Y294.67 Z6.42
G1 X132.50 Y294.82 Z6.55
G1 X133.39 Y294.97 Z6.67
G1 X134.26 Y295.12 Z6.78
G1 X135.11 Y295.26 Z6.88
G1 X135.94 Y295.40 Z6.96
G1 X136.74 Y295.52 Z7.02
G1 X137.52 Y295.64 Z7.08
G1 X138.26 Y295.76 Z7.12
G1 X138.26 Y295.76 Z7.12
G1 X139.15 Y295.89 Z7.16
G1 X140.05 Y296.02 Z7.19
G1 X140.95 Y296.14 Z7.20
G1 X141.86 Y296.27 Z7.20
G1 X142.77 Y296.39 Z7.18
G1 X143.68 Y296.52 Z7.15
G1 X144.58 Y296.64 Z7.11
G1 X145.48 Y296.75 Z7.06
G1 X146.37 Y296.87 Z6.99
G1 X147.25 Y296.98 Z6.91
G1 X148.11 Y297.08 Z6.82
G1 X148.96 Y297.19 Z6.72
G1 X149.79 Y297.29 Z6.61
G1 X150.60 Y297.38 Z6.49
G1 X151.39 Y297.47 Z6.37
G1 X152.15 Y297.55 Z6.24
G1 X152.88 Y297.63 Z6.11
G1 X153.58 Y297.71 Z5.98
G1 X154.25 Y297.77 Z5.85
G1 X154.88 Y297.83 Z5.72
G1 X155.48 Y297.89 Z5.59
G1 X156.03 Y297.94 Z5.47
G1 X156.54 Y297.98 Z5.36
G1 X156.54 Y297.98 Z5.36
G1 X158.27 Y298.07 Z4.94
G1 X159.23 Y298.01 Z4.70
G1 X159.72 Y297.86 Z4.57
G1 X160.07 Y297.67 Z4.46
G1 X160.59 Y297.50 Z4.32
G1 X161.50 Y297.28 Z4.06
G1 X162.39 Y297.00 Z3.79
G1 X163.15 Y296.73 Z3.56
G1 X163.69 Y296.55 Z3.39
G1 X164.63 Y296.23 Z3.10
G1 X165.57 Y295.91 Z2.79
G1 X166.51 Y295.59 Z2.49
G1 X167.45 Y295.27 Z2.17
G1 X168.39 Y294.95 Z1.86
G1 X169.33 Y294.62 Z1.54
G1 X170.27 Y294.30 Z1.22
G1 X171.21 Y293.98 Z0.90
G1 X170.27 Y294.30 Z9.00
G1 X169.33 Y294.62 Z9.00
G1 X168.39 Y294.95 Z9.00
G1 X167.45 Y295.27 Z9.00
G1 X166.51 Y295.59 Z9.00
G1 X165.57 Y295.91 Z9.00
G1 X164.63 Y296.23 Z9.00
G1 X163.69 Y296.55 Z9.00
G0 Z30.00
G0 Z60.00

G0 X131.83 Y311.81
G1 X131.83 Y311.81 Z30.00 F1800.00
G1 X132.39 Y311.56 Z28.26
G1 X133.21 Y311.22 Z25.66
G1 X134.12 Y310.82 Z22.68
G1 X134.96 Y310.44 Z19.28
G1 X136.04 Y309.34 Z13.34
G1 X136.00 Y308.88 Z12.59
G1 X135.95 Y308.33 Z11.71
G1 X135.89 Y307.71 Z9.63
G1 X135.83 Y307.02 Z7.30
G1 X135.76 Y306.26 Z4.72
G1 X135.68 Y305.46 Z4.48
G1 X135.59 Y304.60 Z4.23
G1 X135.50 Y303.71 Z3.98
G1 X135.40 Y302.79 Z3.72
G1 X135.31 Y301.84 Z3.46
G1 X135.20 Y300.88 Z3.20
G1 X135.10 Y299.91 Z2.95
G1 X135.00 Y298.94 Z2.71
G1 X134.89 Y297.98 Z2.47
G1 X134.79 Y297.03 Z2.25
G1 X134.68 Y296.11 Z2.04
G1 X134.58 Y295.22 Z1.85
G1 X134.48 Y294.36 Z1.67
G1 X134.38 Y293.55 Z1.51
G1 X134.29 Y292.79 Z1.36
G1 X134.21 Y292.09 Z1.24
G1 X134.12 Y291.46 Z0.00
G1 X134.05 Y290.91 Z0.00
G1 X134.05 Y290.91 Z0.00
G1 X133.81 Y289.28 Z0.00
G1 X133.60 Y288.21 Z0.64
G1 X133.42 Y287.51 Z0.55
G1 X133.24 Y286.99 Z0.48
G1 X133.03 Y286.47 Z0.00
G1 X132.78 Y285.74 Z0.00
G1 X132.78 Y285.74 Z0.00
G1 X132.53 Y284.97 Z0.00
G1 X132.26 Y284.18 Z0.20
G1 X131.97 Y283.38 Z0.14
G1 X131.66 Y282.58 Z0.10
G1 X131.35 Y281.80 Z0.06
G1 X131.03 Y281.05 Z0.00
G1 X130.71 Y280.34 Z0.00
G1 X130.71 Y280.34 Z0.00
G1 X130.36 Y279.58 Z0.00
G1 X130.01 Y278.89 Z0.00
G1 X129.66 Y278.23 Z0.01
G1 X129.28 Y277.58 Z0.02
G1 X128.84 Y276.91 Z0.00
G1 X128.33 Y276.21 Z0.00
G1 X128.33 Y276.21 Z0.00
G1 X127.87 Y275.59 Z0.00
G1 X127.41 Y274.96 Z0.17
G1 X126.93 Y274.32 Z0.23
G1 X126.39 Y273.67 Z0.31
G1 X125.75 Y273.01 Z0.40
G1 X124.98 Y272.32 Z0.00
G1 X124.04 Y271.60 Z0.00
G1 X124.04 Y271.60 Z0.00
G1 X123.48 Y271.22 Z0.00
G1 X122.86 Y270.82 Z0.85
G1 X122.18 Y270.39 Z0.98
G1 X121.45 Y269.96 Z1.12
G1 X120.68 Y269.51 Z1.27
G1 X119.88 Y269.06 Z1.44
G1 X119.07 Y268.61 Z1.62
G1 X118.26 Y268.17 Z1.81
G1 X117.45 Y267.74 Z2.00
G1 X116.66 Y267.33 Z2.20
G1 X115.89 Y266.94 Z2.40
G1 X115.16 Y266.58 Z2.59
G1 X114.49 Y266.25 Z2.78
G1 X113.87 Y265.96 Z2.95
G1 X113.87 Y265.96 Z2.95
G1 X112.86 Y265.53 Z3.23
G1 X111.89 Y265.18 Z3.51
G1 X110.98 Y264.89 Z3.77
G1 X110.13 Y264.65 Z4.01
G1 X109.37 Y264.46 Z4.24
G1 X108.69 Y264.31 Z4.44
G1 X108.12 Y264.17 Z4.61
G1 X107.67 Y264.05 Z4.75
G1 X106.90 Y263.85 Z4.98
G1 X106.14 Y263.64 Z5.22
G1 X105.37 Y263.43 Z5.47
G1 X104.60 Y263.23 Z5.71
G1 X103.84 Y263.02 Z5.96
G1 X103.07 Y262.81 Z6.20
G1 X102.30 Y262.61 Z6.45
G1 X101.53 Y262.40 Z6.70
G1 X100.77 Y262.19 Z6.95
G1 X100.00 Y261.98 Z7.20
G0 Z30.00
G0 Z60.00

G0 X137.15 Y293.29
G1 X137.15 Y293.29 Z30.00 F1800.00
G1 X137.23 Y292.59 Z27.45
G1 X137.55 Y291.46 Z23.27
G1 X137.83 Y290.84 Z20.81
G1 X138.17 Y290.16 Z18.08
G1 X138.66 Y289.30 Z14.53
G1 X139.37 Y288.13 Z9.61
G1 X139.69 Y287.61 Z7.43
G1 X140.03 Y287.06 Z5.11
G1 X140.39 Y286.47 Z2.63
G1 X140.78 Y285.84 Z0.00
G1 X141.19 Y285.18 Z0.00
G1 X141.63 Y284.49 Z0.00
G1 X142.10 Y283.76 Z0.00
G1 X142.61 Y282.99 Z0.00
G1 X143.16 Y282.20 Z0.00
G1 X143.75 Y281.36 Z0.00
G1 X144.38 Y280.50 Z0.00
G1 X144.80 Y279.94 Z0.00
G1 X145.26 Y279.33 Z0.00
G1 X145.75 Y278.68 Z0.00
G1 X146.26 Y278.01 Z0.00
G1 X146.80 Y277.30 Z0.00
G1 X147.36 Y276.58 Z0.00
G1 X147.93 Y275.85 Z0.00
G1 X148.51 Y275.10 Z0.00
G1 X149.10 Y274.36 Z0.00
G1 X149.68 Y273.63 Z0.00
G1 X150.26 Y272.90 Z0.00
G1 X150.83 Y272.20 Z0.00
G1 X151.38 Y271.52 Z0.00
G1 X151.91 Y270.88 Z0.00
G1 X152.42 Y270.27 Z0.00
G1 X152.90 Y269.71 Z0.00
G1 X153.35 Y269.20 Z0.00
G1 X153.75 Y268.74 Z0.00
G1 X154.57 Y267.81 Z0.00
G1 X155.13 Y267.14 Z0.00
G1 X155.54 Y266.66 Z0.00
G1 X155.94 Y266.30 Z0.00
G1 X156.44 Y266.00 Z0.00
G1 X157.18 Y265.67 Z0.00
G1 X158.28 Y265.25 Z0.00
G1 X158.28 Y265.25 Z0.00
G1 X158.85 Y265.05 Z0.00
G1 X159.50 Y264.84 Z0.00
G1 X160.23 Y264.63 Z0.00
G1 X161.02 Y264.41 Z0.00
G1 X161.87 Y264.20 Z0.00
G1 X162.76 Y263.97 Z0.00
G1 X163.68 Y263.75 Z0.00
G1 X164.62 Y263.53 Z0.00
G1 X165.56 Y263.32 Z0.00
G1 X166.49 Y263.11 Z0.25
G1 X167.41 Y262.91 Z1.45
G1 X168.29 Y262.71 Z2.61
G1 X169.13 Y262.53 Z3.70
G1 X169.92 Y262.36 Z4.70
G1 X170.64 Y262.20 Z5.61
G1 X171.28 Y262.06 Z6.40
G1 X171.82 Y261.93 Z7.07
G1 X172.27 Y261.83 Z7.61
G1 X173.37 Y261.57 Z8.90
G1 X174.48 Y261.31 Z10.14
G1 X175.58 Y261.04 Z11.31
G1 X176.69 Y260.78 Z12.41
G1 X177.79 Y260.52 Z13.42
G1 X178.90 Y260.26 Z14.35
G1 X180.00 Y260.00 Z15.18
G1 X178.90 Y260.26 Z15.91
G1 X177.79 Y260.52 Z16.54
G1 X176.69 Y260.78 Z17.06
G1 X175.58 Y261.04 Z17.47
G1 X174.48 Y261.31 Z17.76
G1 X173.37 Y261.57 Z17.94
G1 X172.27 Y261.83 Z18.00
G0 Z30.00
G0 Z60.00

G0 Z30.00
M30
