G21
G90
G1 F1000
G0 Z5
G0 X61.771 Y205.700
G1 Z0 F500
G1 X63.750 Y203.346
G1 X65.729 Y200.124
G1 X63.750 Y203.470
G0 Z5
G0 X18.750 Y207.311
G1 Z0 F500
G1 X16.458 Y204.089
G1 X13.438 Y201.611
G1 X12.188 Y200.124
G1 X16.562 Y204.089
G0 Z5
G0 X23.854 Y209.418
G1 Z0 F500
G1 X22.812 Y205.576
G1 X22.812 Y203.098
G1 X23.542 Y201.735
G1 X25.625 Y200.124
G1 X25.833 Y200.248
G1 X23.646 Y201.735
G1 X22.812 Y203.098
G1 X22.812 Y205.576
G0 Z5
G0 X58.021 Y210.781
G1 Z0 F500
G1 X58.438 Y209.913
G1 X60.833 Y207.063
G1 X61.562 Y205.824
G1 X60.833 Y207.187
G1 X58.438 Y210.037
G0 Z5
G0 X54.583 Y213.383
G1 Z0 F500
G1 X54.896 Y208.055
G1 X54.375 Y204.461
G1 X53.646 Y203.346
G1 X48.958 Y200.124
G1 X54.167 Y203.965
G1 X54.896 Y208.055
G0 Z5
G0 X24.167 Y214.002
G1 Z0 F500
G1 X19.375 Y207.559
G1 X15.833 Y200.124
G1 X19.062 Y206.939
G1 X24.062 Y214.002
G1 X20.729 Y200.124
G0 Z5
G0 X54.896 Y214.498
G1 Z0 F500
G1 X57.083 Y211.772
G1 X58.542 Y208.798
G1 X61.042 Y200.124
G1 X58.229 Y209.542
G1 X57.083 Y211.896
G0 Z5
G0 X44.167 Y232.838
G1 Z0 F500
G1 X43.542 Y233.209
G1 X42.604 Y233.086
G1 X40.625 Y231.970
G1 X38.646 Y231.970
G1 X36.562 Y233.086
G1 X35.104 Y233.086
G1 X34.792 Y232.466
G1 X35.000 Y232.218
G1 X35.208 Y233.086
G1 X36.562 Y233.086
G1 X38.646 Y231.970
G1 X40.625 Y231.970
G1 X43.125 Y233.209
G0 Z5
G0 X45.000 Y237.546
G1 Z0 F500
G1 X46.146 Y236.307
G1 X46.458 Y235.564
G1 X46.771 Y235.192
G1 X46.562 Y235.440
G1 X46.146 Y236.431
G1 X45.417 Y237.299
G0 Z5
G0 X35.000 Y238.786
G1 Z0 F500
G1 X34.896 Y238.786
G1 X35.104 Y238.538
G1 X34.688 Y237.794
G1 X33.229 Y236.183
G1 X33.125 Y235.812
G1 X33.229 Y235.564
G1 X33.125 Y235.688
G1 X33.229 Y236.059
G1 X34.896 Y238.042
G1 X35.104 Y238.538
G0 Z5
G0 X16.667 Y242.999
G1 Z0 F500
G1 X16.458 Y242.131
G1 X16.562 Y240.520
G1 X17.708 Y239.405
G1 X18.021 Y239.281
G1 X18.542 Y239.653
G1 X18.021 Y239.281
G1 X16.562 Y240.644
G1 X16.458 Y242.131
G0 Z5
G0 X38.542 Y243.990
G1 Z0 F500
G1 X38.021 Y243.123
G1 X38.021 Y242.751
G1 X37.812 Y242.503
G1 X37.604 Y242.503
G1 X36.771 Y241.264
G1 X36.562 Y240.520
G1 X36.667 Y240.520
G1 X36.667 Y240.892
G1 X36.979 Y241.512
G1 X38.021 Y242.751
G1 X38.021 Y242.999
G0 Z5
G0 X36.979 Y247.212
G1 Z0 F500
G1 X37.083 Y247.088
G1 X37.083 Y246.468
G1 X36.979 Y246.344
G1 X36.979 Y245.973
G1 X36.875 Y245.849
G1 X36.562 Y245.849
G1 X36.458 Y245.973
G1 X36.875 Y245.601
G1 X36.667 Y245.229
G1 X36.458 Y245.229
G1 X36.146 Y245.601
G1 X36.146 Y246.097
G1 X36.667 Y246.716
G1 X36.771 Y247.088
G0 Z5
G0 X37.083 Y247.460
G1 Z0 F500
G1 X36.979 Y247.212
G1 X36.875 Y247.336
G1 X36.771 Y247.212
G1 X36.771 Y246.964
G1 X36.146 Y246.221
G1 X36.146 Y245.477
G1 X36.354 Y245.229
G1 X36.771 Y245.229
G1 X36.875 Y245.353
G1 X36.771 Y245.477
G1 X36.875 Y245.601
G1 X36.771 Y245.725
G1 X36.979 Y245.973
G1 X36.979 Y246.344
G1 X37.083 Y246.468
G0 Z5
G0 X28.438 Y248.823
G1 Z0 F500
G1 X28.854 Y247.212
G1 X29.792 Y246.344
G1 X31.146 Y246.592
G1 X31.562 Y247.088
G1 X32.083 Y248.575
G1 X32.917 Y247.831
G1 X31.875 Y248.823
G1 X31.875 Y247.955
G1 X31.562 Y247.212
G1 X30.729 Y246.344
G1 X29.792 Y246.344
G1 X28.854 Y247.336
G0 Z5
G0 X14.896 Y249.195
G1 Z0 F500
G1 X14.271 Y247.584
G1 X14.896 Y246.221
G1 X15.417 Y242.999
G1 X14.271 Y248.079
G1 X14.896 Y249.195
G1 X15.938 Y248.203
G1 X15.729 Y242.751
G1 X15.938 Y248.451
G0 Z5
G0 X52.396 Y248.451
G1 Z0 F500
G1 X51.354 Y249.318
G1 X50.938 Y249.318
G1 X50.312 Y247.460
G1 X49.583 Y246.840
G1 X48.542 Y246.964
G1 X47.812 Y247.831
G1 X47.396 Y248.823
G1 X47.812 Y247.708
G1 X48.438 Y246.964
G1 X49.583 Y246.840
G1 X50.312 Y247.336
G1 X51.042 Y249.318
G0 Z5
G0 X24.062 Y247.212
G1 Z0 F500
G1 X27.917 Y249.195
G1 X31.250 Y249.442
G1 X33.021 Y248.451
G1 X34.167 Y246.840
G1 X33.125 Y246.468
G1 X32.500 Y247.460
G1 X32.812 Y246.592
G1 X34.167 Y246.592
G1 X33.229 Y248.327
G1 X31.250 Y249.442
G1 X27.917 Y249.195
G0 Z5
G0 X48.229 Y249.566
G1 Z0 F500
G1 X48.125 Y249.442
G1 X48.021 Y249.442
G1 X47.917 Y249.318
G1 X47.917 Y249.071
G1 X48.021 Y249.071
G1 X48.125 Y248.947
G1 X48.229 Y249.071
G1 X48.333 Y249.071
G1 X48.333 Y249.195
G1 X48.438 Y249.318
G0 Z5
G0 X50.104 Y249.938
G1 Z0 F500
G1 X51.667 Y249.814
G1 X54.271 Y248.575
G1 X55.104 Y247.708
G1 X55.833 Y247.460
G1 X52.708 Y249.442
G1 X51.667 Y249.814
G0 Z5
G0 X49.896 Y249.814
G1 Z0 F500
G1 X47.917 Y249.814
G1 X46.771 Y249.318
G1 X45.729 Y248.327
G1 X45.208 Y247.460
G1 X45.208 Y246.840
G1 X46.250 Y246.840
G1 X46.562 Y247.088
G1 X46.250 Y246.840
G1 X45.312 Y246.840
G1 X45.208 Y247.336
G1 X46.875 Y249.318
G1 X48.021 Y249.814
G0 Z5
G0 X42.396 Y247.955
G1 Z0 F500
G1 X43.333 Y249.071
G1 X47.292 Y250.062
G1 X55.729 Y250.062
G1 X57.604 Y248.823
G1 X57.708 Y245.105
G1 X57.292 Y243.247
G1 X55.104 Y242.007
G1 X45.729 Y241.760
G1 X43.438 Y243.123
G0 Z5
G0 X22.396 Y249.195
G1 Z0 F500
G1 X24.479 Y250.186
G1 X32.083 Y250.186
G1 X36.771 Y249.071
G1 X37.604 Y247.088
G1 X36.458 Y243.247
G1 X35.312 Y242.131
G1 X26.667 Y241.760
G1 X22.708 Y242.999
G0 Z5
G0 X42.396 Y247.955
G1 Z0 F500
G1 X43.438 Y242.999
G1 X45.729 Y241.760
G1 X55.104 Y242.007
G1 X56.875 Y242.627
G1 X57.708 Y245.105
G1 X57.500 Y249.195
G1 X55.729 Y250.062
G1 X47.292 Y250.062
G1 X43.021 Y248.947
G0 Z5
G0 X22.396 Y249.318
G1 Z0 F500
G1 X22.708 Y242.875
G1 X26.667 Y241.760
G1 X35.625 Y242.255
G1 X36.667 Y243.618
G1 X37.604 Y247.088
G1 X36.875 Y249.071
G1 X32.083 Y250.186
G1 X24.479 Y250.186
G0 Z5
G0 X64.062 Y250.558
G1 Z0 F500
G1 X62.917 Y249.690
G1 X63.333 Y244.734
G1 X62.917 Y249.442
G1 X63.750 Y250.558
G1 X64.271 Y250.062
G1 X63.646 Y244.857
G1 X64.479 Y249.814
G0 Z5
G0 X18.854 Y248.823
G1 Z0 F500
G1 X26.042 Y250.805
G1 X39.688 Y248.823
G1 X54.375 Y250.682
G1 X60.729 Y249.071
G1 X61.042 Y246.716
G1 X56.354 Y241.884
G1 X47.500 Y241.016
G1 X43.750 Y242.007
G1 X41.562 Y247.831
G1 X38.646 Y247.955
G1 X36.042 Y242.007
G1 X28.021 Y241.140
G1 X22.500 Y242.503
G1 X21.458 Y245.601
G1 X18.958 Y246.344
G0 Z5
G0 X18.854 Y248.823
G1 Z0 F500
G1 X18.958 Y246.221
G1 X21.354 Y245.601
G1 X22.396 Y242.503
G1 X28.021 Y241.140
G1 X36.146 Y242.007
G1 X38.646 Y247.955
G1 X41.458 Y247.831
G1 X43.646 Y242.007
G1 X47.500 Y241.016
G1 X56.979 Y242.131
G1 X61.042 Y246.716
G1 X60.833 Y249.071
G1 X54.375 Y250.682
G1 X39.688 Y248.823
G1 X26.042 Y250.805
G0 Z5
G0 X17.188 Y250.805
G1 Z0 F500
G1 X17.292 Y249.814
G1 X16.354 Y250.062
G1 X17.604 Y249.318
G1 X17.396 Y248.203
G1 X17.708 Y248.823
G1 X17.292 Y249.814
G1 X17.500 Y250.310
G1 X18.438 Y248.079
G1 X18.542 Y239.901
G1 X18.438 Y248.203
G0 Z5
G0 X21.354 Y251.301
G1 Z0 F500
G1 X23.646 Y251.425
G1 X21.771 Y251.549
G1 X22.708 Y252.664
G1 X24.479 Y252.292
G1 X23.438 Y251.921
G1 X27.708 Y252.664
G1 X25.312 Y252.292
G1 X22.708 Y252.664
G1 X24.271 Y254.647
G1 X23.958 Y254.771
G0 Z5
G0 X54.583 Y255.638
G1 Z0 F500
G1 X55.104 Y254.895
G1 X55.521 Y254.771
G1 X55.729 Y254.523
G1 X55.833 Y254.151
G1 X55.938 Y254.151
G1 X56.250 Y253.779
G1 X56.354 Y253.779
G1 X55.833 Y254.275
G1 X55.625 Y254.771
G1 X55.312 Y254.771
G1 X54.896 Y255.266
G1 X54.896 Y255.390
G1 X54.688 Y255.638
G0 Z5
G0 X26.875 Y256.134
G1 Z0 F500
G1 X24.688 Y256.382
G1 X23.958 Y255.886
G1 X21.250 Y252.912
G1 X21.042 Y251.673
G1 X20.417 Y250.929
G1 X21.146 Y250.805
G1 X20.521 Y250.929
G1 X21.146 Y251.673
G1 X21.146 Y252.664
G1 X24.167 Y256.010
G1 X24.792 Y256.382
G1 X26.771 Y255.886
G0 Z5
G0 X51.875 Y256.382
G1 Z0 F500
G1 X52.396 Y256.629
G1 X52.604 Y256.258
G1 X52.292 Y256.134
G1 X52.604 Y256.258
G1 X53.125 Y255.762
G1 X53.958 Y255.390
G1 X54.583 Y254.523
G1 X55.312 Y254.275
G1 X55.521 Y254.027
G1 X55.417 Y254.275
G1 X54.688 Y254.523
G1 X54.062 Y255.390
G1 X53.125 Y255.762
G1 X52.396 Y256.629
G0 Z5
G0 X47.500 Y256.629
G1 Z0 F500
G1 X46.771 Y256.753
G1 X46.146 Y256.010
G1 X44.167 Y255.143
G1 X43.854 Y254.275
G1 X44.271 Y254.275
G1 X44.688 Y254.895
G1 X44.062 Y254.275
G1 X43.958 Y254.647
G1 X44.375 Y255.266
G1 X44.896 Y255.514
G1 X45.312 Y255.390
G1 X45.833 Y256.010
G1 X46.354 Y256.134
G1 X46.771 Y256.753
G0 Z5
G0 X16.354 Y256.877
G1 Z0 F500
G1 X17.500 Y252.540
G1 X18.542 Y251.053
G1 X19.271 Y250.682
G1 X20.312 Y249.442
G1 X19.375 Y250.682
G1 X18.646 Y251.053
G1 X17.500 Y252.664
G0 Z5
G0 X54.271 Y257.621
G1 Z0 F500
G1 X56.042 Y255.886
G1 X56.354 Y255.143
G1 X56.875 Y254.647
G1 X56.667 Y254.523
G1 X56.979 Y254.771
G1 X57.083 Y254.647
G1 X56.562 Y255.019
G1 X56.042 Y255.762
G1 X56.042 Y256.010
G1 X56.354 Y256.134
G1 X56.042 Y256.010
G1 X54.792 Y257.373
G1 X54.688 Y257.249
G0 Z5
G0 X61.875 Y260.223
G1 Z0 F500
G1 X62.396 Y258.240
G1 X61.875 Y255.019
G1 X60.833 Y251.797
G1 X59.271 Y249.195
G1 X60.625 Y251.301
G1 X61.875 Y255.019
G1 X62.396 Y258.240
G0 Z5
G0 X61.146 Y267.162
G1 Z0 F500
G1 X61.354 Y266.791
G1 X61.354 Y266.295
G1 X61.979 Y265.428
G1 X62.188 Y264.808
G1 X62.396 Y264.560
G1 X62.396 Y264.064
G1 X62.604 Y263.569
G1 X62.396 Y264.064
G1 X62.396 Y264.560
G1 X62.083 Y265.056
G1 X61.979 Y265.551
G1 X61.354 Y266.419
G1 X61.354 Y266.667
G1 X61.562 Y266.914
G1 X61.458 Y266.791
G0 Z5
G0 X14.792 Y269.021
G1 Z0 F500
G1 X14.688 Y261.338
G1 X15.833 Y252.045
G1 X17.604 Y251.301
G1 X18.854 Y249.690
G1 X18.229 Y251.053
G1 X16.042 Y251.921
G1 X15.521 Y253.284
G1 X14.688 Y261.338
G1 X14.688 Y266.914
G1 X15.312 Y267.038
G1 X14.688 Y268.154
G1 X15.312 Y268.897
G0 Z5
G0 X59.271 Y270.012
G1 Z0 F500
G1 X60.104 Y269.021
G1 X59.896 Y268.773
G1 X59.896 Y268.525
G1 X60.312 Y267.906
G1 X60.208 Y267.534
G1 X60.625 Y266.667
G1 X61.042 Y266.171
G1 X60.208 Y267.534
G1 X60.312 Y268.030
G1 X59.896 Y268.649
G1 X60.104 Y269.145
G0 Z5
G0 X20.833 Y270.260
G1 Z0 F500
G1 X19.896 Y269.517
G1 X18.438 Y269.021
G1 X18.125 Y268.649
G1 X18.021 Y268.154
G1 X17.188 Y267.658
G1 X17.083 Y267.410
G1 X17.396 Y267.162
G1 X17.083 Y267.410
G1 X18.021 Y268.030
G1 X18.125 Y268.525
G1 X18.542 Y269.021
G1 X20.000 Y269.517
G0 Z5
G0 X20.521 Y271.375
G1 Z0 F500
G1 X19.375 Y270.136
G1 X18.750 Y269.888
G1 X18.229 Y270.136
G1 X17.812 Y269.641
G1 X17.396 Y269.393
G1 X17.917 Y269.641
G1 X18.229 Y270.012
G1 X18.958 Y269.888
G1 X19.479 Y270.136
G0 Z5
G0 X56.667 Y271.871
G1 Z0 F500
G1 X58.646 Y269.517
G1 X58.958 Y268.525
G1 X59.479 Y267.906
G1 X59.792 Y267.782
G1 X58.958 Y268.649
G1 X58.542 Y269.765
G0 Z5
G0 X55.312 Y273.978
G1 Z0 F500
G1 X55.729 Y273.978
G1 X56.146 Y273.606
G1 X56.458 Y273.606
G1 X56.979 Y273.234
G1 X57.917 Y272.862
G1 X58.125 Y272.615
G1 X58.125 Y272.739
G1 X56.562 Y273.606
G1 X56.250 Y273.606
G1 X55.521 Y274.102
G0 Z5
G0 X52.188 Y274.721
G1 Z0 F500
G1 X53.021 Y274.349
G1 X53.438 Y273.854
G1 X53.750 Y273.110
G1 X53.750 Y272.615
G1 X53.958 Y272.367
G1 X53.750 Y272.739
G1 X53.750 Y273.234
G1 X53.438 Y273.978
G1 X53.125 Y274.349
G1 X52.917 Y274.349
G1 X52.812 Y274.473
G1 X52.604 Y274.473
G1 X52.396 Y274.721
G0 Z5
G0 X57.396 Y274.969
G1 Z0 F500
G1 X58.021 Y274.226
G1 X57.708 Y273.606
G1 X58.229 Y273.110
G1 X57.708 Y273.606
G1 X58.021 Y273.978
G1 X58.750 Y272.862
G1 X59.167 Y272.739
G1 X58.854 Y272.862
G1 X58.125 Y273.854
G1 X57.812 Y274.721
G1 X58.021 Y274.969
G1 X58.125 Y274.845
G1 X58.021 Y274.969
G1 X57.812 Y274.721
G1 X57.604 Y274.969
G0 Z5
G0 X51.354 Y276.828
G1 Z0 F500
G1 X51.667 Y276.580
G1 X53.229 Y276.580
G1 X54.167 Y276.208
G1 X55.000 Y275.217
G1 X55.833 Y274.969
G1 X56.458 Y274.102
G1 X56.875 Y274.226
G1 X57.188 Y273.978
G1 X56.875 Y274.226
G1 X56.562 Y274.102
G1 X55.938 Y274.969
G1 X55.000 Y275.341
G1 X54.167 Y276.208
G1 X53.229 Y276.580
G1 X51.667 Y276.580
G0 Z5
G0 X45.833 Y276.580
G1 Z0 F500
G1 X45.833 Y276.828
G1 X45.938 Y276.952
G1 X46.354 Y276.952
G1 X46.562 Y276.704
G1 X46.354 Y276.456
G1 X45.938 Y276.456
G0 Z5
G0 X30.417 Y275.713
G1 Z0 F500
G1 X29.583 Y276.084
G1 X28.854 Y276.828
G1 X28.542 Y276.828
G1 X28.542 Y276.580
G1 X28.854 Y276.828
G1 X29.167 Y276.456
G1 X28.021 Y275.960
G1 X27.188 Y276.084
G1 X26.667 Y275.836
G1 X25.521 Y275.836
G1 X25.417 Y275.465
G1 X26.042 Y275.960
G1 X26.771 Y275.836
G1 X27.604 Y276.084
G1 X28.021 Y275.836
G1 X29.167 Y276.456
G1 X30.104 Y275.713
G0 Z5
G0 X38.854 Y276.952
G1 Z0 F500
G1 X37.812 Y276.952
G1 X37.708 Y277.200
G1 X37.500 Y277.076
G1 X37.188 Y277.571
G1 X37.396 Y277.200
G1 X37.292 Y277.076
G1 X36.042 Y277.076
G1 X35.312 Y276.456
G1 X35.104 Y276.084
G1 X35.208 Y275.713
G1 X35.000 Y275.465
G1 X35.312 Y275.713
G1 X35.208 Y276.208
G1 X36.042 Y277.076
G1 X36.979 Y277.200
G1 X37.188 Y276.952
G0 Z5
G0 X55.104 Y277.200
G1 Z0 F500
G1 X52.812 Y277.943
G1 X47.396 Y276.456
G1 X46.771 Y275.960
G1 X46.354 Y276.456
G1 X46.458 Y276.952
G1 X45.729 Y276.828
G1 X46.771 Y275.960
G1 X47.396 Y276.456
G1 X51.667 Y277.323
G1 X52.812 Y277.943
G0 Z5
G0 X51.875 Y278.439
G1 Z0 F500
G1 X51.979 Y278.315
G1 X52.083 Y278.315
G1 X52.188 Y278.191
G1 X51.979 Y277.943
G1 X51.875 Y277.943
G1 X51.667 Y278.191
G0 Z5
G0 X28.854 Y277.571
G1 Z0 F500
G1 X29.271 Y278.191
G1 X29.792 Y277.695
G1 X30.417 Y277.695
G1 X30.833 Y278.067
G1 X31.667 Y276.952
G1 X32.188 Y276.828
G1 X33.646 Y275.836
G1 X33.854 Y276.084
G1 X33.646 Y275.836
G1 X31.875 Y276.828
G1 X31.458 Y277.323
G1 X31.562 Y277.571
G1 X30.833 Y278.067
G1 X30.312 Y277.695
G1 X29.792 Y277.695
G1 X29.271 Y278.315
G0 Z5
G0 X56.875 Y278.439
G1 Z0 F500
G1 X56.771 Y278.067
G1 X56.875 Y277.076
G1 X57.188 Y276.828
G1 X57.500 Y276.828
G1 X58.021 Y276.208
G1 X58.021 Y275.960
G1 X59.167 Y274.969
G1 X59.479 Y274.969
G1 X59.167 Y274.969
G1 X59.062 Y275.217
G1 X58.229 Y275.836
G1 X57.604 Y276.828
G1 X57.292 Y276.828
G1 X56.875 Y277.200
G1 X56.771 Y277.447
G0 Z5
G0 X51.354 Y278.315
G1 Z0 F500
G1 X51.458 Y278.315
G1 X51.771 Y277.943
G1 X52.083 Y277.943
G1 X52.396 Y278.315
G1 X52.708 Y278.439
G1 X52.604 Y278.439
G1 X52.500 Y278.315
G1 X52.292 Y278.315
G1 X52.188 Y278.191
G1 X52.083 Y278.315
G1 X51.979 Y278.315
G1 X51.875 Y278.439
G1 X51.875 Y278.563
G1 X51.875 Y278.439
G1 X51.667 Y278.191
G1 X51.562 Y278.315
G0 Z5
G0 X44.062 Y279.554
G1 Z0 F500
G1 X44.167 Y279.306
G1 X43.854 Y278.934
G1 X43.646 Y278.315
G1 X43.229 Y277.819
G1 X43.125 Y278.191
G1 X43.542 Y279.554
G1 X43.542 Y279.306
G1 X43.438 Y279.182
G1 X43.333 Y279.306
G1 X43.438 Y279.182
G1 X43.333 Y278.686
G1 X42.917 Y278.191
G1 X43.125 Y278.067
G1 X43.229 Y277.819
G1 X43.125 Y277.695
G1 X43.646 Y278.191
G1 X43.750 Y278.686
G1 X44.271 Y279.182
G0 Z5
G0 X45.521 Y280.173
G1 Z0 F500
G1 X45.312 Y280.173
G1 X45.000 Y279.430
G1 X44.479 Y278.810
G1 X44.271 Y278.934
G1 X44.479 Y278.563
G1 X44.062 Y277.819
G1 X43.854 Y276.580
G1 X43.958 Y276.580
G1 X43.854 Y277.076
G1 X44.062 Y277.447
G1 X44.062 Y277.819
G1 X44.479 Y278.563
G1 X44.479 Y278.810
G0 Z5
G0 X46.771 Y280.545
G1 Z0 F500
G1 X46.458 Y280.545
G1 X45.208 Y279.058
G1 X45.208 Y278.934
G1 X46.562 Y280.545
G1 X46.667 Y280.545
G1 X46.771 Y280.297
G1 X46.875 Y280.297
G0 Z5
G0 X59.896 Y282.404
G1 Z0 F500
G1 X60.312 Y281.908
G1 X60.938 Y281.784
G1 X60.729 Y281.413
G1 X60.208 Y281.165
G1 X61.250 Y280.421
G1 X61.458 Y279.802
G1 X61.458 Y279.182
G1 X61.771 Y278.810
G1 X61.458 Y279.306
G1 X61.250 Y280.545
G1 X60.625 Y281.041
G1 X60.625 Y281.289
G1 X60.938 Y281.537
G1 X60.938 Y281.908
G1 X60.833 Y282.032
G1 X60.417 Y281.908
G0 Z5
G0 X33.750 Y282.528
G1 Z0 F500
G1 X34.271 Y281.537
G1 X34.896 Y281.289
G1 X35.208 Y280.917
G1 X35.000 Y280.669
G1 X34.583 Y281.041
G1 X34.167 Y281.041
G1 X33.438 Y281.784
G1 X34.167 Y280.917
G1 X34.479 Y281.041
G1 X35.312 Y280.545
G1 X35.000 Y280.669
G1 X35.208 Y281.041
G1 X34.375 Y281.537
G0 Z5
G0 X35.312 Y283.891
G1 Z0 F500
G1 X35.417 Y283.271
G1 X35.938 Y282.528
G1 X35.312 Y283.519
G1 X35.417 Y283.891
G1 X37.500 Y281.413
G1 X37.708 Y280.669
G1 X38.125 Y280.297
G1 X38.021 Y280.050
G1 X38.229 Y279.678
G1 X37.500 Y281.537
G1 X35.625 Y283.891
G0 Z5
G0 X20.521 Y287.113
G1 Z0 F500
G1 X20.000 Y286.989
G1 X19.792 Y286.617
G1 X19.271 Y286.245
G1 X19.479 Y285.998
G1 X19.479 Y285.750
G1 X18.958 Y285.626
G1 X18.854 Y284.882
G1 X18.333 Y284.263
G1 X18.125 Y284.263
G1 X18.438 Y284.139
G1 X18.438 Y284.387
G1 X18.854 Y284.758
G1 X18.958 Y285.130
G1 X18.854 Y285.378
G1 X19.062 Y285.626
G1 X19.271 Y285.502
G1 X19.479 Y285.626
G1 X19.479 Y285.998
G1 X19.271 Y286.245
G1 X19.896 Y286.617
G1 X20.104 Y286.989
G0 Z5
G0 X56.771 Y287.856
G1 Z0 F500
G1 X57.812 Y286.741
G1 X57.917 Y286.121
G1 X57.812 Y285.998
G1 X57.500 Y286.121
G1 X58.021 Y285.502
G1 X58.333 Y285.502
G1 X58.542 Y285.254
G1 X58.750 Y284.511
G1 X58.542 Y285.378
G1 X58.125 Y285.502
G1 X57.812 Y285.874
G1 X57.917 Y286.493
G1 X57.708 Y286.989
G0 Z5
G0 X41.875 Y293.185
G1 Z0 F500
G1 X41.771 Y293.061
G1 X41.667 Y293.061
G1 X41.562 Y292.937
G1 X41.562 Y292.813
G1 X41.667 Y292.689
G1 X41.667 Y292.565
G1 X41.875 Y292.565
G1 X41.875 Y292.689
G1 X41.979 Y292.813
G1 X41.979 Y292.937
G1 X41.875 Y293.061
G0 Z5
G0 X51.771 Y293.432
G1 Z0 F500
G1 X51.875 Y292.937
G1 X52.188 Y292.565
G1 X52.396 Y291.450
G1 X52.708 Y291.078
G1 X53.021 Y291.078
G1 X53.333 Y291.698
G1 X53.646 Y291.450
G1 X53.646 Y289.839
G1 X53.854 Y289.591
G1 X53.646 Y289.963
G1 X53.542 Y291.822
G1 X53.438 Y291.698
G1 X53.333 Y292.069
G1 X53.229 Y291.574
G1 X52.708 Y291.202
G1 X52.396 Y291.574
G1 X52.188 Y292.689
G0 Z5
G0 X27.500 Y293.432
G1 Z0 F500
G1 X27.188 Y293.309
G1 X26.562 Y291.574
G1 X26.458 Y292.317
G1 X26.042 Y291.574
G1 X25.625 Y292.069
G1 X25.000 Y291.945
G1 X24.896 Y291.698
G1 X25.521 Y291.326
G1 X24.375 Y290.458
G1 X23.854 Y290.582
G1 X23.854 Y290.335
G1 X24.688 Y290.582
G1 X25.521 Y291.326
G1 X25.833 Y290.954
G1 X25.417 Y290.335
G1 X25.104 Y290.582
G1 X25.729 Y290.458
G1 X25.833 Y290.954
G1 X25.312 Y291.945
G1 X25.521 Y292.069
G1 X25.938 Y291.574
G1 X26.771 Y291.698
G1 X26.771 Y292.193
G0 Z5
G0 X43.646 Y294.300
G1 Z0 F500
G1 X43.854 Y294.052
G1 X43.854 Y293.804
G1 X43.750 Y293.680
G1 X43.646 Y293.680
G1 X43.333 Y294.052
G1 X43.438 Y294.176
G1 X43.542 Y294.176
G0 Z5
G0 X43.542 Y294.300
G1 Z0 F500
G1 X43.333 Y294.052
G1 X43.438 Y293.928
G1 X43.438 Y293.804
G1 X43.542 Y293.680
G1 X43.646 Y293.680
G1 X43.750 Y293.556
G1 X43.750 Y293.680
G1 X43.854 Y293.804
G1 X43.854 Y294.052
G1 X43.646 Y294.300
G0 Z5
G0 X31.146 Y294.424
G1 Z0 F500
G1 X31.250 Y294.424
G1 X31.458 Y294.176
G1 X31.354 Y294.052
G1 X31.354 Y293.928
G1 X31.250 Y293.804
G1 X31.042 Y293.804
G1 X30.938 Y293.928
G1 X30.938 Y294.052
G1 X31.042 Y294.176
G1 X31.042 Y294.300
G0 Z5
G0 X29.479 Y294.052
G1 Z0 F500
G1 X29.375 Y294.300
G1 X29.167 Y294.424
G1 X29.479 Y294.052
G1 X29.271 Y293.804
G1 X28.854 Y294.176
G1 X28.646 Y294.176
G1 X28.333 Y293.556
G1 X28.021 Y293.680
G1 X28.021 Y293.804
G1 X28.125 Y293.556
G1 X28.333 Y293.556
G1 X28.750 Y294.176
G1 X29.062 Y293.804
G1 X28.854 Y293.185
G1 X28.958 Y293.185
G1 X28.958 Y293.680
G1 X29.062 Y293.804
G1 X29.479 Y293.804
G0 Z5
G0 X32.604 Y294.796
G1 Z0 F500
G1 X32.188 Y295.167
G1 X31.771 Y295.167
G1 X31.667 Y294.672
G1 X30.833 Y294.052
G1 X30.521 Y294.052
G1 X30.000 Y294.548
G1 X29.792 Y294.424
G1 X30.000 Y293.185
G1 X29.792 Y292.937
G1 X29.479 Y293.556
G1 X29.583 Y293.061
G1 X29.896 Y292.813
G1 X30.000 Y293.804
G1 X29.792 Y294.052
G1 X30.000 Y294.548
G1 X30.521 Y294.052
G1 X31.250 Y293.804
G1 X31.458 Y294.052
G1 X31.354 Y294.300
G1 X31.979 Y295.167
G0 Z5
G0 X32.812 Y294.919
G1 Z0 F500
G1 X33.021 Y295.167
G1 X33.333 Y294.672
G1 X33.125 Y295.043
G1 X33.646 Y295.539
G1 X33.750 Y295.167
G1 X33.542 Y295.167
G1 X33.750 Y294.919
G1 X33.542 Y294.548
G1 X33.958 Y296.035
G1 X34.375 Y295.167
G1 X34.583 Y295.291
G1 X34.792 Y294.919
G1 X34.688 Y294.548
G1 X34.375 Y294.796
G1 X34.792 Y294.424
G1 X34.896 Y295.663
G1 X35.208 Y294.796
G1 X35.729 Y294.919
G1 X35.312 Y294.796
G1 X34.792 Y295.787
G1 X34.792 Y295.291
G1 X34.479 Y295.167
G1 X34.062 Y296.035
G1 X33.125 Y295.043
G1 X33.021 Y295.415
G0 Z5
G0 X37.292 Y297.026
G1 Z0 F500
G1 X36.771 Y295.787
G1 X38.438 Y295.291
G1 X38.542 Y294.919
G1 X38.125 Y294.548
G1 X38.333 Y294.796
G1 X38.542 Y294.548
G1 X39.271 Y296.902
G1 X39.583 Y296.778
G1 X39.375 Y297.026
G1 X38.750 Y295.787
G1 X38.125 Y296.778
G1 X38.021 Y296.283
G1 X37.917 Y296.778
G1 X37.812 Y296.283
G1 X38.125 Y296.406
G1 X38.750 Y295.787
G1 X38.854 Y295.291
G1 X38.646 Y295.167
G1 X36.979 Y295.911
G0 Z5
G0 X43.125 Y295.787
G1 Z0 F500
G1 X42.500 Y295.291
G1 X42.292 Y295.787
G1 X43.021 Y296.159
G1 X42.500 Y296.035
G1 X42.188 Y296.406
G1 X41.979 Y296.035
G1 X41.458 Y297.150
G1 X41.250 Y296.035
G1 X40.938 Y296.530
G1 X41.354 Y295.911
G1 X41.042 Y295.539
G1 X40.729 Y295.663
G1 X40.833 Y295.911
G1 X39.167 Y295.043
G1 X40.208 Y295.415
G1 X40.417 Y295.787
G1 X40.833 Y295.415
G1 X41.146 Y295.539
G1 X41.562 Y296.778
G1 X41.771 Y296.159
G1 X42.500 Y296.035
G1 X42.396 Y295.291
G1 X42.917 Y295.291
G0 Z5
M30