G21
G90
G1 F1000
G0 Z5
G0 X55.377 Y211.552
G1 Z0 F500
G1 X55.377 Y210.650
G1 X52.165 Y200.181
G1 X55.474 Y211.011
G0 Z5
G0 X37.762 Y216.968
G1 Z0 F500
G1 X37.859 Y216.968
G1 X37.956 Y216.787
G1 X37.956 Y216.606
G1 X38.054 Y216.426
G1 X38.054 Y215.704
G1 X37.956 Y215.523
G1 X37.859 Y215.523
G1 X37.664 Y215.884
G1 X37.664 Y216.787
G0 Z5
G0 X68.224 Y216.968
G1 Z0 F500
G1 X68.029 Y216.065
G1 X67.445 Y215.343
G1 X67.445 Y214.621
G1 X66.764 Y211.913
G1 X66.667 Y210.830
G1 X66.764 Y210.830
G1 X66.764 Y211.733
G1 X67.153 Y212.996
G1 X67.251 Y214.079
G1 X67.445 Y214.440
G1 X67.445 Y215.162
G1 X68.029 Y215.884
G1 X68.224 Y216.426
G1 X68.127 Y216.606
G0 Z5
G0 X39.027 Y217.148
G1 Z0 F500
G1 X38.637 Y216.787
G1 X38.345 Y216.065
G1 X38.151 Y216.065
G1 X37.762 Y217.329
G1 X37.664 Y215.884
G1 X38.054 Y214.982
G1 X38.054 Y214.621
G1 X38.248 Y215.162
G1 X38.054 Y215.523
G1 X38.054 Y215.884
G1 X38.248 Y216.065
G1 X38.345 Y215.523
G1 X38.540 Y215.343
G1 X38.345 Y215.523
G1 X38.345 Y215.884
G1 X38.540 Y216.245
G1 X38.637 Y216.065
G1 X38.540 Y216.426
G1 X38.832 Y216.968
G1 X39.124 Y216.606
G1 X38.929 Y216.968
G0 Z5
G0 X57.810 Y220.036
G1 Z0 F500
G1 X59.270 Y217.329
G1 X60.049 Y214.079
G1 X59.465 Y216.606
G1 X59.757 Y217.329
G1 X60.827 Y216.426
G1 X62.384 Y213.538
G1 X63.844 Y211.913
G1 X64.234 Y212.094
G1 X62.190 Y213.899
G1 X60.925 Y216.426
G1 X59.951 Y217.329
G1 X59.465 Y216.968
G0 Z5
G0 X56.934 Y223.466
G1 Z0 F500
G1 X56.934 Y223.105
G1 X57.713 Y221.119
G1 X59.367 Y218.051
G1 X59.465 Y218.773
G1 X59.270 Y218.773
G1 X59.465 Y218.592
G1 X59.367 Y218.051
G1 X58.200 Y220.217
G0 Z5
G0 X51.776 Y223.466
G1 Z0 F500
G1 X51.971 Y222.383
G1 X52.749 Y221.119
G1 X53.917 Y217.870
G1 X54.112 Y216.426
G1 X55.280 Y213.538
G1 X54.988 Y213.177
G1 X55.377 Y212.274
G1 X55.085 Y212.996
G1 X55.280 Y213.718
G1 X54.112 Y216.606
G1 X53.528 Y219.134
G0 Z5
G0 X36.788 Y227.617
G1 Z0 F500
G1 X35.426 Y223.646
G1 X36.886 Y210.289
G1 X35.426 Y223.646
G0 Z5
G0 X37.080 Y228.881
G1 Z0 F500
G1 X38.735 Y224.188
G1 X37.859 Y217.690
G1 X39.319 Y217.870
G1 X39.708 Y214.982
G1 X38.151 Y212.094
G1 X37.470 Y213.899
G1 X37.080 Y213.177
G1 X37.859 Y200.181
G1 X37.080 Y213.177
G1 X38.248 Y211.913
G1 X39.805 Y214.982
G1 X39.416 Y217.870
G1 X37.859 Y217.690
G1 X38.735 Y224.368
G0 Z5
G0 X53.625 Y229.603
G1 Z0 F500
G1 X53.333 Y229.061
G1 X53.917 Y229.061
G1 X54.696 Y227.978
G1 X55.766 Y225.812
G1 X56.642 Y223.285
G1 X55.669 Y226.173
G1 X54.793 Y227.978
G1 X54.112 Y228.700
G1 X54.112 Y229.964
G1 X53.917 Y229.061
G1 X53.723 Y229.061
G0 Z5
G0 X39.708 Y234.296
G1 Z0 F500
G1 X35.523 Y225.271
G1 X39.708 Y234.296
G1 X41.946 Y234.657
G1 X44.477 Y230.505
G1 X43.212 Y224.910
G1 X44.769 Y206.859
G1 X44.185 Y200.181
G1 X44.769 Y206.859
G1 X43.212 Y224.729
G1 X44.477 Y230.505
G1 X47.105 Y227.256
G1 X42.238 Y234.477
G0 Z5
G0 X23.358 Y243.682
G1 Z0 F500
G1 X26.569 Y241.516
G1 X23.066 Y243.141
G1 X26.375 Y240.794
G1 X22.871 Y232.671
G1 X30.073 Y200.181
G1 X22.871 Y232.852
G1 X26.667 Y241.697
G0 Z5
G0 X66.180 Y245.848
G1 Z0 F500
G1 X65.693 Y244.765
G1 X65.499 Y244.765
G1 X65.791 Y244.765
G1 X65.888 Y245.126
G1 X66.277 Y244.404
G1 X66.180 Y243.502
G1 X65.693 Y242.238
G1 X65.693 Y241.155
G1 X66.083 Y239.350
G1 X66.375 Y238.989
G1 X66.569 Y239.350
G1 X67.056 Y239.350
G1 X66.277 Y238.989
G1 X65.693 Y241.155
G1 X65.693 Y242.058
G1 X66.277 Y243.863
G1 X66.180 Y244.765
G1 X65.888 Y245.126
G1 X66.472 Y245.848
G0 Z5
G0 X50.608 Y250.361
G1 Z0 F500
G1 X50.511 Y238.448
G1 X49.051 Y235.018
G1 X49.635 Y237.004
G1 X50.219 Y236.643
G1 X49.635 Y230.505
G1 X51.679 Y223.827
G1 X49.635 Y230.505
G1 X50.900 Y242.599
G0 Z5
G0 X68.321 Y252.347
G1 Z0 F500
G1 X68.029 Y251.805
G1 X67.835 Y249.458
G1 X66.764 Y246.390
G1 X66.861 Y246.029
G1 X66.569 Y243.682
G1 X66.861 Y246.390
G1 X67.835 Y249.278
G1 X68.029 Y251.625
G0 Z5
G0 X67.543 Y253.069
G1 Z0 F500
G1 X67.348 Y253.069
G1 X67.056 Y252.347
G1 X66.472 Y249.639
G1 X67.056 Y252.166
G1 X67.445 Y253.069
G1 X67.640 Y251.986
G1 X66.959 Y249.458
G1 X67.153 Y248.375
G1 X66.959 Y249.278
G1 X67.251 Y250.903
G1 X67.640 Y251.805
G0 Z5
G0 X18.686 Y253.249
G1 Z0 F500
G1 X18.491 Y252.708
G1 X18.686 Y251.625
G1 X18.686 Y249.458
G1 X18.200 Y248.736
G1 X17.908 Y249.097
G1 X18.394 Y250.361
G1 X18.394 Y251.805
G1 X18.394 Y250.542
G1 X17.713 Y248.736
G1 X18.491 Y248.917
G1 X18.783 Y249.639
G1 X18.783 Y251.264
G1 X18.491 Y252.166
G0 Z5
G0 X18.394 Y254.693
G1 Z0 F500
G1 X19.270 Y252.347
G1 X19.367 Y249.639
G1 X19.465 Y250.542
G1 X19.854 Y250.000
G1 X23.260 Y252.527
G1 X19.854 Y250.000
G1 X19.465 Y250.542
G1 X19.270 Y252.347
G0 Z5
G0 X68.905 Y254.874
G1 Z0 F500
G1 X68.710 Y254.152
G1 X68.808 Y254.693
G1 X69.100 Y254.152
G1 X69.197 Y251.625
G1 X68.613 Y249.097
G1 X67.543 Y247.473
G1 X67.445 Y246.931
G1 X68.127 Y248.556
G1 X68.418 Y248.195
G1 X67.640 Y246.751
G1 X68.516 Y248.014
G1 X68.321 Y248.556
G1 X68.613 Y248.917
G1 X69.197 Y251.444
G1 X69.100 Y253.430
G1 X69.294 Y253.610
G0 Z5
G0 X69.586 Y256.859
G1 Z0 F500
G1 X70.852 Y253.610
G1 X67.835 Y246.390
G1 X74.355 Y241.155
G1 X75.523 Y237.906
G1 X78.345 Y200.181
G1 X75.523 Y237.906
G1 X74.453 Y241.155
G1 X68.321 Y246.029
G1 X70.852 Y253.610
G0 Z5
G0 X67.543 Y256.859
G1 Z0 F500
G1 X68.029 Y255.957
G1 X68.516 Y255.957
G1 X69.294 Y254.693
G1 X69.489 Y253.971
G1 X69.586 Y251.986
G1 X69.684 Y251.986
G1 X69.781 Y252.527
G1 X69.684 Y252.347
G1 X69.586 Y252.527
G1 X69.586 Y253.249
G1 X69.294 Y254.874
G1 X68.613 Y255.957
G1 X68.127 Y255.957
G1 X67.835 Y256.498
G1 X67.932 Y256.859
G1 X67.737 Y256.498
G0 Z5
G0 X68.029 Y257.220
G1 Z0 F500
G1 X69.197 Y255.957
G1 X69.586 Y255.957
G1 X69.781 Y255.596
G1 X69.781 Y254.693
G1 X70.170 Y254.693
G1 X70.365 Y254.152
G1 X70.365 Y253.249
G1 X69.392 Y250.542
G1 X69.586 Y250.361
G1 X69.489 Y250.542
G1 X70.268 Y252.708
G1 X70.365 Y254.332
G1 X70.268 Y254.693
G1 X69.781 Y254.874
G1 X69.684 Y255.957
G1 X69.294 Y255.957
G0 Z5
G0 X49.148 Y259.567
G1 Z0 F500
G1 X45.645 Y246.029
G1 X41.946 Y235.560
G1 X45.645 Y245.848
G0 Z5
G0 X18.394 Y260.830
G1 Z0 F500
G1 X17.421 Y248.736
G1 X6.910 Y240.072
G1 X4.964 Y225.993
G1 X3.893 Y200.181
G1 X6.813 Y239.531
G1 X8.370 Y242.960
G1 X17.518 Y248.736
G1 X17.324 Y258.123
G0 Z5
G0 X32.993 Y264.079
G1 Z0 F500
G1 X34.550 Y251.264
G1 X39.903 Y235.199
G1 X34.453 Y251.805
G0 Z5
G0 X20.146 Y264.982
G1 Z0 F500
G1 X19.659 Y264.801
G1 X19.367 Y264.260
G1 X19.075 Y263.177
G1 X19.075 Y262.816
G1 X18.297 Y261.552
G1 X18.297 Y261.191
G1 X18.297 Y261.372
G1 X19.075 Y262.635
G1 X19.075 Y262.996
G1 X19.367 Y264.079
G1 X19.757 Y264.801
G0 Z5
G0 X57.616 Y270.758
G1 Z0 F500
G1 X56.934 Y270.217
G1 X56.837 Y266.787
G1 X56.448 Y266.065
G1 X55.280 Y269.314
G1 X56.448 Y266.065
G1 X56.058 Y264.621
G1 X55.085 Y266.968
G1 X54.988 Y268.773
G1 X55.085 Y269.134
G1 X55.182 Y266.426
G1 X56.058 Y264.079
G1 X56.350 Y265.523
G1 X56.837 Y266.065
G1 X56.545 Y266.245
G1 X56.837 Y266.787
G1 X56.934 Y270.036
G0 Z5
G0 X53.528 Y276.715
G1 Z0 F500
G1 X53.820 Y275.632
G1 X53.820 Y274.910
G1 X53.528 Y274.007
G1 X54.501 Y272.744
G1 X54.891 Y272.022
G1 X54.891 Y271.300
G1 X55.280 Y270.939
G1 X55.182 Y271.300
G1 X54.891 Y271.480
G1 X54.988 Y272.022
G1 X53.528 Y274.188
G1 X53.820 Y274.910
G1 X53.820 Y275.632
G0 Z5
G0 X62.968 Y277.437
G1 Z0 F500
G1 X62.190 Y271.300
G1 X62.287 Y269.134
G1 X62.092 Y268.412
G1 X61.898 Y268.592
G1 X64.039 Y264.079
G1 X62.190 Y268.231
G1 X62.190 Y271.300
G0 Z5
G0 X54.988 Y281.769
G1 Z0 F500
G1 X57.032 Y274.910
G1 X56.642 Y271.661
G1 X54.209 Y279.422
G1 X55.864 Y274.910
G1 X56.058 Y271.661
G1 X56.545 Y271.841
G1 X56.545 Y270.939
G1 X57.421 Y278.881
G1 X56.837 Y280.686
G1 X57.421 Y278.881
G1 X56.934 Y275.451
G0 Z5
G0 X63.844 Y281.949
G1 Z0 F500
G1 X63.747 Y281.769
G1 X64.623 Y280.144
G1 X64.818 Y279.061
G1 X64.720 Y278.159
G1 X64.428 Y277.617
G1 X64.331 Y277.798
G1 X64.428 Y277.617
G1 X64.331 Y277.076
G1 X64.428 Y277.617
G1 X64.720 Y277.978
G1 X64.818 Y279.242
G1 X64.623 Y280.325
G0 Z5
G0 X43.990 Y281.769
G1 Z0 F500
G1 X42.822 Y281.949
G1 X41.557 Y280.686
G1 X40.779 Y280.686
G1 X39.708 Y281.769
G1 X38.345 Y281.588
G1 X39.708 Y281.769
G1 X40.681 Y280.686
G1 X41.557 Y280.686
G1 X42.822 Y281.949
G0 Z5
G0 X63.552 Y282.130
G1 Z0 F500
G1 X63.358 Y278.881
G1 X64.915 Y273.285
G1 X64.428 Y263.177
G1 X66.375 Y260.289
G1 X70.073 Y258.123
G1 X70.949 Y254.874
G1 X70.170 Y258.123
G1 X66.667 Y260.108
G1 X64.428 Y263.357
G1 X64.915 Y273.285
G1 X63.358 Y279.061
G0 Z5
G0 X62.871 Y285.379
G1 Z0 F500
G1 X63.455 Y283.755
G1 X63.552 Y282.671
G1 X63.650 Y283.032
G1 X64.136 Y282.852
G1 X65.109 Y279.783
G1 X65.109 Y278.339
G1 X64.526 Y276.534
G1 X65.109 Y278.159
G1 X65.109 Y279.783
G1 X64.234 Y282.671
G1 X64.428 Y283.032
G1 X64.234 Y282.671
G1 X63.552 Y283.032
G0 Z5
G0 X60.049 Y288.087
G1 Z0 F500
G1 X60.341 Y287.365
G1 X60.438 Y286.823
G1 X60.633 Y286.462
G1 X60.827 Y285.560
G1 X61.022 Y285.199
G1 X61.022 Y284.477
G1 X60.925 Y284.296
G1 X60.730 Y284.477
G1 X60.049 Y287.184
G1 X59.854 Y287.545
G1 X59.854 Y287.726
G0 Z5
G0 X54.891 Y291.697
G1 Z0 F500
G1 X53.917 Y290.794
G1 X54.696 Y291.697
G1 X54.891 Y291.516
G1 X54.891 Y290.253
G1 X55.085 Y290.975
G1 X55.572 Y290.072
G1 X55.377 Y287.906
G1 X54.696 Y286.101
G1 X54.015 Y285.921
G1 X53.820 Y286.462
G1 X53.625 Y286.101
G1 X53.333 Y286.282
G1 X53.333 Y285.921
G1 X54.501 Y285.921
G1 X55.182 Y287.004
G1 X55.572 Y290.072
G0 Z5
G0 X56.642 Y292.058
G1 Z0 F500
G1 X58.394 Y290.794
G1 X59.854 Y287.726
G1 X60.827 Y284.116
G1 X61.411 Y279.422
G1 X61.022 Y281.588
G1 X61.217 Y283.213
G1 X60.827 Y283.574
G1 X61.022 Y285.018
G1 X61.314 Y285.018
G1 X60.146 Y287.906
G1 X60.341 Y288.448
G1 X60.146 Y288.087
G1 X59.854 Y288.809
G1 X59.854 Y287.726
G1 X58.491 Y290.794
G0 Z5
G0 X27.737 Y292.419
G1 Z0 F500
G1 X27.251 Y291.155
G1 X27.640 Y291.877
G1 X27.932 Y291.336
G1 X27.737 Y290.794
G1 X27.640 Y291.336
G1 X27.543 Y289.170
G1 X28.127 Y286.462
G1 X28.808 Y285.740
G1 X28.905 Y286.643
G1 X28.224 Y288.989
G1 X27.932 Y288.989
G1 X28.321 Y288.628
G1 X28.905 Y286.462
G1 X28.808 Y285.740
G1 X28.127 Y286.643
G1 X27.543 Y289.350
G1 X27.543 Y290.614
G1 X27.835 Y290.975
G1 X28.029 Y290.072
G1 X27.835 Y291.155
G1 X28.321 Y292.238
G1 X27.835 Y291.697
G0 Z5
G0 X61.022 Y292.960
G1 Z0 F500
G1 X61.411 Y292.238
G1 X61.411 Y291.877
G1 X62.190 Y290.253
G1 X62.676 Y288.809
G1 X63.163 Y288.087
G1 X61.411 Y292.058
G1 X61.314 Y292.599
G0 Z5
G0 X53.431 Y293.502
G1 Z0 F500
G1 X52.555 Y279.964
G1 X49.148 Y269.495
G1 X44.672 Y262.455
G1 X42.238 Y261.011
G1 X39.221 Y261.372
G1 X36.594 Y263.899
G1 X39.221 Y261.372
G1 X42.238 Y261.011
G1 X45.353 Y263.177
G1 X49.246 Y269.495
G1 X52.555 Y279.964
G0 Z5
G0 X52.068 Y297.112
G1 Z0 F500
G1 X52.068 Y296.931
G1 X52.457 Y296.209
G1 X52.457 Y296.029
G1 X52.944 Y295.126
G1 X53.139 Y294.224
G1 X53.139 Y294.585
G1 X53.041 Y294.765
G1 X52.944 Y295.307
G0 Z5
G0 X20.243 Y297.112
G1 Z0 F500
G1 X17.713 Y291.336
G1 X17.518 Y289.170
G1 X17.810 Y288.087
G1 X18.005 Y290.614
G1 X18.978 Y292.960
G1 X18.978 Y290.072
G1 X19.367 Y289.711
G1 X18.978 Y290.072
G1 X19.173 Y292.599
G1 X18.881 Y293.141
G1 X18.102 Y291.336
G1 X17.810 Y289.170
G1 X17.518 Y289.350
G1 X18.394 Y293.141
G0 Z5
G0 X35.426 Y298.195
G1 Z0 F500
G1 X35.426 Y298.556
G1 X35.523 Y298.736
G1 X35.718 Y298.736
G1 X35.815 Y298.556
G1 X35.815 Y298.375
G1 X35.620 Y298.014
G1 X35.523 Y298.014
G0 Z5
G0 X46.521 Y299.097
G1 Z0 F500
G1 X46.715 Y298.736
G1 X46.715 Y298.556
G1 X46.521 Y298.195
G1 X46.423 Y298.195
G1 X46.229 Y298.556
G1 X46.229 Y298.736
G1 X46.326 Y298.917
G1 X46.423 Y298.917
G0 Z5
G0 X35.523 Y298.917
G1 Z0 F500
G1 X35.426 Y298.736
G1 X35.426 Y298.375
G1 X35.328 Y298.195
G1 X35.426 Y298.014
G1 X35.718 Y298.014
G1 X35.815 Y298.195
G1 X35.815 Y298.736
G1 X35.718 Y298.917
G1 X35.620 Y298.736
G0 Z5
G0 X46.326 Y299.097
G1 Z0 F500
G1 X46.229 Y298.917
G1 X46.229 Y298.375
G1 X46.326 Y298.195
G1 X46.618 Y298.195
G1 X46.715 Y298.375
G1 X46.715 Y298.917
G1 X46.618 Y299.097
G1 X46.521 Y299.097
G1 X46.423 Y298.917
G0 Z5
G0 X49.246 Y300.361
G1 Z0 F500
G1 X50.219 Y300.361
G1 X50.414 Y300.181
G1 X50.900 Y298.917
G1 X50.900 Y298.556
G1 X51.776 Y296.931
G1 X51.679 Y297.473
G1 X50.900 Y298.736
G1 X50.900 Y299.097
G1 X50.511 Y300.181
G1 X50.219 Y300.361
G0 Z5
G0 X44.282 Y296.390
G1 Z0 F500
G1 X45.645 Y296.209
G1 X44.282 Y296.570
G1 X45.158 Y298.736
G1 X46.034 Y296.390
G1 X47.299 Y296.931
G1 X47.689 Y298.917
G1 X49.051 Y297.112
G1 X47.591 Y299.097
G1 X47.105 Y296.751
G1 X46.034 Y296.390
G1 X45.450 Y298.917
G1 X46.715 Y300.000
G1 X50.414 Y297.473
G1 X46.910 Y300.000
G1 X44.477 Y298.195
G1 X46.423 Y301.083
G1 X44.769 Y299.278
G0 Z5
G0 X56.740 Y301.986
G1 Z0 F500
G1 X59.367 Y296.209
G1 X58.686 Y296.570
G1 X58.394 Y295.848
G1 X58.783 Y295.487
G1 X58.200 Y295.307
G1 X58.783 Y295.307
G1 X58.783 Y296.570
G1 X59.173 Y295.668
G1 X59.562 Y296.570
G1 X61.217 Y293.321
G1 X59.854 Y296.029
G1 X60.341 Y296.209
G1 X61.898 Y292.238
G1 X60.827 Y295.307
G1 X59.854 Y296.029
G1 X58.005 Y300.361
G1 X59.367 Y296.209
G0 Z5
G0 X36.788 Y298.195
G1 Z0 F500
G1 X36.010 Y299.639
G1 X34.745 Y300.000
G1 X35.036 Y301.083
G1 X35.912 Y300.361
G1 X34.453 Y302.527
G1 X35.036 Y301.083
G1 X33.577 Y300.361
G1 X32.798 Y298.736
G1 X33.869 Y300.542
G1 X34.647 Y300.722
G1 X34.647 Y300.000
G1 X31.825 Y297.473
G1 X34.647 Y300.000
G1 X36.399 Y299.097
G1 X36.496 Y297.112
G1 X35.036 Y296.390
G1 X34.550 Y298.917
G1 X33.187 Y296.931
G1 X34.550 Y298.736
G1 X34.842 Y296.570
G1 X36.010 Y296.209
G0 Z5
G0 X46.715 Y303.249
G1 Z0 F500
G1 X46.618 Y302.888
G1 X46.715 Y302.527
G1 X46.618 Y302.888
G1 X47.105 Y303.610
G1 X47.689 Y303.610
G1 X47.883 Y303.249
G1 X48.175 Y301.805
G1 X48.564 Y301.083
G1 X48.856 Y300.903
G1 X48.175 Y301.986
G1 X47.883 Y303.430
G1 X47.689 Y303.791
G1 X47.591 Y303.610
G1 X47.105 Y303.610
G0 Z5
G0 X36.010 Y302.527
G1 Z0 F500
G1 X36.496 Y303.249
G1 X36.983 Y302.347
G1 X37.080 Y301.625
G1 X37.275 Y301.625
G1 X36.983 Y301.986
G1 X37.080 Y302.708
G1 X37.664 Y301.986
G1 X39.319 Y301.805
G1 X40.487 Y302.166
G1 X39.319 Y301.805
G1 X37.664 Y301.986
G1 X36.594 Y303.069
G1 X36.399 Y303.791
G1 X36.496 Y303.430
G1 X36.204 Y303.249
G0 Z5
G0 X31.825 Y303.971
G1 Z0 F500
G1 X28.905 Y290.975
G1 X33.187 Y267.329
G1 X24.818 Y253.791
G1 X33.187 Y266.787
G1 X32.603 Y252.888
G1 X35.328 Y224.549
G1 X32.409 Y261.913
G1 X33.382 Y269.134
G1 X35.426 Y265.884
G1 X30.949 Y274.910
G1 X29.002 Y288.809
G0 Z5
G0 X40.389 Y306.498
G1 Z0 F500
G1 X40.487 Y303.610
G1 X40.681 Y303.249
G1 X40.584 Y302.888
G1 X40.876 Y302.347
G1 X41.849 Y301.625
G1 X42.433 Y301.986
G1 X42.822 Y301.264
G1 X42.433 Y301.986
G1 X41.849 Y301.625
G1 X40.973 Y302.347
G1 X40.681 Y302.888
G1 X40.389 Y304.513
G0 Z5
G0 X33.382 Y309.747
G1 Z0 F500
G1 X32.798 Y305.415
G1 X32.993 Y306.137
G1 X33.577 Y305.957
G1 X33.771 Y304.874
G1 X33.577 Y305.415
G1 X34.258 Y309.206
G1 X33.771 Y306.137
G1 X33.187 Y306.318
G1 X33.674 Y308.303
G1 X33.577 Y308.845
G1 X33.479 Y307.220
G1 X33.090 Y305.957
G1 X33.285 Y308.664
G1 X33.771 Y309.567
G0 Z5
G0 X36.204 Y311.372
G1 Z0 F500
G1 X36.204 Y310.830
G1 X36.010 Y311.191
G1 X35.912 Y310.830
G1 X36.010 Y307.220
G1 X35.815 Y307.401
G1 X35.718 Y305.415
G1 X36.594 Y304.693
G1 X36.496 Y308.303
G1 X36.399 Y306.318
G1 X36.594 Y305.235
G1 X35.718 Y305.596
G1 X35.718 Y306.679
G1 X35.912 Y307.040
G1 X36.010 Y306.137
G1 X36.204 Y306.498
G1 X35.912 Y308.123
G0 Z5
G0 X42.920 Y311.733
G1 Z0 F500
G1 X43.017 Y311.552
G1 X43.017 Y310.650
G1 X42.920 Y310.469
G1 X42.822 Y310.650
G1 X42.822 Y310.830
G1 X42.725 Y311.011
G1 X42.725 Y311.372
G0 Z5
G0 X53.431 Y312.816
G1 Z0 F500
G1 X54.793 Y308.484
G1 X54.599 Y307.942
G1 X54.307 Y308.664
G1 X54.404 Y308.123
G1 X55.280 Y307.581
G1 X56.448 Y303.791
G1 X59.854 Y297.653
G1 X56.448 Y303.971
G0 Z5
G0 X38.832 Y316.968
G1 Z0 F500
G1 X38.929 Y307.581
G1 X39.416 Y303.610
G1 X38.929 Y302.527
G1 X37.956 Y303.971
G1 X38.735 Y302.347
G1 X39.221 Y303.069
G1 X39.903 Y302.708
G1 X39.221 Y303.069
G1 X39.611 Y303.791
G1 X40.195 Y302.708
G1 X39.611 Y303.971
G1 X39.319 Y303.791
G1 X39.027 Y306.137
G0 Z5
G0 X41.849 Y318.773
G1 Z0 F500
G1 X42.238 Y318.412
G1 X42.141 Y315.523
G1 X42.822 Y312.996
G1 X42.725 Y303.971
G1 X43.698 Y302.166
G1 X43.406 Y302.708
G1 X43.893 Y302.527
G1 X42.725 Y304.152
G1 X42.628 Y310.108
G1 X42.822 Y310.650
G1 X43.017 Y309.567
G1 X43.114 Y310.289
G1 X43.504 Y310.108
G1 X43.017 Y310.469
G1 X42.725 Y313.718
G1 X42.141 Y315.523
G1 X42.238 Y318.592
G0 Z5
G0 X37.859 Y336.101
G1 Z0 F500
G1 X36.399 Y335.018
G1 X33.479 Y329.242
G1 X31.922 Y323.466
G1 X31.630 Y320.217
G1 X32.117 Y324.368
G1 X33.479 Y329.061
G1 X35.523 Y332.852
G1 X35.815 Y332.491
G1 X35.523 Y333.032
G1 X36.496 Y335.018
G0 Z5
G0 X41.849 Y341.516
G1 Z0 F500
G1 X41.946 Y341.155
G1 X41.752 Y340.794
G1 X42.141 Y341.697
G1 X42.822 Y341.697
G1 X43.406 Y341.155
G1 X44.380 Y338.809
G1 X44.672 Y337.184
G1 X44.672 Y335.379
G1 X44.964 Y335.199
G1 X45.353 Y335.560
G1 X45.353 Y335.921
G1 X44.866 Y335.379
G1 X44.672 Y335.740
G1 X44.672 Y337.365
G1 X44.380 Y338.989
G1 X43.406 Y341.155
G1 X42.920 Y341.697
G0 Z5
G0 X37.178 Y342.780
G1 Z0 F500
G1 X34.258 Y339.892
G1 X33.674 Y337.906
G1 X34.355 Y339.892
G0 Z5
G0 X20.146 Y297.473
G1 Z0 F500
G1 X29.197 Y331.227
G1 X35.718 Y343.321
G1 X40.973 Y344.765
G1 X56.156 Y326.895
G1 X65.888 Y280.686
G1 X56.156 Y327.076
G1 X41.071 Y344.765
G1 X35.912 Y343.682
G1 X29.294 Y331.588
G0 Z5
M30