G21
G90
G1 F1000
G0 Z5
G0 X55.377 Y215.403
G1 Z0 F500
G1 X55.377 Y214.200
G1 X52.165 Y200.241
G1 X55.474 Y214.681
G0 Z5
G0 X37.762 Y222.623
G1 Z0 F500
G1 X37.859 Y222.623
G1 X37.956 Y222.383
G1 X37.956 Y222.142
G1 X38.054 Y221.901
G1 X38.054 Y220.939
G1 X37.956 Y220.698
G1 X37.859 Y220.698
G1 X37.664 Y221.179
G1 X37.664 Y222.383
G0 Z5
G0 X68.224 Y222.623
G1 Z0 F500
G1 X68.029 Y221.420
G1 X67.445 Y220.457
G1 X67.445 Y219.495
G1 X66.764 Y215.884
G1 X66.667 Y214.440
G1 X66.764 Y214.440
G1 X66.764 Y215.644
G1 X67.153 Y217.329
G1 X67.251 Y218.773
G1 X67.445 Y219.254
G1 X67.445 Y220.217
G1 X68.029 Y221.179
G1 X68.224 Y221.901
G1 X68.127 Y222.142
G0 Z5
G0 X39.027 Y222.864
G1 Z0 F500
G1 X38.637 Y222.383
G1 X38.345 Y221.420
G1 X38.151 Y221.420
G1 X37.762 Y223.105
G1 X37.664 Y221.179
G1 X38.054 Y219.976
G1 X38.054 Y219.495
G1 X38.248 Y220.217
G1 X38.054 Y220.698
G1 X38.054 Y221.179
G1 X38.248 Y221.420
G1 X38.345 Y220.698
G1 X38.540 Y220.457
G1 X38.345 Y220.698
G1 X38.345 Y221.179
G1 X38.540 Y221.661
G1 X38.637 Y221.420
G1 X38.540 Y221.901
G1 X38.832 Y222.623
G1 X39.124 Y222.142
G1 X38.929 Y222.623
G0 Z5
G0 X57.810 Y226.715
G1 Z0 F500
G1 X59.270 Y223.105
G1 X60.049 Y218.773
G1 X59.465 Y222.142
G1 X59.757 Y223.105
G1 X60.827 Y221.901
G1 X62.384 Y218.051
G1 X63.844 Y215.884
G1 X64.234 Y216.125
G1 X62.190 Y218.532
G1 X60.925 Y221.901
G1 X59.951 Y223.105
G1 X59.465 Y222.623
G0 Z5
G0 X56.934 Y231.288
G1 Z0 F500
G1 X56.934 Y230.806
G1 X57.713 Y228.159
G1 X59.367 Y224.067
G1 X59.465 Y225.030
G1 X59.270 Y225.030
G1 X59.465 Y224.789
G1 X59.367 Y224.067
G1 X58.200 Y226.955
G0 Z5
G0 X51.776 Y231.288
G1 Z0 F500
G1 X51.971 Y229.844
G1 X52.749 Y228.159
G1 X53.917 Y223.827
G1 X54.112 Y221.901
G1 X55.280 Y218.051
G1 X54.988 Y217.569
G1 X55.377 Y216.366
G1 X55.085 Y217.329
G1 X55.280 Y218.291
G1 X54.112 Y222.142
G1 X53.528 Y225.511
G0 Z5
G0 X36.788 Y236.823
G1 Z0 F500
G1 X35.426 Y231.528
G1 X36.886 Y213.718
G1 X35.426 Y231.528
G0 Z5
G0 X37.080 Y238.508
G1 Z0 F500
G1 X38.735 Y232.250
G1 X37.859 Y223.586
G1 X39.319 Y223.827
G1 X39.708 Y219.976
G1 X38.151 Y216.125
G1 X37.470 Y218.532
G1 X37.080 Y217.569
G1 X37.859 Y200.241
G1 X37.080 Y217.569
G1 X38.248 Y215.884
G1 X39.805 Y219.976
G1 X39.416 Y223.827
G1 X37.859 Y223.586
G1 X38.735 Y232.491
G0 Z5
G0 X53.625 Y239.471
G1 Z0 F500
G1 X53.333 Y238.748
G1 X53.917 Y238.748
G1 X54.696 Y237.304
G1 X55.766 Y234.416
G1 X56.642 Y231.047
G1 X55.669 Y234.898
G1 X54.793 Y237.304
G1 X54.112 Y238.267
G1 X54.112 Y239.952
G1 X53.917 Y238.748
G1 X53.723 Y238.748
G0 Z5
G0 X39.708 Y245.728
G1 Z0 F500
G1 X35.523 Y233.694
G1 X39.708 Y245.728
G1 X41.946 Y246.209
G1 X44.477 Y240.674
G1 X43.212 Y233.213
G1 X44.769 Y209.146
G1 X44.185 Y200.241
G1 X44.769 Y209.146
G1 X43.212 Y232.972
G1 X44.477 Y240.674
G1 X47.105 Y236.342
G1 X42.238 Y245.969
G0 Z5
G0 X23.358 Y258.243
G1 Z0 F500
G1 X26.569 Y255.355
G1 X23.066 Y257.521
G1 X26.375 Y254.392
G1 X22.871 Y243.562
G1 X30.073 Y200.241
G1 X22.871 Y243.803
G1 X26.667 Y255.596
G0 Z5
G0 X66.180 Y261.131
G1 Z0 F500
G1 X65.693 Y259.687
G1 X65.499 Y259.687
G1 X65.791 Y259.687
G1 X65.888 Y260.168
G1 X66.277 Y259.206
G1 X66.180 Y258.002
G1 X65.693 Y256.318
G1 X65.693 Y254.874
G1 X66.083 Y252.467
G1 X66.375 Y251.986
G1 X66.569 Y252.467
G1 X67.056 Y252.467
G1 X66.277 Y251.986
G1 X65.693 Y254.874
G1 X65.693 Y256.077
G1 X66.277 Y258.484
G1 X66.180 Y259.687
G1 X65.888 Y260.168
G1 X66.472 Y261.131
G0 Z5
G0 X50.608 Y267.148
G1 Z0 F500
G1 X50.511 Y251.264
G1 X49.051 Y246.691
G1 X49.635 Y249.338
G1 X50.219 Y248.857
G1 X49.635 Y240.674
G1 X51.679 Y231.769
G1 X49.635 Y240.674
G1 X50.900 Y256.799
G0 Z5
G0 X68.321 Y269.795
G1 Z0 F500
G1 X68.029 Y269.073
G1 X67.835 Y265.945
G1 X66.764 Y261.853
G1 X66.861 Y261.372
G1 X66.569 Y258.243
G1 X66.861 Y261.853
G1 X67.835 Y265.704
G1 X68.029 Y268.833
G0 Z5
G0 X67.543 Y270.758
G1 Z0 F500
G1 X67.348 Y270.758
G1 X67.056 Y269.795
G1 X66.472 Y266.185
G1 X67.056 Y269.555
G1 X67.445 Y270.758
G1 X67.640 Y269.314
G1 X66.959 Y265.945
G1 X67.153 Y264.501
G1 X66.959 Y265.704
G1 X67.251 Y267.870
G1 X67.640 Y269.073
G0 Z5
G0 X18.686 Y270.999
G1 Z0 F500
G1 X18.491 Y270.277
G1 X18.686 Y268.833
G1 X18.686 Y265.945
G1 X18.200 Y264.982
G1 X17.908 Y265.463
G1 X18.394 Y267.148
G1 X18.394 Y269.073
G1 X18.394 Y267.389
G1 X17.713 Y264.982
G1 X18.491 Y265.223
G1 X18.783 Y266.185
G1 X18.783 Y268.351
G1 X18.491 Y269.555
G0 Z5
G0 X18.394 Y272.924
G1 Z0 F500
G1 X19.270 Y269.795
G1 X19.367 Y266.185
G1 X19.465 Y267.389
G1 X19.854 Y266.667
G1 X23.260 Y270.036
G1 X19.854 Y266.667
G1 X19.465 Y267.389
G1 X19.270 Y269.795
G0 Z5
G0 X68.905 Y273.165
G1 Z0 F500
G1 X68.710 Y272.202
G1 X68.808 Y272.924
G1 X69.100 Y272.202
G1 X69.197 Y268.833
G1 X68.613 Y265.463
G1 X67.543 Y263.297
G1 X67.445 Y262.575
G1 X68.127 Y264.741
G1 X68.418 Y264.260
G1 X67.640 Y262.335
G1 X68.516 Y264.019
G1 X68.321 Y264.741
G1 X68.613 Y265.223
G1 X69.197 Y268.592
G1 X69.100 Y271.239
G1 X69.294 Y271.480
G0 Z5
G0 X69.586 Y275.812
G1 Z0 F500
G1 X70.852 Y271.480
G1 X67.835 Y261.853
G1 X74.355 Y254.874
G1 X75.523 Y250.542
G1 X78.345 Y200.241
G1 X75.523 Y250.542
G1 X74.453 Y254.874
G1 X68.321 Y261.372
G1 X70.852 Y271.480
G0 Z5
G0 X67.543 Y275.812
G1 Z0 F500
G1 X68.029 Y274.609
G1 X68.516 Y274.609
G1 X69.294 Y272.924
G1 X69.489 Y271.961
G1 X69.586 Y269.314
G1 X69.684 Y269.314
G1 X69.781 Y270.036
G1 X69.684 Y269.795
G1 X69.586 Y270.036
G1 X69.586 Y270.999
G1 X69.294 Y273.165
G1 X68.613 Y274.609
G1 X68.127 Y274.609
G1 X67.835 Y275.331
G1 X67.932 Y275.812
G1 X67.737 Y275.331
G0 Z5
G0 X68.029 Y276.294
G1 Z0 F500
G1 X69.197 Y274.609
G1 X69.586 Y274.609
G1 X69.781 Y274.128
G1 X69.781 Y272.924
G1 X70.170 Y272.924
G1 X70.365 Y272.202
G1 X70.365 Y270.999
G1 X69.392 Y267.389
G1 X69.586 Y267.148
G1 X69.489 Y267.389
G1 X70.268 Y270.277
G1 X70.365 Y272.443
G1 X70.268 Y272.924
G1 X69.781 Y273.165
G1 X69.684 Y274.609
G1 X69.294 Y274.609
G0 Z5
G0 X49.148 Y279.422
G1 Z0 F500
G1 X45.645 Y261.372
G1 X41.946 Y247.413
G1 X45.645 Y261.131
G0 Z5
G0 X18.394 Y281.107
G1 Z0 F500
G1 X17.421 Y264.982
G1 X6.910 Y253.430
G1 X4.964 Y234.657
G1 X3.893 Y200.241
G1 X6.813 Y252.708
G1 X8.370 Y257.280
G1 X17.518 Y264.982
G1 X17.324 Y277.497
G0 Z5
G0 X32.993 Y285.439
G1 Z0 F500
G1 X34.550 Y268.351
G1 X39.903 Y246.931
G1 X34.453 Y269.073
G0 Z5
G0 X20.146 Y286.643
G1 Z0 F500
G1 X19.659 Y286.402
G1 X19.367 Y285.680
G1 X19.075 Y284.236
G1 X19.075 Y283.755
G1 X18.297 Y282.070
G1 X18.297 Y281.588
G1 X18.297 Y281.829
G1 X19.075 Y283.514
G1 X19.075 Y283.995
G1 X19.367 Y285.439
G1 X19.757 Y286.402
G0 Z5
G0 X57.616 Y294.344
G1 Z0 F500
G1 X56.934 Y293.622
G1 X56.837 Y289.049
G1 X56.448 Y288.087
G1 X55.280 Y292.419
G1 X56.448 Y288.087
G1 X56.058 Y286.161
G1 X55.085 Y289.290
G1 X54.988 Y291.697
G1 X55.085 Y292.178
G1 X55.182 Y288.568
G1 X56.058 Y285.439
G1 X56.350 Y287.365
G1 X56.837 Y288.087
G1 X56.545 Y288.327
G1 X56.837 Y289.049
G1 X56.934 Y293.381
G0 Z5
G0 X53.528 Y302.286
G1 Z0 F500
G1 X53.820 Y300.842
G1 X53.820 Y299.880
G1 X53.528 Y298.676
G1 X54.501 Y296.992
G1 X54.891 Y296.029
G1 X54.891 Y295.066
G1 X55.280 Y294.585
G1 X55.182 Y295.066
G1 X54.891 Y295.307
G1 X54.988 Y296.029
G1 X53.528 Y298.917
G1 X53.820 Y299.880
G1 X53.820 Y300.842
G0 Z5
G0 X62.968 Y303.249
G1 Z0 F500
G1 X62.190 Y295.066
G1 X62.287 Y292.178
G1 X62.092 Y291.215
G1 X61.898 Y291.456
G1 X64.039 Y285.439
G1 X62.190 Y290.975
G1 X62.190 Y295.066
G0 Z5
G0 X54.988 Y309.025
G1 Z0 F500
G1 X57.032 Y299.880
G1 X56.642 Y295.548
G1 X54.209 Y305.897
G1 X55.864 Y299.880
G1 X56.058 Y295.548
G1 X56.545 Y295.788
G1 X56.545 Y294.585
G1 X57.421 Y305.174
G1 X56.837 Y307.581
G1 X57.421 Y305.174
G1 X56.934 Y300.602
G0 Z5
G0 X63.844 Y309.266
G1 Z0 F500
G1 X63.747 Y309.025
G1 X64.623 Y306.859
G1 X64.818 Y305.415
G1 X64.720 Y304.212
G1 X64.428 Y303.490
G1 X64.331 Y303.730
G1 X64.428 Y303.490
G1 X64.331 Y302.768
G1 X64.428 Y303.490
G1 X64.720 Y303.971
G1 X64.818 Y305.656
G1 X64.623 Y307.100
G0 Z5
G0 X43.990 Y309.025
G1 Z0 F500
G1 X42.822 Y309.266
G1 X41.557 Y307.581
G1 X40.779 Y307.581
G1 X39.708 Y309.025
G1 X38.345 Y308.785
G1 X39.708 Y309.025
G1 X40.681 Y307.581
G1 X41.557 Y307.581
G1 X42.822 Y309.266
G0 Z5
G0 X63.552 Y309.507
G1 Z0 F500
G1 X63.358 Y305.174
G1 X64.915 Y297.714
G1 X64.428 Y284.236
G1 X66.375 Y280.385
G1 X70.073 Y277.497
G1 X70.949 Y273.165
G1 X70.170 Y277.497
G1 X66.667 Y280.144
G1 X64.428 Y284.477
G1 X64.915 Y297.714
G1 X63.358 Y305.415
G0 Z5
G0 X62.871 Y313.839
G1 Z0 F500
G1 X63.455 Y311.673
G1 X63.552 Y310.229
G1 X63.650 Y310.710
G1 X64.136 Y310.469
G1 X65.109 Y306.378
G1 X65.109 Y304.452
G1 X64.526 Y302.046
G1 X65.109 Y304.212
G1 X65.109 Y306.378
G1 X64.234 Y310.229
G1 X64.428 Y310.710
G1 X64.234 Y310.229
G1 X63.552 Y310.710
G0 Z5
G0 X60.049 Y317.449
G1 Z0 F500
G1 X60.341 Y316.486
G1 X60.438 Y315.764
G1 X60.633 Y315.283
G1 X60.827 Y314.079
G1 X61.022 Y313.598
G1 X61.022 Y312.635
G1 X60.925 Y312.395
G1 X60.730 Y312.635
G1 X60.049 Y316.245
G1 X59.854 Y316.727
G1 X59.854 Y316.968
G0 Z5
G0 X54.891 Y322.262
G1 Z0 F500
G1 X53.917 Y321.059
G1 X54.696 Y322.262
G1 X54.891 Y322.022
G1 X54.891 Y320.337
G1 X55.085 Y321.300
G1 X55.572 Y320.096
G1 X55.377 Y317.208
G1 X54.696 Y314.801
G1 X54.015 Y314.561
G1 X53.820 Y315.283
G1 X53.625 Y314.801
G1 X53.333 Y315.042
G1 X53.333 Y314.561
G1 X54.501 Y314.561
G1 X55.182 Y316.005
G1 X55.572 Y320.096
G0 Z5
G0 X56.642 Y322.744
G1 Z0 F500
G1 X58.394 Y321.059
G1 X59.854 Y316.968
G1 X60.827 Y312.154
G1 X61.411 Y305.897
G1 X61.022 Y308.785
G1 X61.217 Y310.951
G1 X60.827 Y311.432
G1 X61.022 Y313.357
G1 X61.314 Y313.357
G1 X60.146 Y317.208
G1 X60.341 Y317.930
G1 X60.146 Y317.449
G1 X59.854 Y318.412
G1 X59.854 Y316.968
G1 X58.491 Y321.059
G0 Z5
G0 X27.737 Y323.225
G1 Z0 F500
G1 X27.251 Y321.540
G1 X27.640 Y322.503
G1 X27.932 Y321.781
G1 X27.737 Y321.059
G1 X27.640 Y321.781
G1 X27.543 Y318.893
G1 X28.127 Y315.283
G1 X28.808 Y314.320
G1 X28.905 Y315.523
G1 X28.224 Y318.652
G1 X27.932 Y318.652
G1 X28.321 Y318.171
G1 X28.905 Y315.283
G1 X28.808 Y314.320
G1 X28.127 Y315.523
G1 X27.543 Y319.134
G1 X27.543 Y320.818
G1 X27.835 Y321.300
G1 X28.029 Y320.096
G1 X27.835 Y321.540
G1 X28.321 Y322.984
G1 X27.835 Y322.262
G0 Z5
G0 X61.022 Y323.947
G1 Z0 F500
G1 X61.411 Y322.984
G1 X61.411 Y322.503
G1 X62.190 Y320.337
G1 X62.676 Y318.412
G1 X63.163 Y317.449
G1 X61.411 Y322.744
G1 X61.314 Y323.466
G0 Z5
G0 X53.431 Y324.669
G1 Z0 F500
G1 X52.555 Y306.619
G1 X49.148 Y292.659
G1 X44.672 Y283.273
G1 X42.238 Y281.348
G1 X39.221 Y281.829
G1 X36.594 Y285.199
G1 X39.221 Y281.829
G1 X42.238 Y281.348
G1 X45.353 Y284.236
G1 X49.246 Y292.659
G1 X52.555 Y306.619
G0 Z5
G0 X52.068 Y329.483
G1 Z0 F500
G1 X52.068 Y329.242
G1 X52.457 Y328.279
G1 X52.457 Y328.039
G1 X52.944 Y326.835
G1 X53.139 Y325.632
G1 X53.139 Y326.113
G1 X53.041 Y326.354
G1 X52.944 Y327.076
G0 Z5
G0 X20.243 Y329.483
G1 Z0 F500
G1 X17.713 Y321.781
G1 X17.518 Y318.893
G1 X17.810 Y317.449
G1 X18.005 Y320.818
G1 X18.978 Y323.947
G1 X18.978 Y320.096
G1 X19.367 Y319.615
G1 X18.978 Y320.096
G1 X19.173 Y323.466
G1 X18.881 Y324.188
G1 X18.102 Y321.781
G1 X17.810 Y318.893
G1 X17.518 Y319.134
G1 X18.394 Y324.188
G0 Z5
G0 X35.426 Y330.927
G1 Z0 F500
G1 X35.426 Y331.408
G1 X35.523 Y331.649
G1 X35.718 Y331.649
G1 X35.815 Y331.408
G1 X35.815 Y331.167
G1 X35.620 Y330.686
G1 X35.523 Y330.686
G0 Z5
G0 X46.521 Y332.130
G1 Z0 F500
G1 X46.715 Y331.649
G1 X46.715 Y331.408
G1 X46.521 Y330.927
G1 X46.423 Y330.927
G1 X46.229 Y331.408
G1 X46.229 Y331.649
G1 X46.326 Y331.889
G1 X46.423 Y331.889
G0 Z5
G0 X35.523 Y331.889
G1 Z0 F500
G1 X35.426 Y331.649
G1 X35.426 Y331.167
G1 X35.328 Y330.927
G1 X35.426 Y330.686
G1 X35.718 Y330.686
G1 X35.815 Y330.927
G1 X35.815 Y331.649
G1 X35.718 Y331.889
G1 X35.620 Y331.649
G0 Z5
G0 X46.326 Y332.130
G1 Z0 F500
G1 X46.229 Y331.889
G1 X46.229 Y331.167
G1 X46.326 Y330.927
G1 X46.618 Y330.927
G1 X46.715 Y331.167
G1 X46.715 Y331.889
G1 X46.618 Y332.130
G1 X46.521 Y332.130
G1 X46.423 Y331.889
G0 Z5
G0 X49.246 Y333.815
G1 Z0 F500
G1 X50.219 Y333.815
G1 X50.414 Y333.574
G1 X50.900 Y331.889
G1 X50.900 Y331.408
G1 X51.776 Y329.242
G1 X51.679 Y329.964
G1 X50.900 Y331.649
G1 X50.900 Y332.130
G1 X50.511 Y333.574
G1 X50.219 Y333.815
G0 Z5
G0 X44.282 Y328.520
G1 Z0 F500
G1 X45.645 Y328.279
G1 X44.282 Y328.761
G1 X45.158 Y331.649
G1 X46.034 Y328.520
G1 X47.299 Y329.242
G1 X47.689 Y331.889
G1 X49.051 Y329.483
G1 X47.591 Y332.130
G1 X47.105 Y329.001
G1 X46.034 Y328.520
G1 X45.450 Y331.889
G1 X46.715 Y333.333
G1 X50.414 Y329.964
G1 X46.910 Y333.333
G1 X44.477 Y330.927
G1 X46.423 Y334.777
G1 X44.769 Y332.371
G0 Z5
G0 X56.740 Y335.981
G1 Z0 F500
G1 X59.367 Y328.279
G1 X58.686 Y328.761
G1 X58.394 Y327.798
G1 X58.783 Y327.316
G1 X58.200 Y327.076
G1 X58.783 Y327.076
G1 X58.783 Y328.761
G1 X59.173 Y327.557
G1 X59.562 Y328.761
G1 X61.217 Y324.428
G1 X59.854 Y328.039
G1 X60.341 Y328.279
G1 X61.898 Y322.984
G1 X60.827 Y327.076
G1 X59.854 Y328.039
G1 X58.005 Y333.815
G1 X59.367 Y328.279
G0 Z5
G0 X36.788 Y330.927
G1 Z0 F500
G1 X36.010 Y332.852
G1 X34.745 Y333.333
G1 X35.036 Y334.777
G1 X35.912 Y333.815
G1 X34.453 Y336.703
G1 X35.036 Y334.777
G1 X33.577 Y333.815
G1 X32.798 Y331.649
G1 X33.869 Y334.055
G1 X34.647 Y334.296
G1 X34.647 Y333.333
G1 X31.825 Y329.964
G1 X34.647 Y333.333
G1 X36.399 Y332.130
G1 X36.496 Y329.483
G1 X35.036 Y328.520
G1 X34.550 Y331.889
G1 X33.187 Y329.242
G1 X34.550 Y331.649
G1 X34.842 Y328.761
G1 X36.010 Y328.279
G0 Z5
G0 X46.715 Y337.665
G1 Z0 F500
G1 X46.618 Y337.184
G1 X46.715 Y336.703
G1 X46.618 Y337.184
G1 X47.105 Y338.147
G1 X47.689 Y338.147
G1 X47.883 Y337.665
G1 X48.175 Y335.740
G1 X48.564 Y334.777
G1 X48.856 Y334.537
G1 X48.175 Y335.981
G1 X47.883 Y337.906
G1 X47.689 Y338.387
G1 X47.591 Y338.147
G1 X47.105 Y338.147
G0 Z5
G0 X36.010 Y336.703
G1 Z0 F500
G1 X36.496 Y337.665
G1 X36.983 Y336.462
G1 X37.080 Y335.499
G1 X37.275 Y335.499
G1 X36.983 Y335.981
G1 X37.080 Y336.943
G1 X37.664 Y335.981
G1 X39.319 Y335.740
G1 X40.487 Y336.221
G1 X39.319 Y335.740
G1 X37.664 Y335.981
G1 X36.594 Y337.425
G1 X36.399 Y338.387
G1 X36.496 Y337.906
G1 X36.204 Y337.665
G0 Z5
G0 X31.825 Y338.628
G1 Z0 F500
G1 X28.905 Y321.300
G1 X33.187 Y289.771
G1 X24.818 Y271.721
G1 X33.187 Y289.049
G1 X32.603 Y270.517
G1 X35.328 Y232.732
G1 X32.409 Y282.551
G1 X33.382 Y292.178
G1 X35.426 Y287.846
G1 X30.949 Y299.880
G1 X29.002 Y318.412
G0 Z5
G0 X40.389 Y341.998
G1 Z0 F500
G1 X40.487 Y338.147
G1 X40.681 Y337.665
G1 X40.584 Y337.184
G1 X40.876 Y336.462
G1 X41.849 Y335.499
G1 X42.433 Y335.981
G1 X42.822 Y335.018
G1 X42.433 Y335.981
G1 X41.849 Y335.499
G1 X40.973 Y336.462
G1 X40.681 Y337.184
G1 X40.389 Y339.350
G0 Z5
G0 X33.382 Y346.330
G1 Z0 F500
G1 X32.798 Y340.554
G1 X32.993 Y341.516
G1 X33.577 Y341.276
G1 X33.771 Y339.832
G1 X33.577 Y340.554
G1 X34.258 Y345.608
G1 X33.771 Y341.516
G1 X33.187 Y341.757
G1 X33.674 Y344.404
G1 X33.577 Y345.126
G1 X33.479 Y342.960
G1 X33.090 Y341.276
G1 X33.285 Y344.886
G1 X33.771 Y346.089
G0 Z5
G0 X36.204 Y348.496
G1 Z0 F500
G1 X36.204 Y347.774
G1 X36.010 Y348.255
G1 X35.912 Y347.774
G1 X36.010 Y342.960
G1 X35.815 Y343.201
G1 X35.718 Y340.554
G1 X36.594 Y339.591
G1 X36.496 Y344.404
G1 X36.399 Y341.757
G1 X36.594 Y340.313
G1 X35.718 Y340.794
G1 X35.718 Y342.238
G1 X35.912 Y342.720
G1 X36.010 Y341.516
G1 X36.204 Y341.998
G1 X35.912 Y344.164
G0 Z5
G0 X42.920 Y348.977
G1 Z0 F500
G1 X43.017 Y348.736
G1 X43.017 Y347.533
G1 X42.920 Y347.292
G1 X42.822 Y347.533
G1 X42.822 Y347.774
G1 X42.725 Y348.014
G1 X42.725 Y348.496
G0 Z5
G0 X53.431 Y350.421
G1 Z0 F500
G1 X54.793 Y344.645
G1 X54.599 Y343.923
G1 X54.307 Y344.886
G1 X54.404 Y344.164
G1 X55.280 Y343.442
G1 X56.448 Y338.387
G1 X59.854 Y330.205
G1 X56.448 Y338.628
G0 Z5
G0 X38.832 Y355.957
G1 Z0 F500
G1 X38.929 Y343.442
G1 X39.416 Y338.147
G1 X38.929 Y336.703
G1 X37.956 Y338.628
G1 X38.735 Y336.462
G1 X39.221 Y337.425
G1 X39.903 Y336.943
G1 X39.221 Y337.425
G1 X39.611 Y338.387
G1 X40.195 Y336.943
G1 X39.611 Y338.628
G1 X39.319 Y338.387
G1 X39.027 Y341.516
G0 Z5
G0 X41.849 Y358.363
G1 Z0 F500
G1 X42.238 Y357.882
G1 X42.141 Y354.031
G1 X42.822 Y350.662
G1 X42.725 Y338.628
G1 X43.698 Y336.221
G1 X43.406 Y336.943
G1 X43.893 Y336.703
G1 X42.725 Y338.869
G1 X42.628 Y346.811
G1 X42.822 Y347.533
G1 X43.017 Y346.089
G1 X43.114 Y347.052
G1 X43.504 Y346.811
G1 X43.017 Y347.292
G1 X42.725 Y351.625
G1 X42.141 Y354.031
G1 X42.238 Y358.123
G0 Z5
G0 X37.859 Y381.468
G1 Z0 F500
G1 X36.399 Y380.024
G1 X33.479 Y372.323
G1 X31.922 Y364.621
G1 X31.630 Y360.289
G1 X32.117 Y365.824
G1 X33.479 Y372.082
G1 X35.523 Y377.136
G1 X35.815 Y376.655
G1 X35.523 Y377.377
G1 X36.496 Y380.024
G0 Z5
G0 X41.849 Y388.688
G1 Z0 F500
G1 X41.946 Y388.207
G1 X41.752 Y387.726
G1 X42.141 Y388.929
G1 X42.822 Y388.929
G1 X43.406 Y388.207
G1 X44.380 Y385.078
G1 X44.672 Y382.912
G1 X44.672 Y380.505
G1 X44.964 Y380.265
G1 X45.353 Y380.746
G1 X45.353 Y381.227
G1 X44.866 Y380.505
G1 X44.672 Y380.987
G1 X44.672 Y383.153
G1 X44.380 Y385.319
G1 X43.406 Y388.207
G1 X42.920 Y388.929
G0 Z5
G0 X37.178 Y390.373
G1 Z0 F500
G1 X34.258 Y386.522
G1 X33.674 Y383.875
G1 X34.355 Y386.522
G0 Z5
G0 X20.146 Y329.964
G1 Z0 F500
G1 X29.197 Y374.970
G1 X35.718 Y391.095
G1 X40.973 Y393.020
G1 X56.156 Y369.194
G1 X65.888 Y307.581
G1 X56.156 Y369.434
G1 X41.071 Y393.020
G1 X35.912 Y391.576
G1 X29.294 Y375.451
G0 Z5
M30