G21
G90
G1 F1000
G0 Z5
G0 X55.377 Y207.702
G1 Z0 F500
G1 X55.377 Y207.100
G1 X52.165 Y200.120
G1 X55.474 Y207.341
G0 Z5
G0 X37.762 Y211.312
G1 Z0 F500
G1 X37.859 Y211.312
G1 X37.956 Y211.191
G1 X37.956 Y211.071
G1 X38.054 Y210.951
G1 X38.054 Y210.469
G1 X37.956 Y210.349
G1 X37.859 Y210.349
G1 X37.664 Y210.590
G1 X37.664 Y211.191
G0 Z5
G0 X68.224 Y211.312
G1 Z0 F500
G1 X68.029 Y210.710
G1 X67.445 Y210.229
G1 X67.445 Y209.747
G1 X66.764 Y207.942
G1 X66.667 Y207.220
G1 X66.764 Y207.220
G1 X66.764 Y207.822
G1 X67.153 Y208.664
G1 X67.251 Y209.386
G1 X67.445 Y209.627
G1 X67.445 Y210.108
G1 X68.029 Y210.590
G1 X68.224 Y210.951
G1 X68.127 Y211.071
G0 Z5
G0 X39.027 Y211.432
G1 Z0 F500
G1 X38.637 Y211.191
G1 X38.345 Y210.710
G1 X38.151 Y210.710
G1 X37.762 Y211.552
G1 X37.664 Y210.590
G1 X38.054 Y209.988
G1 X38.054 Y209.747
G1 X38.248 Y210.108
G1 X38.054 Y210.349
G1 X38.054 Y210.590
G1 X38.248 Y210.710
G1 X38.345 Y210.349
G1 X38.540 Y210.229
G1 X38.345 Y210.349
G1 X38.345 Y210.590
G1 X38.540 Y210.830
G1 X38.637 Y210.710
G1 X38.540 Y210.951
G1 X38.832 Y211.312
G1 X39.124 Y211.071
G1 X38.929 Y211.312
G0 Z5
G0 X57.810 Y213.357
G1 Z0 F500
G1 X59.270 Y211.552
G1 X60.049 Y209.386
G1 X59.465 Y211.071
G1 X59.757 Y211.552
G1 X60.827 Y210.951
G1 X62.384 Y209.025
G1 X63.844 Y207.942
G1 X64.234 Y208.063
G1 X62.190 Y209.266
G1 X60.925 Y210.951
G1 X59.951 Y211.552
G1 X59.465 Y211.312
G0 Z5
G0 X56.934 Y215.644
G1 Z0 F500
G1 X56.934 Y215.403
G1 X57.713 Y214.079
G1 X59.367 Y212.034
G1 X59.465 Y212.515
G1 X59.270 Y212.515
G1 X59.465 Y212.395
G1 X59.367 Y212.034
G1 X58.200 Y213.478
G0 Z5
G0 X51.776 Y215.644
G1 Z0 F500
G1 X51.971 Y214.922
G1 X52.749 Y214.079
G1 X53.917 Y211.913
G1 X54.112 Y210.951
G1 X55.280 Y209.025
G1 X54.988 Y208.785
G1 X55.377 Y208.183
G1 X55.085 Y208.664
G1 X55.280 Y209.146
G1 X54.112 Y211.071
G1 X53.528 Y212.756
G0 Z5
G0 X36.788 Y218.412
G1 Z0 F500
G1 X35.426 Y215.764
G1 X36.886 Y206.859
G1 X35.426 Y215.764
G0 Z5
G0 X37.080 Y219.254
G1 Z0 F500
G1 X38.735 Y216.125
G1 X37.859 Y211.793
G1 X39.319 Y211.913
G1 X39.708 Y209.988
G1 X38.151 Y208.063
G1 X37.470 Y209.266
G1 X37.080 Y208.785
G1 X37.859 Y200.120
G1 X37.080 Y208.785
G1 X38.248 Y207.942
G1 X39.805 Y209.988
G1 X39.416 Y211.913
G1 X37.859 Y211.793
G1 X38.735 Y216.245
G0 Z5
G0 X53.625 Y219.735
G1 Z0 F500
G1 X53.333 Y219.374
G1 X53.917 Y219.374
G1 X54.696 Y218.652
G1 X55.766 Y217.208
G1 X56.642 Y215.523
G1 X55.669 Y217.449
G1 X54.793 Y218.652
G1 X54.112 Y219.134
G1 X54.112 Y219.976
G1 X53.917 Y219.374
G1 X53.723 Y219.374
G0 Z5
G0 X39.708 Y222.864
G1 Z0 F500
G1 X35.523 Y216.847
G1 X39.708 Y222.864
G1 X41.946 Y223.105
G1 X44.477 Y220.337
G1 X43.212 Y216.606
G1 X44.769 Y204.573
G1 X44.185 Y200.120
G1 X44.769 Y204.573
G1 X43.212 Y216.486
G1 X44.477 Y220.337
G1 X47.105 Y218.171
G1 X42.238 Y222.984
G0 Z5
G0 X23.358 Y229.122
G1 Z0 F500
G1 X26.569 Y227.677
G1 X23.066 Y228.761
G1 X26.375 Y227.196
G1 X22.871 Y221.781
G1 X30.073 Y200.120
G1 X22.871 Y221.901
G1 X26.667 Y227.798
G0 Z5
G0 X66.180 Y230.566
G1 Z0 F500
G1 X65.693 Y229.844
G1 X65.499 Y229.844
G1 X65.791 Y229.844
G1 X65.888 Y230.084
G1 X66.277 Y229.603
G1 X66.180 Y229.001
G1 X65.693 Y228.159
G1 X65.693 Y227.437
G1 X66.083 Y226.233
G1 X66.375 Y225.993
G1 X66.569 Y226.233
G1 X67.056 Y226.233
G1 X66.277 Y225.993
G1 X65.693 Y227.437
G1 X65.693 Y228.039
G1 X66.277 Y229.242
G1 X66.180 Y229.844
G1 X65.888 Y230.084
G1 X66.472 Y230.566
G0 Z5
G0 X50.608 Y233.574
G1 Z0 F500
G1 X50.511 Y225.632
G1 X49.051 Y223.345
G1 X49.635 Y224.669
G1 X50.219 Y224.428
G1 X49.635 Y220.337
G1 X51.679 Y215.884
G1 X49.635 Y220.337
G1 X50.900 Y228.400
G0 Z5
G0 X68.321 Y234.898
G1 Z0 F500
G1 X68.029 Y234.537
G1 X67.835 Y232.972
G1 X66.764 Y230.927
G1 X66.861 Y230.686
G1 X66.569 Y229.122
G1 X66.861 Y230.927
G1 X67.835 Y232.852
G1 X68.029 Y234.416
G0 Z5
G0 X67.543 Y235.379
G1 Z0 F500
G1 X67.348 Y235.379
G1 X67.056 Y234.898
G1 X66.472 Y233.093
G1 X67.056 Y234.777
G1 X67.445 Y235.379
G1 X67.640 Y234.657
G1 X66.959 Y232.972
G1 X67.153 Y232.250
G1 X66.959 Y232.852
G1 X67.251 Y233.935
G1 X67.640 Y234.537
G0 Z5
G0 X18.686 Y235.499
G1 Z0 F500
G1 X18.491 Y235.138
G1 X18.686 Y234.416
G1 X18.686 Y232.972
G1 X18.200 Y232.491
G1 X17.908 Y232.732
G1 X18.394 Y233.574
G1 X18.394 Y234.537
G1 X18.394 Y233.694
G1 X17.713 Y232.491
G1 X18.491 Y232.611
G1 X18.783 Y233.093
G1 X18.783 Y234.176
G1 X18.491 Y234.777
G0 Z5
G0 X18.394 Y236.462
G1 Z0 F500
G1 X19.270 Y234.898
G1 X19.367 Y233.093
G1 X19.465 Y233.694
G1 X19.854 Y233.333
G1 X23.260 Y235.018
G1 X19.854 Y233.333
G1 X19.465 Y233.694
G1 X19.270 Y234.898
G0 Z5
G0 X68.905 Y236.582
G1 Z0 F500
G1 X68.710 Y236.101
G1 X68.808 Y236.462
G1 X69.100 Y236.101
G1 X69.197 Y234.416
G1 X68.613 Y232.732
G1 X67.543 Y231.649
G1 X67.445 Y231.288
G1 X68.127 Y232.371
G1 X68.418 Y232.130
G1 X67.640 Y231.167
G1 X68.516 Y232.010
G1 X68.321 Y232.371
G1 X68.613 Y232.611
G1 X69.197 Y234.296
G1 X69.100 Y235.620
G1 X69.294 Y235.740
G0 Z5
G0 X69.586 Y237.906
G1 Z0 F500
G1 X70.852 Y235.740
G1 X67.835 Y230.927
G1 X74.355 Y227.437
G1 X75.523 Y225.271
G1 X78.345 Y200.120
G1 X75.523 Y225.271
G1 X74.453 Y227.437
G1 X68.321 Y230.686
G1 X70.852 Y235.740
G0 Z5
G0 X67.543 Y237.906
G1 Z0 F500
G1 X68.029 Y237.304
G1 X68.516 Y237.304
G1 X69.294 Y236.462
G1 X69.489 Y235.981
G1 X69.586 Y234.657
G1 X69.684 Y234.657
G1 X69.781 Y235.018
G1 X69.684 Y234.898
G1 X69.586 Y235.018
G1 X69.586 Y235.499
G1 X69.294 Y236.582
G1 X68.613 Y237.304
G1 X68.127 Y237.304
G1 X67.835 Y237.665
G1 X67.932 Y237.906
G1 X67.737 Y237.665
G0 Z5
G0 X68.029 Y238.147
G1 Z0 F500
G1 X69.197 Y237.304
G1 X69.586 Y237.304
G1 X69.781 Y237.064
G1 X69.781 Y236.462
G1 X70.170 Y236.462
G1 X70.365 Y236.101
G1 X70.365 Y235.499
G1 X69.392 Y233.694
G1 X69.586 Y233.574
G1 X69.489 Y233.694
G1 X70.268 Y235.138
G1 X70.365 Y236.221
G1 X70.268 Y236.462
G1 X69.781 Y236.582
G1 X69.684 Y237.304
G1 X69.294 Y237.304
G0 Z5
G0 X49.148 Y239.711
G1 Z0 F500
G1 X45.645 Y230.686
G1 X41.946 Y223.706
G1 X45.645 Y230.566
G0 Z5
G0 X18.394 Y240.554
G1 Z0 F500
G1 X17.421 Y232.491
G1 X6.910 Y226.715
G1 X4.964 Y217.329
G1 X3.893 Y200.120
G1 X6.813 Y226.354
G1 X8.370 Y228.640
G1 X17.518 Y232.491
G1 X17.324 Y238.748
G0 Z5
G0 X32.993 Y242.720
G1 Z0 F500
G1 X34.550 Y234.176
G1 X39.903 Y223.466
G1 X34.453 Y234.537
G0 Z5
G0 X20.146 Y243.321
G1 Z0 F500
G1 X19.659 Y243.201
G1 X19.367 Y242.840
G1 X19.075 Y242.118
G1 X19.075 Y241.877
G1 X18.297 Y241.035
G1 X18.297 Y240.794
G1 X18.297 Y240.915
G1 X19.075 Y241.757
G1 X19.075 Y241.998
G1 X19.367 Y242.720
G1 X19.757 Y243.201
G0 Z5
G0 X57.616 Y247.172
G1 Z0 F500
G1 X56.934 Y246.811
G1 X56.837 Y244.525
G1 X56.448 Y244.043
G1 X55.280 Y246.209
G1 X56.448 Y244.043
G1 X56.058 Y243.081
G1 X55.085 Y244.645
G1 X54.988 Y245.848
G1 X55.085 Y246.089
G1 X55.182 Y244.284
G1 X56.058 Y242.720
G1 X56.350 Y243.682
G1 X56.837 Y244.043
G1 X56.545 Y244.164
G1 X56.837 Y244.525
G1 X56.934 Y246.691
G0 Z5
G0 X53.528 Y251.143
G1 Z0 F500
G1 X53.820 Y250.421
G1 X53.820 Y249.940
G1 X53.528 Y249.338
G1 X54.501 Y248.496
G1 X54.891 Y248.014
G1 X54.891 Y247.533
G1 X55.280 Y247.292
G1 X55.182 Y247.533
G1 X54.891 Y247.653
G1 X54.988 Y248.014
G1 X53.528 Y249.458
G1 X53.820 Y249.940
G1 X53.820 Y250.421
G0 Z5
G0 X62.968 Y251.625
G1 Z0 F500
G1 X62.190 Y247.533
G1 X62.287 Y246.089
G1 X62.092 Y245.608
G1 X61.898 Y245.728
G1 X64.039 Y242.720
G1 X62.190 Y245.487
G1 X62.190 Y247.533
G0 Z5
G0 X54.988 Y254.513
G1 Z0 F500
G1 X57.032 Y249.940
G1 X56.642 Y247.774
G1 X54.209 Y252.948
G1 X55.864 Y249.940
G1 X56.058 Y247.774
G1 X56.545 Y247.894
G1 X56.545 Y247.292
G1 X57.421 Y252.587
G1 X56.837 Y253.791
G1 X57.421 Y252.587
G1 X56.934 Y250.301
G0 Z5
G0 X63.844 Y254.633
G1 Z0 F500
G1 X63.747 Y254.513
G1 X64.623 Y253.430
G1 X64.818 Y252.708
G1 X64.720 Y252.106
G1 X64.428 Y251.745
G1 X64.331 Y251.865
G1 X64.428 Y251.745
G1 X64.331 Y251.384
G1 X64.428 Y251.745
G1 X64.720 Y251.986
G1 X64.818 Y252.828
G1 X64.623 Y253.550
G0 Z5
G0 X43.990 Y254.513
G1 Z0 F500
G1 X42.822 Y254.633
G1 X41.557 Y253.791
G1 X40.779 Y253.791
G1 X39.708 Y254.513
G1 X38.345 Y254.392
G1 X39.708 Y254.513
G1 X40.681 Y253.791
G1 X41.557 Y253.791
G1 X42.822 Y254.633
G0 Z5
G0 X63.552 Y254.753
G1 Z0 F500
G1 X63.358 Y252.587
G1 X64.915 Y248.857
G1 X64.428 Y242.118
G1 X66.375 Y240.193
G1 X70.073 Y238.748
G1 X70.949 Y236.582
G1 X70.170 Y238.748
G1 X66.667 Y240.072
G1 X64.428 Y242.238
G1 X64.915 Y248.857
G1 X63.358 Y252.708
G0 Z5
G0 X62.871 Y256.919
G1 Z0 F500
G1 X63.455 Y255.836
G1 X63.552 Y255.114
G1 X63.650 Y255.355
G1 X64.136 Y255.235
G1 X65.109 Y253.189
G1 X65.109 Y252.226
G1 X64.526 Y251.023
G1 X65.109 Y252.106
G1 X65.109 Y253.189
G1 X64.234 Y255.114
G1 X64.428 Y255.355
G1 X64.234 Y255.114
G1 X63.552 Y255.355
G0 Z5
G0 X60.049 Y258.724
G1 Z0 F500
G1 X60.341 Y258.243
G1 X60.438 Y257.882
G1 X60.633 Y257.641
G1 X60.827 Y257.040
G1 X61.022 Y256.799
G1 X61.022 Y256.318
G1 X60.925 Y256.197
G1 X60.730 Y256.318
G1 X60.049 Y258.123
G1 X59.854 Y258.363
G1 X59.854 Y258.484
G0 Z5
G0 X54.891 Y261.131
G1 Z0 F500
G1 X53.917 Y260.529
G1 X54.696 Y261.131
G1 X54.891 Y261.011
G1 X54.891 Y260.168
G1 X55.085 Y260.650
G1 X55.572 Y260.048
G1 X55.377 Y258.604
G1 X54.696 Y257.401
G1 X54.015 Y257.280
G1 X53.820 Y257.641
G1 X53.625 Y257.401
G1 X53.333 Y257.521
G1 X53.333 Y257.280
G1 X54.501 Y257.280
G1 X55.182 Y258.002
G1 X55.572 Y260.048
G0 Z5
G0 X56.642 Y261.372
G1 Z0 F500
G1 X58.394 Y260.529
G1 X59.854 Y258.484
G1 X60.827 Y256.077
G1 X61.411 Y252.948
G1 X61.022 Y254.392
G1 X61.217 Y255.475
G1 X60.827 Y255.716
G1 X61.022 Y256.679
G1 X61.314 Y256.679
G1 X60.146 Y258.604
G1 X60.341 Y258.965
G1 X60.146 Y258.724
G1 X59.854 Y259.206
G1 X59.854 Y258.484
G1 X58.491 Y260.529
G0 Z5
G0 X27.737 Y261.613
G1 Z0 F500
G1 X27.251 Y260.770
G1 X27.640 Y261.252
G1 X27.932 Y260.890
G1 X27.737 Y260.529
G1 X27.640 Y260.890
G1 X27.543 Y259.446
G1 X28.127 Y257.641
G1 X28.808 Y257.160
G1 X28.905 Y257.762
G1 X28.224 Y259.326
G1 X27.932 Y259.326
G1 X28.321 Y259.085
G1 X28.905 Y257.641
G1 X28.808 Y257.160
G1 X28.127 Y257.762
G1 X27.543 Y259.567
G1 X27.543 Y260.409
G1 X27.835 Y260.650
G1 X28.029 Y260.048
G1 X27.835 Y260.770
G1 X28.321 Y261.492
G1 X27.835 Y261.131
G0 Z5
G0 X61.022 Y261.974
G1 Z0 F500
G1 X61.411 Y261.492
G1 X61.411 Y261.252
G1 X62.190 Y260.168
G1 X62.676 Y259.206
G1 X63.163 Y258.724
G1 X61.411 Y261.372
G1 X61.314 Y261.733
G0 Z5
G0 X53.431 Y262.335
G1 Z0 F500
G1 X52.555 Y253.309
G1 X49.148 Y246.330
G1 X44.672 Y241.637
G1 X42.238 Y240.674
G1 X39.221 Y240.915
G1 X36.594 Y242.599
G1 X39.221 Y240.915
G1 X42.238 Y240.674
G1 X45.353 Y242.118
G1 X49.246 Y246.330
G1 X52.555 Y253.309
G0 Z5
G0 X52.068 Y264.741
G1 Z0 F500
G1 X52.068 Y264.621
G1 X52.457 Y264.140
G1 X52.457 Y264.019
G1 X52.944 Y263.418
G1 X53.139 Y262.816
G1 X53.139 Y263.057
G1 X53.041 Y263.177
G1 X52.944 Y263.538
G0 Z5
G0 X20.243 Y264.741
G1 Z0 F500
G1 X17.713 Y260.890
G1 X17.518 Y259.446
G1 X17.810 Y258.724
G1 X18.005 Y260.409
G1 X18.978 Y261.974
G1 X18.978 Y260.048
G1 X19.367 Y259.807
G1 X18.978 Y260.048
G1 X19.173 Y261.733
G1 X18.881 Y262.094
G1 X18.102 Y260.890
G1 X17.810 Y259.446
G1 X17.518 Y259.567
G1 X18.394 Y262.094
G0 Z5
G0 X35.426 Y265.463
G1 Z0 F500
G1 X35.426 Y265.704
G1 X35.523 Y265.824
G1 X35.718 Y265.824
G1 X35.815 Y265.704
G1 X35.815 Y265.584
G1 X35.620 Y265.343
G1 X35.523 Y265.343
G0 Z5
G0 X46.521 Y266.065
G1 Z0 F500
G1 X46.715 Y265.824
G1 X46.715 Y265.704
G1 X46.521 Y265.463
G1 X46.423 Y265.463
G1 X46.229 Y265.704
G1 X46.229 Y265.824
G1 X46.326 Y265.945
G1 X46.423 Y265.945
G0 Z5
G0 X35.523 Y265.945
G1 Z0 F500
G1 X35.426 Y265.824
G1 X35.426 Y265.584
G1 X35.328 Y265.463
G1 X35.426 Y265.343
G1 X35.718 Y265.343
G1 X35.815 Y265.463
G1 X35.815 Y265.824
G1 X35.718 Y265.945
G1 X35.620 Y265.824
G0 Z5
G0 X46.326 Y266.065
G1 Z0 F500
G1 X46.229 Y265.945
G1 X46.229 Y265.584
G1 X46.326 Y265.463
G1 X46.618 Y265.463
G1 X46.715 Y265.584
G1 X46.715 Y265.945
G1 X46.618 Y266.065
G1 X46.521 Y266.065
G1 X46.423 Y265.945
G0 Z5
G0 X49.246 Y266.907
G1 Z0 F500
G1 X50.219 Y266.907
G1 X50.414 Y266.787
G1 X50.900 Y265.945
G1 X50.900 Y265.704
G1 X51.776 Y264.621
G1 X51.679 Y264.982
G1 X50.900 Y265.824
G1 X50.900 Y266.065
G1 X50.511 Y266.787
G1 X50.219 Y266.907
G0 Z5
G0 X44.282 Y264.260
G1 Z0 F500
G1 X45.645 Y264.140
G1 X44.282 Y264.380
G1 X45.158 Y265.824
G1 X46.034 Y264.260
G1 X47.299 Y264.621
G1 X47.689 Y265.945
G1 X49.051 Y264.741
G1 X47.591 Y266.065
G1 X47.105 Y264.501
G1 X46.034 Y264.260
G1 X45.450 Y265.945
G1 X46.715 Y266.667
G1 X50.414 Y264.982
G1 X46.910 Y266.667
G1 X44.477 Y265.463
G1 X46.423 Y267.389
G1 X44.769 Y266.185
G0 Z5
G0 X56.740 Y267.990
G1 Z0 F500
G1 X59.367 Y264.140
G1 X58.686 Y264.380
G1 X58.394 Y263.899
G1 X58.783 Y263.658
G1 X58.200 Y263.538
G1 X58.783 Y263.538
G1 X58.783 Y264.380
G1 X59.173 Y263.779
G1 X59.562 Y264.380
G1 X61.217 Y262.214
G1 X59.854 Y264.019
G1 X60.341 Y264.140
G1 X61.898 Y261.492
G1 X60.827 Y263.538
G1 X59.854 Y264.019
G1 X58.005 Y266.907
G1 X59.367 Y264.140
G0 Z5
G0 X36.788 Y265.463
G1 Z0 F500
G1 X36.010 Y266.426
G1 X34.745 Y266.667
G1 X35.036 Y267.389
G1 X35.912 Y266.907
G1 X34.453 Y268.351
G1 X35.036 Y267.389
G1 X33.577 Y266.907
G1 X32.798 Y265.824
G1 X33.869 Y267.028
G1 X34.647 Y267.148
G1 X34.647 Y266.667
G1 X31.825 Y264.982
G1 X34.647 Y266.667
G1 X36.399 Y266.065
G1 X36.496 Y264.741
G1 X35.036 Y264.260
G1 X34.550 Y265.945
G1 X33.187 Y264.621
G1 X34.550 Y265.824
G1 X34.842 Y264.380
G1 X36.010 Y264.140
G0 Z5
G0 X46.715 Y268.833
G1 Z0 F500
G1 X46.618 Y268.592
G1 X46.715 Y268.351
G1 X46.618 Y268.592
G1 X47.105 Y269.073
G1 X47.689 Y269.073
G1 X47.883 Y268.833
G1 X48.175 Y267.870
G1 X48.564 Y267.389
G1 X48.856 Y267.268
G1 X48.175 Y267.990
G1 X47.883 Y268.953
G1 X47.689 Y269.194
G1 X47.591 Y269.073
G1 X47.105 Y269.073
G0 Z5
G0 X36.010 Y268.351
G1 Z0 F500
G1 X36.496 Y268.833
G1 X36.983 Y268.231
G1 X37.080 Y267.750
G1 X37.275 Y267.750
G1 X36.983 Y267.990
G1 X37.080 Y268.472
G1 X37.664 Y267.990
G1 X39.319 Y267.870
G1 X40.487 Y268.111
G1 X39.319 Y267.870
G1 X37.664 Y267.990
G1 X36.594 Y268.712
G1 X36.399 Y269.194
G1 X36.496 Y268.953
G1 X36.204 Y268.833
G0 Z5
G0 X31.825 Y269.314
G1 Z0 F500
G1 X28.905 Y260.650
G1 X33.187 Y244.886
G1 X24.818 Y235.860
G1 X33.187 Y244.525
G1 X32.603 Y235.259
G1 X35.328 Y216.366
G1 X32.409 Y241.276
G1 X33.382 Y246.089
G1 X35.426 Y243.923
G1 X30.949 Y249.940
G1 X29.002 Y259.206
G0 Z5
G0 X40.389 Y270.999
G1 Z0 F500
G1 X40.487 Y269.073
G1 X40.681 Y268.833
G1 X40.584 Y268.592
G1 X40.876 Y268.231
G1 X41.849 Y267.750
G1 X42.433 Y267.990
G1 X42.822 Y267.509
G1 X42.433 Y267.990
G1 X41.849 Y267.750
G1 X40.973 Y268.231
G1 X40.681 Y268.592
G1 X40.389 Y269.675
G0 Z5
G0 X33.382 Y273.165
G1 Z0 F500
G1 X32.798 Y270.277
G1 X32.993 Y270.758
G1 X33.577 Y270.638
G1 X33.771 Y269.916
G1 X33.577 Y270.277
G1 X34.258 Y272.804
G1 X33.771 Y270.758
G1 X33.187 Y270.878
G1 X33.674 Y272.202
G1 X33.577 Y272.563
G1 X33.479 Y271.480
G1 X33.090 Y270.638
G1 X33.285 Y272.443
G1 X33.771 Y273.045
G0 Z5
G0 X36.204 Y274.248
G1 Z0 F500
G1 X36.204 Y273.887
G1 X36.010 Y274.128
G1 X35.912 Y273.887
G1 X36.010 Y271.480
G1 X35.815 Y271.600
G1 X35.718 Y270.277
G1 X36.594 Y269.795
G1 X36.496 Y272.202
G1 X36.399 Y270.878
G1 X36.594 Y270.156
G1 X35.718 Y270.397
G1 X35.718 Y271.119
G1 X35.912 Y271.360
G1 X36.010 Y270.758
G1 X36.204 Y270.999
G1 X35.912 Y272.082
G0 Z5
G0 X42.920 Y274.489
G1 Z0 F500
G1 X43.017 Y274.368
G1 X43.017 Y273.767
G1 X42.920 Y273.646
G1 X42.822 Y273.767
G1 X42.822 Y273.887
G1 X42.725 Y274.007
G1 X42.725 Y274.248
G0 Z5
G0 X53.431 Y275.211
G1 Z0 F500
G1 X54.793 Y272.323
G1 X54.599 Y271.961
G1 X54.307 Y272.443
G1 X54.404 Y272.082
G1 X55.280 Y271.721
G1 X56.448 Y269.194
G1 X59.854 Y265.102
G1 X56.448 Y269.314
G0 Z5
G0 X38.832 Y277.978
G1 Z0 F500
G1 X38.929 Y271.721
G1 X39.416 Y269.073
G1 X38.929 Y268.351
G1 X37.956 Y269.314
G1 X38.735 Y268.231
G1 X39.221 Y268.712
G1 X39.903 Y268.472
G1 X39.221 Y268.712
G1 X39.611 Y269.194
G1 X40.195 Y268.472
G1 X39.611 Y269.314
G1 X39.319 Y269.194
G1 X39.027 Y270.758
G0 Z5
G0 X41.849 Y279.182
G1 Z0 F500
G1 X42.238 Y278.941
G1 X42.141 Y277.016
G1 X42.822 Y275.331
G1 X42.725 Y269.314
G1 X43.698 Y268.111
G1 X43.406 Y268.472
G1 X43.893 Y268.351
G1 X42.725 Y269.434
G1 X42.628 Y273.406
G1 X42.822 Y273.767
G1 X43.017 Y273.045
G1 X43.114 Y273.526
G1 X43.504 Y273.406
G1 X43.017 Y273.646
G1 X42.725 Y275.812
G1 X42.141 Y277.016
G1 X42.238 Y279.061
G0 Z5
G0 X37.859 Y290.734
G1 Z0 F500
G1 X36.399 Y290.012
G1 X33.479 Y286.161
G1 X31.922 Y282.310
G1 X31.630 Y280.144
G1 X32.117 Y282.912
G1 X33.479 Y286.041
G1 X35.523 Y288.568
G1 X35.815 Y288.327
G1 X35.523 Y288.688
G1 X36.496 Y290.012
G0 Z5
G0 X41.849 Y294.344
G1 Z0 F500
G1 X41.946 Y294.103
G1 X41.752 Y293.863
G1 X42.141 Y294.465
G1 X42.822 Y294.465
G1 X43.406 Y294.103
G1 X44.380 Y292.539
G1 X44.672 Y291.456
G1 X44.672 Y290.253
G1 X44.964 Y290.132
G1 X45.353 Y290.373
G1 X45.353 Y290.614
G1 X44.866 Y290.253
G1 X44.672 Y290.493
G1 X44.672 Y291.576
G1 X44.380 Y292.659
G1 X43.406 Y294.103
G1 X42.920 Y294.465
G0 Z5
G0 X37.178 Y295.187
G1 Z0 F500
G1 X34.258 Y293.261
G1 X33.674 Y291.937
G1 X34.355 Y293.261
G0 Z5
G0 X20.146 Y264.982
G1 Z0 F500
G1 X29.197 Y287.485
G1 X35.718 Y295.548
G1 X40.973 Y296.510
G1 X56.156 Y284.597
G1 X65.888 Y253.791
G1 X56.156 Y284.717
G1 X41.071 Y296.510
G1 X35.912 Y295.788
G1 X29.294 Y287.726
G0 Z5
M30