;TOOL_PATH_RENDER_METHOD_LINE
;----------- Start Gcode -----------
M2000;custom:line mode
M888 P0;custom:header is write&draw
;-----------------------------------
G0 Z5
G0 F2000
G1 F2000
G0 X-46.68 Y208.86
G1 Z0
G1 X-46.50 Y205.09
G1 X-45.94 Y201.35
G1 X-45.03 Y197.69
G1 X-43.75 Y194.13
G1 X-42.14 Y190.72
G1 X-40.20 Y187.48
G1 X-37.95 Y184.45
G1 X-35.41 Y181.65
G1 X-32.61 Y179.11
G1 X-29.58 Y176.86
G1 X-26.34 Y174.92
G1 X-22.93 Y173.31
G1 X-19.37 Y172.03
G1 X-15.71 Y171.12
G1 X-11.97 Y170.56
G1 X-8.20 Y170.38
G1 X-4.43 Y170.56
G1 X-0.69 Y171.12
G1 X2.97 Y172.03
G1 X6.53 Y173.31
G1 X9.94 Y174.92
G1 X13.18 Y176.86
G1 X16.21 Y179.11
G1 X19.01 Y181.65
G1 X21.55 Y184.45
G1 X23.80 Y187.48
G1 X25.74 Y190.72
G1 X27.35 Y194.13
G1 X28.63 Y197.69
G1 X29.54 Y201.35
G1 X30.10 Y205.09
G1 X30.28 Y208.86
G1 X30.10 Y212.63
G1 X29.54 Y216.37
G1 X28.63 Y220.03
G1 X27.35 Y223.59
G1 X25.74 Y227.00
G1 X23.80 Y230.24
G1 X21.55 Y233.27
G1 X19.01 Y236.07
G1 X16.21 Y238.61
G1 X13.18 Y240.86
G1 X9.94 Y242.80
G1 X6.53 Y244.41
G1 X2.97 Y245.69
G1 X-0.69 Y246.60
G1 X-4.43 Y247.16
G1 X-8.20 Y247.34
G1 X-11.97 Y247.16
G1 X-15.71 Y246.60
G1 X-19.37 Y245.69
G1 X-22.93 Y244.41
G1 X-26.34 Y242.80
G1 X-29.58 Y240.86
G1 X-32.61 Y238.61
G1 X-35.41 Y236.07
G1 X-37.95 Y233.27
G1 X-40.20 Y230.24
G1 X-42.14 Y227.00
G1 X-43.75 Y223.59
G1 X-45.03 Y220.03
G1 X-45.94 Y216.37
G1 X-46.50 Y212.63
G1 X-46.68 Y208.86
G1 X-46.68 Y208.86
G0 Z5
G0 X-19.27 Y192.52
G1 Z0
G1 X-19.02 Y191.95
G1 X-18.33 Y190.83
G1 X-17.40 Y189.76
G1 X-16.24 Y188.79
G1 X-14.85 Y187.93
G1 X-13.23 Y187.24
G1 X-11.39 Y186.74
G1 X-9.32 Y186.48
G1 X-8.20 Y186.44
G1 X-7.08 Y186.48
G1 X-5.01 Y186.74
G1 X-3.17 Y187.24
G1 X-1.55 Y187.93
G1 X-0.16 Y188.79
G1 X1.00 Y189.76
G1 X1.93 Y190.83
G1 X2.62 Y191.95
G1 X2.87 Y192.52
G0 Z5
G0 X-21.38 Y209.30
G1 Z0
G1 X-21.42 Y208.69
G1 X-21.66 Y207.58
G1 X-22.12 Y206.62
G1 X-22.77 Y205.81
G1 X-23.60 Y205.15
G1 X-24.57 Y204.66
G1 X-25.66 Y204.32
G1 X-26.85 Y204.15
G1 X-27.47 Y204.13
G1 X-28.09 Y204.15
G1 X-29.28 Y204.32
G1 X-30.37 Y204.66
G1 X-31.34 Y205.15
G1 X-32.16 Y205.81
G1 X-32.82 Y206.62
G1 X-33.28 Y207.58
G1 X-33.52 Y208.69
G1 X-33.55 Y209.30
G1 X-33.43 Y210.49
G1 X-33.09 Y211.63
G1 X-32.53 Y212.68
G1 X-31.77 Y213.61
G1 X-30.85 Y214.36
G1 X-29.80 Y214.92
G1 X-28.65 Y215.27
G1 X-27.47 Y215.39
G1 X-26.28 Y215.27
G1 X-25.14 Y214.92
G1 X-24.09 Y214.36
G1 X-23.17 Y213.61
G1 X-22.41 Y212.68
G1 X-21.85 Y211.63
G1 X-21.50 Y210.49
G1 X-21.38 Y209.30
G1 X-21.38 Y209.30
G0 Z5
G0 X17.15 Y209.30
G1 Z0
G1 X17.12 Y208.69
G1 X16.88 Y207.58
G1 X16.42 Y206.62
G1 X15.76 Y205.81
G1 X14.94 Y205.15
G1 X13.97 Y204.66
G1 X12.88 Y204.32
G1 X11.69 Y204.15
G1 X11.07 Y204.13
G1 X10.45 Y204.15
G1 X9.26 Y204.32
G1 X8.17 Y204.66
G1 X7.20 Y205.15
G1 X6.37 Y205.81
G1 X5.72 Y206.62
G1 X5.26 Y207.58
G1 X5.02 Y208.69
G1 X4.98 Y209.30
G1 X5.10 Y210.49
G1 X5.45 Y211.63
G1 X6.01 Y212.68
G1 X6.77 Y213.61
G1 X7.69 Y214.36
G1 X8.74 Y214.92
G1 X9.88 Y215.27
G1 X11.07 Y215.39
G1 X12.25 Y215.27
G1 X13.40 Y214.92
G1 X14.45 Y214.36
G1 X15.37 Y213.61
G1 X16.13 Y212.68
G1 X16.69 Y211.63
G1 X17.03 Y210.49
G1 X17.15 Y209.30
G1 X17.15 Y209.30
G0 Z5
G0 X-8.20 Y208.86
;----------- End Gcode -------------
;-----------------------------------
