G21
G90
G17
G0 Z-5.00

G0 X-26.83 Y307.77
G1 X-26.83 Y307.77 Z-5.00 F3000.00
G1 X-26.01 Y306.93 Z-5.77
G1 X-25.66 Y306.52 Z-6.10
G1 X-25.25 Y305.97 Z-6.51
G1 X-24.93 Y305.43 Z-6.85
G1 X-24.67 Y304.86 Z-7.14
G1 X-24.50 Y304.28 Z-7.39
G1 X-24.39 Y303.68 Z-7.60
G1 X-24.34 Y303.08 Z-7.77
G1 X-24.34 Y302.48 Z-7.92
G1 X-24.37 Y301.87 Z-8.06
G1 X-24.44 Y301.24 Z-7.91
G1 X-24.53 Y300.61 Z-7.78
G1 X-24.62 Y299.95 Z-7.65
G1 X-24.73 Y299.28 Z-7.52
G1 X-24.85 Y298.59 Z-7.41
G1 X-24.98 Y297.88 Z-7.29
G1 X-25.11 Y297.16 Z-7.17
G1 X-25.24 Y296.43 Z-7.06
G1 X-25.38 Y295.70 Z-6.96
G1 X-25.52 Y294.95 Z-6.85
G1 X-25.66 Y294.21 Z-6.76
G1 X-25.81 Y293.47 Z-6.66
G1 X-25.95 Y292.73 Z-6.58
G1 X-26.10 Y292.00 Z-6.50
G1 X-26.25 Y291.28 Z-6.42
G1 X-26.40 Y290.56 Z-6.36
G1 X-26.56 Y289.84 Z-6.30
G1 X-26.71 Y289.13 Z-6.24
G1 X-26.87 Y288.42 Z-6.20
G1 X-27.04 Y287.71 Z-6.15
G1 X-27.21 Y286.99 Z-6.12
G1 X-27.39 Y286.27 Z-6.09
G1 X-27.57 Y285.54 Z-6.07
G1 X-27.76 Y284.81 Z-6.05
G1 X-27.96 Y284.07 Z-6.05
G1 X-28.16 Y283.33 Z-6.04
G1 X-28.36 Y282.60 Z-6.05
G1 X-28.56 Y281.87 Z-6.06
G1 X-28.76 Y281.15 Z-6.08
G1 X-28.96 Y280.44 Z-6.10
G1 X-29.15 Y279.74 Z-6.13
G1 X-29.34 Y279.07 Z-6.17
G1 X-29.52 Y278.41 Z-6.22
G1 X-29.68 Y277.77 Z-6.27
G1 X-29.83 Y277.16 Z-6.33
G1 X-29.95 Y276.56 Z-6.40
G1 X-30.03 Y275.99 Z-6.49
G1 X-30.07 Y275.43 Z-6.59
G1 X-30.04 Y274.89 Z-6.71
G1 X-29.93 Y274.38 Z-6.83
G1 X-29.74 Y273.88 Z-6.95
G1 X-29.46 Y273.40 Z-7.06
G1 X-29.09 Y272.95 Z-7.15
G1 X-28.64 Y272.52 Z-7.24
G1 X-28.12 Y272.11 Z-7.32
G1 X-27.55 Y271.71 Z-7.39
G1 X-26.94 Y271.32 Z-7.48
G1 X-26.30 Y270.93 Z-7.57
G1 X-25.64 Y270.55 Z-7.67
G1 X-24.98 Y270.16 Z-7.79
G1 X-24.32 Y269.77 Z-7.92
G1 X-23.68 Y269.38 Z-8.05
G1 X-23.05 Y268.97 Z-8.19
G1 X-22.45 Y268.55 Z-8.34
G1 X-21.88 Y268.12 Z-8.48
G1 X-21.34 Y267.66 Z-8.62
G1 X-20.86 Y267.19 Z-8.76
G1 X-20.42 Y266.69 Z-8.90
G1 X-20.03 Y266.19 Z-9.04
G1 X-19.67 Y265.65 Z-9.18
G1 X-19.41 Y265.23 Z-9.28
G1 X-18.91 Y264.33 Z-9.50
G1 X-19.41 Y265.23 Z-9.04
G1 X-19.67 Y265.65 Z-8.82
G1 X-20.03 Y266.19 Z-8.53
G1 X-20.42 Y266.69 Z-8.25
G1 X-20.86 Y267.19 Z-7.95
G1 X-21.34 Y267.66 Z-7.65
G1 X-21.88 Y268.12 Z-7.34
G1 X-22.45 Y268.55 Z-7.02
G1 X-23.05 Y268.97 Z-6.69
G1 X-23.68 Y269.38 Z-6.36
G1 X-24.32 Y269.77 Z-6.02
G1 X-24.98 Y270.16 Z-5.68
G1 X-25.64 Y270.55 Z-5.34
G1 X-26.30 Y270.93 Z-5.00
G0 Z-5.00
G0 Z25.00

G0 X-21.11 Y289.41
G1 X-21.11 Y289.41 Z-5.00 F3000.00
G1 X-20.46 Y288.81 Z-5.62
G1 X-20.18 Y288.51 Z-5.88
G1 X-19.85 Y288.08 Z-6.20
G1 X-19.58 Y287.63 Z-6.47
G1 X-19.37 Y287.12 Z-6.72
G1 X-19.22 Y286.58 Z-6.95
G1 X-19.13 Y286.00 Z-7.16
G1 X-19.10 Y285.39 Z-7.34
G1 X-19.12 Y284.76 Z-7.51
G1 X-19.19 Y284.10 Z-7.65
G1 X-19.29 Y283.42 Z-7.48
G1 X-19.41 Y282.73 Z-7.32
G1 X-19.55 Y282.03 Z-7.16
G1 X-19.70 Y281.32 Z-7.01
G1 X-19.86 Y280.61 Z-6.87
G1 X-20.03 Y279.91 Z-6.74
G1 X-20.20 Y279.21 Z-6.61
G1 X-20.38 Y278.51 Z-6.51
G1 X-20.57 Y277.82 Z-6.41
G1 X-20.76 Y277.14 Z-6.32
G1 X-20.97 Y276.45 Z-6.25
G1 X-21.18 Y275.78 Z-6.19
G1 X-21.41 Y275.11 Z-6.14
G1 X-21.64 Y274.45 Z-6.11
G1 X-21.89 Y273.81 Z-6.08
G1 X-22.15 Y273.17 Z-6.07
G1 X-22.42 Y272.55 Z-6.07
G1 X-22.71 Y271.93 Z-6.09
G1 X-23.01 Y271.32 Z-6.11
G1 X-23.34 Y270.71 Z-6.15
G1 X-23.69 Y270.11 Z-6.21
G1 X-24.06 Y269.51 Z-6.27
G1 X-24.47 Y268.91 Z-6.35
G1 X-24.89 Y268.32 Z-6.44
G1 X-25.35 Y267.75 Z-6.55
G1 X-25.83 Y267.19 Z-6.67
G1 X-26.33 Y266.65 Z-6.79
G1 X-26.84 Y266.13 Z-6.93
G1 X-27.37 Y265.62 Z-7.08
G1 X-27.91 Y265.14 Z-7.23
G1 X-28.45 Y264.67 Z-7.39
G1 X-29.01 Y264.21 Z-7.57
G1 X-29.57 Y263.77 Z-7.75
G1 X-30.14 Y263.34 Z-7.94
G1 X-30.72 Y262.93 Z-8.15
G1 X-31.31 Y262.54 Z-8.36
G1 X-31.89 Y262.16 Z-8.59
G1 X-32.46 Y261.81 Z-8.83
G1 X-33.01 Y261.49 Z-9.08
G1 X-33.58 Y261.17 Z-9.34
G1 X-34.00 Y260.94 Z-9.55
G1 X-34.88 Y260.47 Z-10.00
G1 X-34.00 Y260.94 Z-9.36
G1 X-33.58 Y261.17 Z-9.04
G1 X-33.01 Y261.49 Z-8.62
G1 X-32.46 Y261.81 Z-8.21
G1 X-31.89 Y262.16 Z-7.77
G1 X-31.31 Y262.54 Z-7.32
G1 X-30.72 Y262.93 Z-6.86
G1 X-30.14 Y263.34 Z-6.40
G1 X-29.57 Y263.77 Z-5.93
G1 X-29.01 Y264.21 Z-5.47
G1 X-28.45 Y264.67 Z-5.00
G0 Z-5.00
G0 Z25.00

G0 X-40.00 Y282.62
G1 X-40.00 Y282.62 Z-5.00 F3000.00
G1 X-39.14 Y282.28 Z-5.56
G1 X-38.71 Y282.14 Z-5.77
G1 X-38.12 Y281.99 Z-6.02
G1 X-37.53 Y281.89 Z-6.21
G1 X-36.90 Y281.83 Z-6.36
G1 X-36.24 Y281.82 Z-6.47
G1 X-35.57 Y281.86 Z-6.54
G1 X-34.89 Y281.94 Z-6.58
G1 X-34.20 Y282.06 Z-6.60
G1 X-33.50 Y282.21 Z-6.61
G1 X-32.79 Y282.38 Z-6.47
G1 X-32.06 Y282.57 Z-6.37
G1 X-31.32 Y282.78 Z-6.32
G1 X-30.57 Y282.99 Z-6.31
G1 X-29.82 Y283.22 Z-6.34
G1 X-29.06 Y283.45 Z-6.42
G1 X-28.30 Y283.68 Z-6.55
G1 X-27.55 Y283.91 Z-6.71
G1 X-26.82 Y284.13 Z-6.91
G1 X-26.12 Y284.36 Z-7.14
G1 X-25.44 Y284.59 Z-7.39
G1 X-24.80 Y284.81 Z-7.65
G1 X-24.19 Y285.03 Z-7.93
G1 X-23.62 Y285.26 Z-8.21
G1 X-23.10 Y285.49 Z-8.49
G1 X-22.59 Y285.75 Z-8.79
G1 X-22.21 Y285.96 Z-9.01
G1 X-21.44 Y286.41 Z-9.50
G1 X-22.21 Y285.96 Z-8.71
G1 X-22.59 Y285.75 Z-8.34
G1 X-23.10 Y285.49 Z-7.83
G1 X-23.62 Y285.26 Z-7.33
G1 X-24.19 Y285.03 Z-6.79
G1 X-24.80 Y284.81 Z-6.22
G1 X-25.44 Y284.59 Z-5.63
G1 X-26.12 Y284.36 Z-5.00
G0 Z-5.00
G0 Z25.00

G0 X-8.87 Y301.18
G1 X-8.87 Y301.18 Z-5.00 F3000.00
G1 X-7.94 Y300.70 Z-5.71
G1 X-7.52 Y300.45 Z-6.01
G1 X-7.01 Y300.10 Z-6.36
G1 X-6.58 Y299.72 Z-6.66
G1 X-6.19 Y299.29 Z-6.94
G1 X-5.87 Y298.81 Z-7.18
G1 X-5.61 Y298.29 Z-7.40
G1 X-5.41 Y297.74 Z-7.61
G1 X-5.26 Y297.16 Z-7.80
G1 X-5.16 Y296.55 Z-7.97
G1 X-5.10 Y295.91 Z-7.84
G1 X-5.06 Y295.25 Z-7.72
G1 X-5.04 Y294.57 Z-7.60
G1 X-5.03 Y293.88 Z-7.50
G1 X-5.03 Y293.16 Z-7.41
G1 X-5.04 Y292.44 Z-7.34
G1 X-5.06 Y291.71 Z-7.29
G1 X-5.08 Y290.98 Z-7.24
G1 X-5.10 Y290.24 Z-7.20
G1 X-5.14 Y289.51 Z-7.14
G1 X-5.17 Y288.77 Z-7.06
G1 X-5.21 Y288.04 Z-6.95
G1 X-5.26 Y287.31 Z-6.82
G1 X-5.31 Y286.57 Z-6.68
G1 X-5.36 Y285.83 Z-6.54
G1 X-5.42 Y285.09 Z-6.41
G1 X-5.49 Y284.35 Z-6.30
G1 X-5.55 Y283.62 Z-6.22
G1 X-5.62 Y282.89 Z-6.15
G1 X-5.70 Y282.16 Z-6.10
G1 X-5.77 Y281.45 Z-6.07
G1 X-5.85 Y280.75 Z-6.05
G1 X-5.93 Y280.06 Z-6.05
G1 X-6.02 Y279.37 Z-6.05
G1 X-6.11 Y278.70 Z-6.05
G1 X-6.21 Y278.03 Z-6.07
G1 X-6.32 Y277.36 Z-6.09
G1 X-6.44 Y276.69 Z-6.12
G1 X-6.58 Y276.03 Z-6.16
G1 X-6.73 Y275.38 Z-6.20
G1 X-6.89 Y274.74 Z-6.25
G1 X-7.07 Y274.10 Z-6.31
G1 X-7.27 Y273.47 Z-6.37
G1 X-7.48 Y272.85 Z-6.44
G1 X-7.71 Y272.22 Z-6.51
G1 X-7.96 Y271.60 Z-6.59
G1 X-8.22 Y270.97 Z-6.68
G1 X-8.50 Y270.34 Z-6.78
G1 X-8.80 Y269.71 Z-6.88
G1 X-9.12 Y269.08 Z-6.99
G1 X-9.45 Y268.46 Z-7.10
G1 X-9.81 Y267.84 Z-7.23
G1 X-10.19 Y267.23 Z-7.35
G1 X-10.59 Y266.62 Z-7.49
G1 X-11.01 Y266.03 Z-7.62
G1 X-11.45 Y265.45 Z-7.77
G1 X-11.90 Y264.88 Z-7.92
G1 X-12.38 Y264.32 Z-8.07
G1 X-12.86 Y263.78 Z-8.24
G1 X-13.37 Y263.25 Z-8.41
G1 X-13.88 Y262.74 Z-8.59
G1 X-14.39 Y262.25 Z-8.78
G1 X-14.91 Y261.79 Z-8.99
G1 X-15.41 Y261.36 Z-9.20
G1 X-15.93 Y260.94 Z-9.43
G1 X-16.31 Y260.63 Z-9.61
G1 X-17.12 Y260.01 Z-10.00
G1 X-16.31 Y260.63 Z-9.45
G1 X-15.93 Y260.94 Z-9.19
G1 X-15.41 Y261.36 Z-8.83
G1 X-14.91 Y261.79 Z-8.48
G1 X-14.39 Y262.25 Z-8.11
G1 X-13.88 Y262.74 Z-7.73
G1 X-13.37 Y263.25 Z-7.34
G1 X-12.86 Y263.78 Z-6.95
G1 X-12.38 Y264.32 Z-6.56
G1 X-11.90 Y264.88 Z-6.17
G1 X-11.45 Y265.45 Z-5.78
G1 X-11.01 Y266.03 Z-5.39
G1 X-10.59 Y266.62 Z-5.00
G0 Z-5.00
G0 Z25.00

G0 X-14.19 Y290.74
G1 X-14.19 Y290.74 Z-5.00 F3000.00
G1 X-13.46 Y290.02 Z-5.37
G1 X-13.12 Y289.68 Z-5.65
G1 X-12.67 Y289.22 Z-6.07
G1 X-12.26 Y288.77 Z-6.43
G1 X-11.85 Y288.31 Z-6.70
G1 X-11.43 Y287.82 Z-6.78
G1 X-11.11 Y287.44 Z-6.70
G1 X-10.47 Y286.61 Z-6.00
G0 Z-5.00
G0 Z25.00

G0 X-16.72 Y275.17
G1 X-16.72 Y275.17 Z-5.00 F3000.00
G1 X-15.75 Y275.30 Z-5.27
G1 X-15.29 Y275.38 Z-5.49
G1 X-14.67 Y275.53 Z-5.86
G1 X-14.09 Y275.72 Z-6.28
G1 X-13.49 Y275.96 Z-6.77
G1 X-12.89 Y276.26 Z-7.29
G1 X-12.29 Y276.60 Z-7.82
G1 X-11.70 Y276.99 Z-8.31
G1 X-11.13 Y277.41 Z-8.73
G1 X-10.58 Y277.85 Z-9.02
G1 X-10.05 Y278.31 Z-8.78
G1 X-9.56 Y278.79 Z-8.44
G1 X-9.10 Y279.26 Z-8.02
G1 X-8.65 Y279.77 Z-7.48
G1 X-8.33 Y280.17 Z-7.04
G1 X-7.67 Y281.03 Z-6.00
G0 Z-5.00
G0 Z25.00

G0 X-0.02 Y309.03
G1 X-0.02 Y309.03 Z-5.00 F3000.00
G1 X0.89 Y308.41 Z-5.77
G1 X1.29 Y308.09 Z-6.11
G1 X1.78 Y307.66 Z-6.55
G1 X2.19 Y307.22 Z-6.93
G1 X2.55 Y306.73 Z-7.29
G1 X2.84 Y306.22 Z-7.60
G1 X3.05 Y305.67 Z-7.89
G1 X3.19 Y305.11 Z-8.14
G1 X3.27 Y304.53 Z-8.36
G1 X3.29 Y303.93 Z-8.57
G1 X3.28 Y303.32 Z-8.45
G1 X3.24 Y302.69 Z-8.33
G1 X3.18 Y302.04 Z-8.22
G1 X3.11 Y301.37 Z-8.12
G1 X3.03 Y300.69 Z-8.02
G1 X2.94 Y299.98 Z-7.93
G1 X2.85 Y299.26 Z-7.83
G1 X2.76 Y298.52 Z-7.74
G1 X2.67 Y297.77 Z-7.65
G1 X2.58 Y297.02 Z-7.55
G1 X2.50 Y296.26 Z-7.46
G1 X2.42 Y295.50 Z-7.38
G1 X2.34 Y294.75 Z-7.29
G1 X2.27 Y294.01 Z-7.21
G1 X2.21 Y293.27 Z-7.13
G1 X2.15 Y292.54 Z-7.05
G1 X2.10 Y291.83 Z-6.98
G1 X2.06 Y291.12 Z-6.91
G1 X2.02 Y290.42 Z-6.84
G1 X1.98 Y289.71 Z-6.78
G1 X1.95 Y289.01 Z-6.71
G1 X1.92 Y288.30 Z-6.65
G1 X1.89 Y287.58 Z-6.59
G1 X1.87 Y286.87 Z-6.54
G1 X1.85 Y286.15 Z-6.49
G1 X1.83 Y285.42 Z-6.43
G1 X1.81 Y284.70 Z-6.39
G1 X1.79 Y283.98 Z-6.34
G1 X1.77 Y283.26 Z-6.30
G1 X1.76 Y282.55 Z-6.26
G1 X1.75 Y281.85 Z-6.22
G1 X1.74 Y281.16 Z-6.19
G1 X1.73 Y280.47 Z-6.16
G1 X1.72 Y279.80 Z-6.13
G1 X1.72 Y279.13 Z-6.11
G1 X1.72 Y278.47 Z-6.09
G1 X1.72 Y277.80 Z-6.07
G1 X1.72 Y277.12 Z-6.05
G1 X1.73 Y276.44 Z-6.04
G1 X1.74 Y275.73 Z-6.03
G1 X1.75 Y275.02 Z-6.03
G1 X1.77 Y274.29 Z-6.02
G1 X1.80 Y273.57 Z-6.03
G1 X1.83 Y272.84 Z-6.04
G1 X1.86 Y272.13 Z-6.06
G1 X1.91 Y271.44 Z-6.09
G1 X1.96 Y270.77 Z-6.14
G1 X2.01 Y270.11 Z-6.21
G1 X2.08 Y269.47 Z-6.30
G1 X2.16 Y268.83 Z-6.40
G1 X2.26 Y268.20 Z-6.50
G1 X2.38 Y267.56 Z-6.59
G1 X2.52 Y266.92 Z-6.68
G1 X2.69 Y266.28 Z-6.74
G1 X2.89 Y265.64 Z-6.80
G1 X3.13 Y265.01 Z-6.84
G1 X3.40 Y264.40 Z-6.87
G1 X3.73 Y263.82 Z-6.89
G1 X4.10 Y263.26 Z-6.89
G1 X4.51 Y262.75 Z-6.88
G1 X4.97 Y262.28 Z-6.85
G1 X5.47 Y261.86 Z-6.82
G1 X6.01 Y261.48 Z-6.80
G1 X6.58 Y261.15 Z-6.78
G1 X7.18 Y260.87 Z-6.78
G1 X7.81 Y260.64 Z-6.80
G1 X8.46 Y260.44 Z-6.83
G1 X9.12 Y260.29 Z-6.88
G1 X9.80 Y260.17 Z-6.94
G1 X10.50 Y260.08 Z-7.01
G1 X11.20 Y260.03 Z-7.08
G1 X11.91 Y260.00 Z-7.17
G1 X12.63 Y260.00 Z-7.26
G1 X13.35 Y260.04 Z-7.36
G1 X14.06 Y260.11 Z-7.48
G1 X14.76 Y260.21 Z-7.61
G1 X15.44 Y260.36 Z-7.75
G1 X16.09 Y260.56 Z-7.90
G1 X16.68 Y260.82 Z-8.04
G1 X17.22 Y261.13 Z-8.17
G1 X17.69 Y261.51 Z-8.27
G1 X18.10 Y261.95 Z-8.35
G1 X18.43 Y262.45 Z-8.41
G1 X18.70 Y263.02 Z-8.46
G1 X18.91 Y263.63 Z-8.50
G1 X19.08 Y264.30 Z-8.54
G1 X19.22 Y264.99 Z-8.60
G1 X19.34 Y265.71 Z-8.68
G1 X19.44 Y266.44 Z-8.77
G1 X19.52 Y267.17 Z-8.88
G1 X19.60 Y267.89 Z-9.00
G1 X19.68 Y268.59 Z-9.13
G1 X19.75 Y269.25 Z-9.27
G1 X19.81 Y269.85 Z-9.41
G1 X19.87 Y270.46 Z-9.58
G1 X19.91 Y270.89 Z-9.71
G1 X20.00 Y271.78 Z-10.00
G0 Z-5.00
G0 Z25.00

G0 X10.49 Y296.86
G1 X10.49 Y296.86 Z-5.00 F3000.00
G1 X10.87 Y296.01 Z-5.54
G1 X10.99 Y295.60 Z-5.71
G1 X11.09 Y295.05 Z-5.89
G1 X11.09 Y294.50 Z-6.00
G1 X10.99 Y293.91 Z-6.08
G1 X10.80 Y293.31 Z-6.17
G1 X10.54 Y292.69 Z-6.28
G1 X10.21 Y292.06 Z-6.46
G1 X9.84 Y291.42 Z-6.74
G1 X9.45 Y290.80 Z-7.15
G1 X9.05 Y290.19 Z-7.44
G1 X8.66 Y289.61 Z-7.82
G1 X8.29 Y289.07 Z-8.24
G1 X7.92 Y288.53 Z-8.74
G1 X7.65 Y288.14 Z-9.13
G1 X7.10 Y287.34 Z-10.00
G1 X7.65 Y288.14 Z-9.14
G1 X7.92 Y288.53 Z-8.72
G1 X8.29 Y289.07 Z-8.14
G1 X8.66 Y289.61 Z-7.56
G1 X9.05 Y290.19 Z-6.94
G1 X9.45 Y290.80 Z-6.30
G1 X9.84 Y291.42 Z-5.65
G1 X10.21 Y292.06 Z-5.00
G0 Z-5.00
G0 Z25.00

G0 X3.57 Y282.56
G1 X3.57 Y282.56 Z-5.00 F3000.00
G1 X4.35 Y282.15 Z-5.22
G1 X4.74 Y281.94 Z-5.40
G1 X5.27 Y281.67 Z-5.70
G1 X5.81 Y281.39 Z-6.07
G1 X6.39 Y281.08 Z-6.53
G1 X6.99 Y280.76 Z-7.06
G1 X7.62 Y280.43 Z-7.64
G1 X8.26 Y280.08 Z-8.25
G1 X8.91 Y279.72 Z-8.84
G1 X9.55 Y279.36 Z-9.37
G1 X10.17 Y278.98 Z-9.34
G1 X10.79 Y278.59 Z-9.22
G1 X11.38 Y278.17 Z-9.00
G1 X11.95 Y277.73 Z-8.70
G1 X12.50 Y277.26 Z-8.32
G1 X13.01 Y276.77 Z-7.88
G1 X13.52 Y276.22 Z-7.36
G1 X13.90 Y275.79 Z-6.95
G1 X14.68 Y274.84 Z-6.00
G0 Z-5.00
G0 Z25.00

G0 X37.97 Y315.51
G1 X37.97 Y315.51 Z-5.00 F3000.00
G1 X38.43 Y314.61 Z-5.25
G1 X38.60 Y314.19 Z-5.42
G1 X38.80 Y313.62 Z-5.71
G1 X38.91 Y313.07 Z-6.03
G1 X38.94 Y312.50 Z-6.42
G1 X38.89 Y311.93 Z-6.87
G1 X38.75 Y311.34 Z-7.39
G1 X38.53 Y310.75 Z-7.97
G1 X38.24 Y310.15 Z-8.60
G1 X37.89 Y309.56 Z-9.27
G1 X37.50 Y308.97 Z-9.46
G1 X37.08 Y308.39 Z-9.62
G1 X36.64 Y307.82 Z-9.73
G1 X36.19 Y307.25 Z-9.79
G1 X35.72 Y306.68 Z-9.82
G1 X35.24 Y306.11 Z-9.81
G1 X34.76 Y305.55 Z-9.77
G1 X34.26 Y304.98 Z-9.71
G1 X33.77 Y304.42 Z-9.62
G1 X33.27 Y303.87 Z-9.51
G1 X32.76 Y303.32 Z-9.39
G1 X32.26 Y302.78 Z-9.25
G1 X31.75 Y302.25 Z-9.09
G1 X31.24 Y301.74 Z-8.92
G1 X30.73 Y301.24 Z-8.73
G1 X30.21 Y300.77 Z-8.54
G1 X29.70 Y300.32 Z-8.36
G1 X29.19 Y299.90 Z-8.23
G1 X28.71 Y299.52 Z-8.16
G1 X28.22 Y299.15 Z-8.18
G1 X27.86 Y298.89 Z-8.24
G1 X27.12 Y298.36 Z-8.50
G0 Z-5.00
G0 Z25.00

G0 X36.18 Y300.44
G1 X36.18 Y300.44 Z-5.00 F3000.00
G1 X36.65 Y299.29 Z-5.25
G1 X36.82 Y298.75 Z-5.42
G1 X37.01 Y298.03 Z-5.69
G1 X37.09 Y297.34 Z-6.01
G1 X37.09 Y296.63 Z-6.37
G1 X37.00 Y295.94 Z-6.78
G1 X36.83 Y295.26 Z-7.23
G1 X36.58 Y294.60 Z-7.72
G1 X36.29 Y293.95 Z-8.23
G1 X35.95 Y293.33 Z-8.77
G1 X35.59 Y292.71 Z-8.96
G1 X35.21 Y292.10 Z-9.12
G1 X34.81 Y291.48 Z-9.28
G1 X34.40 Y290.86 Z-9.41
G1 X33.97 Y290.23 Z-9.53
G1 X33.54 Y289.59 Z-9.64
G1 X33.10 Y288.95 Z-9.72
G1 X32.65 Y288.31 Z-9.79
G1 X32.19 Y287.67 Z-9.84
G1 X31.72 Y287.04 Z-9.86
G1 X31.25 Y286.41 Z-9.87
G1 X30.78 Y285.80 Z-9.85
G1 X30.29 Y285.19 Z-9.81
G1 X29.80 Y284.58 Z-9.75
G1 X29.29 Y283.98 Z-9.66
G1 X28.78 Y283.39 Z-9.56
G1 X28.26 Y282.81 Z-9.44
G1 X27.73 Y282.23 Z-9.30
G1 X27.20 Y281.66 Z-9.14
G1 X26.67 Y281.10 Z-8.97
G1 X26.15 Y280.55 Z-8.79
G1 X25.62 Y280.02 Z-8.61
G1 X25.11 Y279.49 Z-8.42
G1 X24.59 Y278.98 Z-8.23
G1 X24.08 Y278.48 Z-8.03
G1 X23.57 Y277.99 Z-7.83
G1 X23.06 Y277.52 Z-7.61
G1 X22.55 Y277.06 Z-7.39
G1 X22.06 Y276.62 Z-7.15
G1 X21.58 Y276.21 Z-6.91
G1 X21.10 Y275.81 Z-6.64
G1 X20.74 Y275.52 Z-6.44
G1 X20.00 Y274.93 Z-6.00
G0 Z-5.00
G0 Z25.00

G0 X33.69 Y286.47
G1 X33.69 Y286.47 Z-5.00 F3000.00
G1 X33.94 Y285.41 Z-5.62
G1 X34.06 Y284.90 Z-5.86
G1 X34.21 Y284.22 Z-6.14
G1 X34.34 Y283.57 Z-6.37
G1 X34.47 Y282.89 Z-6.55
G1 X34.57 Y282.21 Z-6.70
G1 X34.65 Y281.51 Z-6.80
G1 X34.70 Y280.80 Z-6.88
G1 X34.73 Y280.08 Z-6.92
G1 X34.73 Y279.34 Z-6.95
G1 X34.72 Y278.60 Z-6.77
G1 X34.70 Y277.84 Z-6.61
G1 X34.67 Y277.07 Z-6.48
G1 X34.63 Y276.29 Z-6.36
G1 X34.58 Y275.51 Z-6.28
G1 X34.54 Y274.74 Z-6.21
G1 X34.49 Y273.96 Z-6.17
G1 X34.43 Y273.20 Z-6.16
G1 X34.37 Y272.44 Z-6.18
G1 X34.31 Y271.69 Z-6.22
G1 X34.24 Y270.94 Z-6.29
G1 X34.16 Y270.20 Z-6.38
G1 X34.08 Y269.47 Z-6.50
G1 X33.99 Y268.74 Z-6.63
G1 X33.91 Y268.02 Z-6.79
G1 X33.83 Y267.31 Z-6.96
G1 X33.77 Y266.60 Z-7.15
G1 X33.71 Y265.89 Z-7.36
G1 X33.67 Y265.17 Z-7.58
G1 X33.65 Y264.45 Z-7.83
G1 X33.65 Y263.73 Z-8.08
G1 X33.67 Y263.02 Z-8.34
G1 X33.70 Y262.33 Z-8.59
G1 X33.75 Y261.63 Z-8.86
G1 X33.79 Y261.10 Z-9.07
G1 X33.89 Y260.00 Z-9.50
G1 X33.79 Y261.10 Z-8.66
G1 X33.75 Y261.63 Z-8.25
G1 X33.70 Y262.33 Z-7.71
G1 X33.67 Y263.02 Z-7.19
G1 X33.65 Y263.73 Z-6.64
G1 X33.65 Y264.45 Z-6.10
G1 X33.67 Y265.17 Z-5.55
G1 X33.71 Y265.89 Z-5.00
G0 Z-5.00
G0 Z25.00

G0 X48.55 Y305.62
G1 X48.55 Y305.62 Z-5.00 F3000.00
G1 X49.58 Y305.54 Z-5.57
G1 X50.09 Y305.50 Z-5.79
G1 X50.77 Y305.46 Z-6.04
G1 X51.44 Y305.43 Z-6.24
G1 X52.16 Y305.42 Z-6.40
G1 X52.89 Y305.42 Z-6.51
G1 X53.63 Y305.44 Z-6.57
G1 X54.38 Y305.49 Z-6.61
G1 X55.13 Y305.55 Z-6.61
G1 X55.87 Y305.64 Z-6.61
G1 X56.61 Y305.74 Z-6.46
G1 X57.34 Y305.86 Z-6.35
G1 X58.07 Y306.00 Z-6.28
G1 X58.81 Y306.15 Z-6.26
G1 X59.55 Y306.31 Z-6.27
G1 X60.30 Y306.48 Z-6.33
G1 X61.05 Y306.66 Z-6.42
G1 X61.80 Y306.84 Z-6.56
G1 X62.56 Y307.02 Z-6.74
G1 X63.32 Y307.20 Z-6.95
G1 X64.08 Y307.36 Z-7.20
G1 X64.84 Y307.51 Z-7.47
G1 X65.58 Y307.64 Z-7.77
G1 X66.31 Y307.74 Z-8.07
G1 X67.01 Y307.82 Z-8.38
G1 X67.72 Y307.88 Z-8.71
G1 X68.25 Y307.92 Z-8.97
G1 X69.35 Y307.97 Z-9.50
G1 X68.25 Y307.92 Z-8.57
G1 X67.72 Y307.88 Z-8.11
G1 X67.01 Y307.82 Z-7.51
G1 X66.31 Y307.74 Z-6.92
G1 X65.58 Y307.64 Z-6.29
G1 X64.84 Y307.51 Z-5.65
G1 X64.08 Y307.36 Z-5.00
G0 Z-5.00
G0 Z25.00

G0 X57.53 Y317.72
G1 X57.53 Y317.72 Z-5.00 F3000.00
G1 X58.21 Y316.87 Z-5.64
G1 X58.49 Y316.46 Z-5.89
G1 X58.83 Y315.90 Z-6.17
G1 X59.07 Y315.35 Z-6.37
G1 X59.26 Y314.75 Z-6.52
G1 X59.37 Y314.12 Z-6.61
G1 X59.42 Y313.47 Z-6.65
G1 X59.41 Y312.79 Z-6.67
G1 X59.35 Y312.08 Z-6.66
G1 X59.26 Y311.35 Z-6.65
G1 X59.14 Y310.60 Z-6.49
G1 X58.99 Y309.83 Z-6.38
G1 X58.84 Y309.03 Z-6.32
G1 X58.67 Y308.23 Z-6.31
G1 X58.50 Y307.42 Z-6.35
G1 X58.32 Y306.61 Z-6.44
G1 X58.14 Y305.81 Z-6.57
G1 X57.95 Y305.02 Z-6.74
G1 X57.77 Y304.26 Z-6.96
G1 X57.57 Y303.53 Z-7.23
G1 X57.36 Y302.82 Z-7.53
G1 X57.14 Y302.16 Z-7.86
G1 X56.89 Y301.52 Z-8.22
G1 X56.62 Y300.94 Z-8.59
G1 X56.30 Y300.36 Z-9.00
G1 X56.05 Y299.93 Z-9.32
G1 X55.46 Y299.06 Z-10.00
G1 X56.05 Y299.93 Z-9.08
G1 X56.30 Y300.36 Z-8.65
G1 X56.62 Y300.94 Z-8.07
G1 X56.89 Y301.52 Z-7.51
G1 X57.14 Y302.16 Z-6.92
G1 X57.36 Y302.82 Z-6.30
G1 X57.57 Y303.53 Z-5.66
G1 X57.77 Y304.26 Z-5.00
G0 Z-5.00
G0 Z25.00

G0 X43.36 Y297.40
G1 X43.36 Y297.40 Z-5.00 F3000.00
G1 X44.07 Y296.59 Z-5.55
G1 X44.38 Y296.18 Z-5.74
G1 X44.77 Y295.63 Z-5.92
G1 X45.10 Y295.07 Z-6.04
G1 X45.41 Y294.46 Z-6.13
G1 X45.67 Y293.82 Z-6.18
G1 X45.91 Y293.13 Z-6.23
G1 X46.13 Y292.41 Z-6.31
G1 X46.32 Y291.66 Z-6.43
G1 X46.50 Y290.89 Z-6.63
G1 X46.68 Y290.11 Z-6.74
G1 X46.84 Y289.32 Z-6.94
G1 X47.00 Y288.55 Z-7.21
G1 X47.15 Y287.81 Z-7.55
G1 X47.30 Y287.09 Z-7.94
G1 X47.43 Y286.43 Z-8.36
G1 X47.57 Y285.78 Z-8.83
G1 X47.66 Y285.30 Z-9.20
G1 X47.86 Y284.33 Z-10.00
G1 X47.66 Y285.30 Z-9.03
G1 X47.57 Y285.78 Z-8.55
G1 X47.43 Y286.43 Z-7.90
G1 X47.30 Y287.09 Z-7.24
G1 X47.15 Y287.81 Z-6.52
G1 X47.00 Y288.55 Z-5.77
G1 X46.84 Y289.32 Z-5.00
G0 Z-5.00
G0 Z25.00

G0 X48.34 Y296.50
G1 X48.34 Y296.50 Z-5.00 F3000.00
G1 X49.11 Y296.60 Z-5.53
G1 X49.49 Y296.65 Z-5.77
G1 X50.01 Y296.72 Z-6.08
G1 X50.54 Y296.79 Z-6.38
G1 X51.12 Y296.87 Z-6.67
G1 X51.73 Y296.96 Z-6.95
G1 X52.39 Y297.05 Z-7.21
G1 X53.08 Y297.15 Z-7.46
G1 X53.80 Y297.26 Z-7.67
G1 X54.54 Y297.37 Z-7.85
G1 X55.31 Y297.48 Z-7.67
G1 X56.10 Y297.60 Z-7.49
G1 X56.90 Y297.72 Z-7.32
G1 X57.71 Y297.84 Z-7.15
G1 X58.52 Y297.97 Z-7.00
G1 X59.34 Y298.09 Z-6.85
G1 X60.15 Y298.21 Z-6.71
G1 X60.96 Y298.33 Z-6.59
G1 X61.75 Y298.45 Z-6.48
G1 X62.53 Y298.57 Z-6.38
G1 X63.29 Y298.68 Z-6.30
G1 X64.04 Y298.79 Z-6.23
G1 X64.76 Y298.89 Z-6.18
G1 X65.47 Y298.99 Z-6.15
G1 X66.16 Y299.08 Z-6.14
G1 X66.84 Y299.16 Z-6.15
G1 X67.53 Y299.23 Z-6.19
G1 X68.21 Y299.27 Z-6.25
G1 X68.90 Y299.30 Z-6.32
G1 X69.58 Y299.29 Z-6.40
G1 X70.24 Y299.23 Z-6.48
G1 X70.88 Y299.12 Z-6.54
G1 X71.47 Y298.95 Z-6.58
G1 X72.00 Y298.70 Z-6.61
G1 X72.45 Y298.38 Z-6.64
G1 X72.82 Y297.99 Z-6.68
G1 X73.09 Y297.53 Z-6.72
G1 X73.27 Y297.00 Z-6.79
G1 X73.35 Y296.42 Z-6.88
G1 X73.34 Y295.79 Z-6.99
G1 X73.26 Y295.13 Z-7.12
G1 X73.11 Y294.44 Z-7.27
G1 X72.90 Y293.72 Z-7.43
G1 X72.66 Y292.98 Z-7.61
G1 X72.39 Y292.24 Z-7.80
G1 X72.11 Y291.49 Z-7.99
G1 X71.82 Y290.75 Z-8.19
G1 X71.54 Y290.03 Z-8.39
G1 X71.26 Y289.34 Z-8.58
G1 X70.99 Y288.69 Z-8.77
G1 X70.75 Y288.09 Z-8.94
G1 X70.51 Y287.50 Z-9.11
G1 X70.33 Y287.07 Z-9.24
G1 X69.98 Y286.20 Z-9.50
G1 X70.33 Y287.07 Z-8.98
G1 X70.51 Y287.50 Z-8.72
G1 X70.75 Y288.09 Z-8.36
G1 X70.99 Y288.69 Z-8.00
G1 X71.26 Y289.34 Z-7.61
G1 X71.54 Y290.03 Z-7.19
G1 X71.82 Y290.75 Z-6.76
G1 X72.11 Y291.49 Z-6.32
G1 X72.39 Y292.24 Z-5.87
G1 X72.66 Y292.98 Z-5.43
G1 X72.90 Y293.72 Z-5.00
G0 Z-5.00
G0 Z25.00

G0 X54.15 Y294.98
G1 X54.15 Y294.98 Z-5.00 F3000.00
G1 X54.27 Y293.84 Z-5.61
G1 X54.33 Y293.30 Z-5.82
G1 X54.42 Y292.59 Z-6.04
G1 X54.52 Y291.91 Z-6.27
G1 X54.64 Y291.23 Z-6.56
G1 X54.76 Y290.58 Z-6.94
G1 X54.90 Y289.90 Z-7.50
G1 X55.01 Y289.39 Z-8.03
G1 X55.25 Y288.34 Z-9.50
G1 X55.01 Y289.39 Z-8.53
G1 X54.90 Y289.90 Z-8.07
G1 X54.76 Y290.58 Z-7.46
G1 X54.64 Y291.23 Z-6.86
G1 X54.52 Y291.91 Z-6.24
G1 X54.42 Y292.59 Z-5.64
G1 X54.33 Y293.30 Z-5.00
G0 Z-5.00
G0 Z25.00

G0 X61.27 Y297.19
G1 X61.27 Y297.19 Z-5.00 F3000.00
G1 X61.77 Y296.35 Z-5.51
G1 X61.96 Y295.93 Z-5.66
G1 X62.16 Y295.36 Z-5.81
G1 X62.26 Y294.77 Z-5.92
G1 X62.28 Y294.14 Z-6.03
G1 X62.22 Y293.47 Z-6.19
G1 X62.09 Y292.78 Z-6.44
G1 X61.89 Y292.07 Z-6.82
G1 X61.64 Y291.38 Z-7.34
G1 X61.34 Y290.64 Z-8.11
G1 X61.09 Y290.08 Z-8.51
G1 X60.51 Y288.89 Z-9.50
G1 X61.09 Y290.08 Z-8.43
G1 X61.34 Y290.64 Z-7.94
G1 X61.64 Y291.38 Z-7.30
G1 X61.89 Y292.07 Z-6.70
G1 X62.09 Y292.78 Z-6.11
G1 X62.22 Y293.47 Z-5.54
G1 X62.28 Y294.14 Z-5.00
G0 Z-5.00
G0 Z25.00

G0 X49.65 Y286.06
G1 X49.65 Y286.06 Z-5.00 F3000.00
G1 X50.47 Y286.16 Z-5.50
G1 X50.87 Y286.22 Z-5.71
G1 X51.42 Y286.29 Z-5.95
G1 X51.99 Y286.36 Z-6.16
G1 X52.61 Y286.43 Z-6.34
G1 X53.27 Y286.51 Z-6.48
G1 X53.98 Y286.60 Z-6.59
G1 X54.72 Y286.69 Z-6.66
G1 X55.50 Y286.78 Z-6.71
G1 X56.29 Y286.87 Z-6.73
G1 X57.11 Y286.97 Z-6.57
G1 X57.94 Y287.07 Z-6.45
G1 X58.78 Y287.17 Z-6.38
G1 X59.61 Y287.26 Z-6.37
G1 X60.45 Y287.36 Z-6.41
G1 X61.27 Y287.46 Z-6.49
G1 X62.07 Y287.55 Z-6.63
G1 X62.85 Y287.65 Z-6.81
G1 X63.61 Y287.74 Z-7.02
G1 X64.33 Y287.83 Z-7.26
G1 X65.03 Y287.93 Z-7.52
G1 X65.69 Y288.03 Z-7.80
G1 X66.33 Y288.14 Z-8.09
G1 X66.93 Y288.25 Z-8.39
G1 X67.55 Y288.39 Z-8.71
G1 X68.02 Y288.50 Z-8.96
G1 X69.01 Y288.76 Z-9.50
G1 X68.02 Y288.50 Z-8.67
G1 X67.55 Y288.39 Z-8.27
G1 X66.93 Y288.25 Z-7.75
G1 X66.33 Y288.14 Z-7.25
G1 X65.69 Y288.03 Z-6.72
G1 X65.03 Y287.93 Z-6.17
G1 X64.33 Y287.83 Z-5.60
G1 X63.61 Y287.74 Z-5.00
G0 Z-5.00
G0 Z25.00

G0 X48.34 Y280.18
G1 X48.34 Y280.18 Z-5.00 F3000.00
G1 X49.37 Y280.01 Z-5.58
G1 X49.86 Y279.95 Z-5.80
G1 X50.51 Y279.89 Z-6.04
G1 X51.15 Y279.86 Z-6.22
G1 X51.81 Y279.87 Z-6.36
G1 X52.49 Y279.90 Z-6.46
G1 X53.18 Y279.96 Z-6.52
G1 X53.89 Y280.04 Z-6.56
G1 X54.62 Y280.14 Z-6.58
G1 X55.36 Y280.25 Z-6.60
G1 X56.11 Y280.36 Z-6.46
G1 X56.88 Y280.49 Z-6.36
G1 X57.64 Y280.61 Z-6.31
G1 X58.41 Y280.74 Z-6.29
G1 X59.18 Y280.86 Z-6.32
G1 X59.93 Y280.97 Z-6.40
G1 X60.68 Y281.08 Z-6.51
G1 X61.41 Y281.18 Z-6.67
G1 X62.14 Y281.27 Z-6.86
G1 X62.87 Y281.34 Z-7.09
G1 X63.59 Y281.39 Z-7.34
G1 X64.30 Y281.42 Z-7.62
G1 X64.99 Y281.44 Z-7.92
G1 X65.66 Y281.43 Z-8.22
G1 X66.28 Y281.41 Z-8.51
G1 X66.90 Y281.36 Z-8.81
G1 X67.35 Y281.32 Z-9.04
G1 X68.25 Y281.22 Z-9.50
G1 X67.35 Y281.32 Z-8.74
G1 X66.90 Y281.36 Z-8.37
G1 X66.28 Y281.41 Z-7.85
G1 X65.66 Y281.43 Z-7.33
G1 X64.99 Y281.44 Z-6.78
G1 X64.30 Y281.42 Z-6.20
G1 X63.59 Y281.39 Z-5.60
G1 X62.87 Y281.34 Z-5.00
G0 Z-5.00
G0 Z25.00

G0 X43.16 Y274.59
G1 X43.16 Y274.59 Z-5.00 F3000.00
G1 X43.00 Y273.55 Z-5.55
G1 X42.92 Y273.05 Z-5.75
G1 X42.81 Y272.37 Z-5.98
G1 X42.68 Y271.70 Z-6.15
G1 X42.52 Y270.99 Z-6.30
G1 X42.35 Y270.27 Z-6.44
G1 X42.16 Y269.54 Z-6.57
G1 X41.95 Y268.81 Z-6.74
G1 X41.73 Y268.09 Z-6.96
G1 X41.50 Y267.38 Z-7.28
G1 X41.27 Y266.71 Z-7.47
G1 X41.05 Y266.06 Z-7.74
G1 X40.83 Y265.46 Z-8.06
G1 X40.61 Y264.86 Z-8.46
G1 X40.45 Y264.42 Z-8.78
G1 X40.12 Y263.53 Z-9.50
G1 X40.45 Y264.42 Z-8.73
G1 X40.61 Y264.86 Z-8.36
G1 X40.83 Y265.46 Z-7.84
G1 X41.05 Y266.06 Z-7.33
G1 X41.27 Y266.71 Z-6.78
G1 X41.50 Y267.38 Z-6.20
G1 X41.73 Y268.09 Z-5.61
G1 X41.95 Y268.81 Z-5.00
G0 Z-5.00
G0 Z25.00

G0 X48.55 Y274.03
G1 X48.55 Y274.03 Z-5.00 F3000.00
G1 X49.10 Y272.96 Z-5.63
G1 X49.34 Y272.45 Z-5.89
G1 X49.67 Y271.76 Z-6.21
G1 X49.97 Y271.08 Z-6.49
G1 X50.28 Y270.38 Z-6.74
G1 X50.59 Y269.66 Z-6.95
G1 X50.92 Y268.94 Z-7.14
G1 X51.26 Y268.22 Z-7.28
G1 X51.63 Y267.52 Z-7.40
G1 X52.03 Y266.85 Z-7.49
G1 X52.46 Y266.20 Z-7.32
G1 X52.92 Y265.59 Z-7.16
G1 X53.41 Y265.02 Z-7.01
G1 X53.94 Y264.48 Z-6.88
G1 X54.48 Y263.99 Z-6.75
G1 X55.05 Y263.55 Z-6.64
G1 X55.64 Y263.14 Z-6.53
G1 X56.25 Y262.78 Z-6.44
G1 X56.86 Y262.45 Z-6.35
G1 X57.49 Y262.16 Z-6.28
G1 X58.13 Y261.91 Z-6.22
G1 X58.78 Y261.68 Z-6.17
G1 X59.45 Y261.49 Z-6.13
G1 X60.12 Y261.32 Z-6.10
G1 X60.80 Y261.17 Z-6.08
G1 X61.49 Y261.05 Z-6.07
G1 X62.19 Y260.95 Z-6.08
G1 X62.90 Y260.86 Z-6.11
G1 X63.61 Y260.80 Z-6.16
G1 X64.33 Y260.75 Z-6.23
G1 X65.05 Y260.72 Z-6.33
G1 X65.78 Y260.71 Z-6.45
G1 X66.51 Y260.72 Z-6.58
G1 X67.23 Y260.77 Z-6.72
G1 X67.95 Y260.84 Z-6.85
G1 X68.64 Y260.96 Z-6.97
G1 X69.31 Y261.13 Z-7.06
G1 X69.92 Y261.36 Z-7.13
G1 X70.48 Y261.64 Z-7.18
G1 X70.94 Y262.00 Z-7.24
G1 X71.31 Y262.42 Z-7.31
G1 X71.56 Y262.91 Z-7.40
G1 X71.71 Y263.46 Z-7.52
G1 X71.75 Y264.07 Z-7.65
G1 X71.70 Y264.73 Z-7.81
G1 X71.57 Y265.42 Z-7.98
G1 X71.39 Y266.12 Z-8.16
G1 X71.16 Y266.84 Z-8.35
G1 X70.92 Y267.54 Z-8.54
G1 X70.66 Y268.22 Z-8.73
G1 X70.41 Y268.86 Z-8.91
G1 X70.15 Y269.50 Z-9.09
G1 X69.96 Y269.97 Z-9.23
G1 X69.56 Y270.92 Z-9.50
G1 X69.96 Y269.97 Z-8.91
G1 X70.15 Y269.50 Z-8.62
G1 X70.41 Y268.86 Z-8.22
G1 X70.66 Y268.22 Z-7.83
G1 X70.92 Y267.54 Z-7.41
G1 X71.16 Y266.84 Z-6.98
G1 X71.39 Y266.12 Z-6.55
G1 X71.57 Y265.42 Z-6.13
G1 X71.70 Y264.73 Z-5.73
G1 X71.75 Y264.07 Z-5.35
G1 X71.71 Y263.46 Z-5.00
G0 Z-5.00
G0 Z25.00

G0 X57.40 Y276.04
G1 X57.40 Y276.04 Z-5.00 F3000.00
G1 X58.29 Y275.30 Z-5.35
G1 X58.71 Y274.94 Z-5.61
G1 X59.26 Y274.46 Z-6.02
G1 X59.77 Y273.99 Z-6.40
G1 X60.28 Y273.50 Z-6.72
G1 X60.76 Y273.02 Z-6.91
G1 X61.24 Y272.50 Z-6.89
G1 X61.59 Y272.11 Z-6.75
G1 X62.30 Y271.27 Z-6.00
G0 Z-5.00
G0 Z25.00

G0 X70.46 Y278.25
G1 X70.46 Y278.25 Z-5.00 F3000.00
G1 X71.35 Y277.77 Z-5.25
G1 X71.79 Y277.54 Z-5.45
G1 X72.38 Y277.22 Z-5.80
G1 X72.98 Y276.90 Z-6.21
G1 X73.60 Y276.56 Z-6.70
G1 X74.25 Y276.19 Z-7.24
G1 X74.90 Y275.81 Z-7.80
G1 X75.54 Y275.41 Z-8.33
G1 X76.17 Y274.99 Z-8.78
G1 X76.77 Y274.55 Z-9.13
G1 X77.32 Y274.09 Z-8.94
G1 X77.84 Y273.60 Z-8.66
G1 X78.31 Y273.09 Z-8.29
G1 X78.73 Y272.57 Z-7.86
G1 X79.14 Y271.99 Z-7.35
G1 X79.43 Y271.55 Z-6.93
G1 X80.00 Y270.58 Z-6.00
G0 Z-5.00
G0 Z25.00

G0 X98.31 Y320.00
G1 X98.31 Y320.00 Z-5.00 F3000.00
G1 X99.30 Y319.64 Z-5.53
G1 X99.78 Y319.46 Z-5.70
G1 X100.43 Y319.20 Z-5.88
G1 X101.07 Y318.94 Z-6.01
G1 X101.73 Y318.65 Z-6.14
G1 X102.40 Y318.32 Z-6.28
G1 X103.06 Y317.97 Z-6.50
G1 X103.70 Y317.59 Z-6.81
G1 X104.31 Y317.19 Z-7.25
G1 X104.88 Y316.79 Z-7.82
G1 X105.43 Y316.36 Z-8.26
G1 X105.84 Y316.02 Z-8.63
G1 X106.65 Y315.30 Z-9.50
G0 Z-5.00
G0 Z25.00

G0 X87.29 Y310.81
G1 X87.29 Y310.81 Z-5.00 F3000.00
G1 X88.40 Y310.59 Z-5.69
G1 X88.93 Y310.50 Z-5.99
G1 X89.64 Y310.41 Z-6.37
G1 X90.32 Y310.36 Z-6.68
G1 X91.02 Y310.33 Z-6.94
G1 X91.73 Y310.34 Z-7.13
G1 X92.43 Y310.38 Z-7.26
G1 X93.12 Y310.43 Z-7.34
G1 X93.80 Y310.50 Z-7.38
G1 X94.48 Y310.58 Z-7.41
G1 X95.16 Y310.67 Z-7.21
G1 X95.85 Y310.77 Z-7.03
G1 X96.56 Y310.88 Z-6.87
G1 X97.29 Y310.98 Z-6.73
G1 X98.04 Y311.10 Z-6.60
G1 X98.81 Y311.21 Z-6.48
G1 X99.60 Y311.33 Z-6.38
G1 X100.41 Y311.46 Z-6.29
G1 X101.23 Y311.58 Z-6.22
G1 X102.06 Y311.71 Z-6.17
G1 X102.89 Y311.84 Z-6.14
G1 X103.73 Y311.96 Z-6.13
G1 X104.58 Y312.09 Z-6.14
G1 X105.41 Y312.22 Z-6.16
G1 X106.25 Y312.34 Z-6.21
G1 X107.07 Y312.47 Z-6.27
G1 X107.89 Y312.59 Z-6.36
G1 X108.68 Y312.70 Z-6.45
G1 X109.47 Y312.82 Z-6.57
G1 X110.23 Y312.93 Z-6.69
G1 X110.97 Y313.03 Z-6.83
G1 X111.70 Y313.13 Z-6.97
G1 X112.41 Y313.23 Z-7.12
G1 X113.11 Y313.31 Z-7.29
G1 X113.81 Y313.39 Z-7.46
G1 X114.52 Y313.45 Z-7.65
G1 X115.24 Y313.50 Z-7.85
G1 X115.97 Y313.54 Z-8.06
G1 X116.70 Y313.55 Z-8.27
G1 X117.42 Y313.54 Z-8.49
G1 X118.11 Y313.51 Z-8.70
G1 X118.73 Y313.45 Z-8.90
G1 X119.32 Y313.37 Z-9.09
G1 X119.74 Y313.30 Z-9.23
G1 X120.54 Y313.13 Z-9.50
G1 X119.74 Y313.30 Z-8.95
G1 X119.32 Y313.37 Z-8.67
G1 X118.73 Y313.45 Z-8.28
G1 X118.11 Y313.51 Z-7.86
G1 X117.42 Y313.54 Z-7.40
G1 X116.70 Y313.55 Z-6.93
G1 X115.97 Y313.54 Z-6.44
G1 X115.24 Y313.50 Z-5.95
G1 X114.52 Y313.45 Z-5.47
G1 X113.81 Y313.39 Z-5.00
G0 Z-5.00
G0 Z25.00

G0 X92.98 Y306.18
G1 X92.98 Y306.18 Z-5.00 F3000.00
G1 X93.71 Y305.47 Z-5.52
G1 X94.04 Y305.10 Z-5.69
G1 X94.45 Y304.59 Z-5.85
G1 X94.81 Y304.06 Z-5.97
G1 X95.14 Y303.46 Z-6.06
G1 X95.45 Y302.82 Z-6.16
G1 X95.73 Y302.15 Z-6.30
G1 X95.99 Y301.45 Z-6.52
G1 X96.22 Y300.75 Z-6.84
G1 X96.44 Y300.05 Z-7.29
G1 X96.64 Y299.38 Z-7.60
G1 X96.82 Y298.75 Z-7.96
G1 X97.00 Y298.12 Z-8.39
G1 X97.13 Y297.65 Z-8.73
G1 X97.39 Y296.71 Z-9.50
G1 X97.13 Y297.65 Z-8.73
G1 X97.00 Y298.12 Z-8.35
G1 X96.82 Y298.75 Z-7.83
G1 X96.64 Y299.38 Z-7.31
G1 X96.44 Y300.05 Z-6.75
G1 X96.22 Y300.75 Z-6.17
G1 X95.99 Y301.45 Z-5.59
G1 X95.73 Y302.15 Z-5.00
G0 Z-5.00
G0 Z25.00

G0 X97.68 Y305.55
G1 X97.68 Y305.55 Z-5.00 F3000.00
G1 X98.61 Y305.74 Z-5.52
G1 X99.07 Y305.84 Z-5.73
G1 X99.69 Y305.97 Z-5.98
G1 X100.33 Y306.11 Z-6.18
G1 X101.03 Y306.26 Z-6.35
G1 X101.75 Y306.42 Z-6.47
G1 X102.51 Y306.59 Z-6.56
G1 X103.29 Y306.76 Z-6.61
G1 X104.07 Y306.93 Z-6.64
G1 X104.85 Y307.09 Z-6.66
G1 X105.62 Y307.25 Z-6.54
G1 X106.36 Y307.37 Z-6.48
G1 X107.09 Y307.47 Z-6.47
G1 X107.78 Y307.52 Z-6.51
G1 X108.45 Y307.50 Z-6.60
G1 X109.06 Y307.41 Z-6.72
G1 X109.62 Y307.23 Z-6.86
G1 X110.10 Y306.96 Z-7.03
G1 X110.48 Y306.60 Z-7.21
G1 X110.74 Y306.17 Z-7.42
G1 X110.86 Y305.68 Z-7.66
G1 X110.84 Y305.17 Z-7.93
G1 X110.69 Y304.66 Z-8.23
G1 X110.38 Y304.12 Z-8.58
G1 X110.09 Y303.72 Z-8.86
G1 X109.32 Y302.89 Z-9.50
G1 X110.09 Y303.72 Z-8.55
G1 X110.38 Y304.12 Z-8.14
G1 X110.69 Y304.66 Z-7.62
G1 X110.84 Y305.17 Z-7.17
G1 X110.86 Y305.68 Z-6.74
G1 X110.74 Y306.17 Z-6.32
G1 X110.48 Y306.60 Z-5.90
G1 X110.10 Y306.96 Z-5.46
G1 X109.62 Y307.23 Z-5.00
G0 Z-5.00
G0 Z25.00

G0 X99.64 Y299.10
G1 X99.64 Y299.10 Z-5.00 F3000.00
G1 X100.66 Y299.31 Z-5.52
G1 X101.16 Y299.40 Z-5.71
G1 X101.84 Y299.54 Z-5.90
G1 X102.52 Y299.67 Z-6.04
G1 X103.25 Y299.80 Z-6.14
G1 X104.01 Y299.94 Z-6.21
G1 X104.78 Y300.07 Z-6.27
G1 X105.57 Y300.20 Z-6.35
G1 X106.36 Y300.31 Z-6.48
G1 X107.15 Y300.42 Z-6.69
G1 X107.92 Y300.50 Z-6.81
G1 X108.69 Y300.55 Z-7.02
G1 X109.43 Y300.58 Z-7.30
G1 X110.15 Y300.58 Z-7.63
G1 X110.83 Y300.56 Z-8.00
G1 X111.52 Y300.50 Z-8.42
G1 X112.04 Y300.44 Z-8.76
G1 X113.11 Y300.29 Z-9.50
G1 X112.04 Y300.44 Z-8.57
G1 X111.52 Y300.50 Z-8.12
G1 X110.83 Y300.56 Z-7.52
G1 X110.15 Y300.58 Z-6.93
G1 X109.43 Y300.58 Z-6.30
G1 X108.69 Y300.55 Z-5.66
G1 X107.92 Y300.50 Z-5.00
G0 Z-5.00
G0 Z25.00

G0 X82.88 Y295.45
G1 X82.88 Y295.45 Z-5.00 F3000.00
G1 X83.02 Y294.36 Z-5.56
G1 X83.06 Y293.85 Z-5.74
G1 X83.07 Y293.16 Z-5.92
G1 X83.02 Y292.50 Z-6.04
G1 X82.91 Y291.82 Z-6.12
G1 X82.75 Y291.13 Z-6.17
G1 X82.54 Y290.44 Z-6.21
G1 X82.30 Y289.73 Z-6.28
G1 X82.03 Y289.03 Z-6.39
G1 X81.75 Y288.32 Z-6.56
G1 X81.48 Y287.61 Z-6.65
G1 X81.21 Y286.90 Z-6.82
G1 X80.96 Y286.20 Z-7.05
G1 X80.74 Y285.50 Z-7.35
G1 X80.54 Y284.82 Z-7.69
G1 X80.38 Y284.16 Z-8.06
G1 X80.25 Y283.48 Z-8.47
G1 X80.16 Y282.97 Z-8.79
G1 X80.00 Y281.91 Z-9.50
G1 X80.16 Y282.97 Z-8.56
G1 X80.25 Y283.48 Z-8.11
G1 X80.38 Y284.16 Z-7.51
G1 X80.54 Y284.82 Z-6.91
G1 X80.74 Y285.50 Z-6.29
G1 X80.96 Y286.20 Z-5.65
G1 X81.21 Y286.90 Z-5.00
G0 Z-5.00
G0 Z25.00

G0 X85.61 Y291.45
G1 X85.61 Y291.45 Z-5.00 F3000.00
G1 X86.35 Y291.60 Z-5.54
G1 X86.72 Y291.67 Z-5.79
G1 X87.22 Y291.76 Z-6.11
G1 X87.73 Y291.86 Z-6.43
G1 X88.28 Y291.97 Z-6.75
G1 X88.87 Y292.08 Z-7.06
G1 X89.50 Y292.20 Z-7.37
G1 X90.17 Y292.33 Z-7.67
G1 X90.87 Y292.47 Z-7.95
G1 X91.59 Y292.61 Z-8.21
G1 X92.34 Y292.75 Z-8.06
G1 X93.11 Y292.90 Z-7.91
G1 X93.89 Y293.06 Z-7.76
G1 X94.69 Y293.21 Z-7.61
G1 X95.50 Y293.36 Z-7.46
G1 X96.32 Y293.52 Z-7.32
G1 X97.14 Y293.68 Z-7.19
G1 X97.97 Y293.83 Z-7.05
G1 X98.79 Y293.99 Z-6.93
G1 X99.60 Y294.14 Z-6.81
G1 X100.41 Y294.29 Z-6.71
G1 X101.20 Y294.44 Z-6.61
G1 X101.98 Y294.58 Z-6.51
G1 X102.75 Y294.72 Z-6.43
G1 X103.51 Y294.85 Z-6.36
G1 X104.26 Y294.98 Z-6.29
G1 X105.00 Y295.11 Z-6.24
G1 X105.75 Y295.24 Z-6.19
G1 X106.51 Y295.36 Z-6.15
G1 X107.28 Y295.48 Z-6.11
G1 X108.07 Y295.60 Z-6.09
G1 X108.87 Y295.71 Z-6.07
G1 X109.68 Y295.83 Z-6.06
G1 X110.49 Y295.93 Z-6.06
G1 X111.30 Y296.04 Z-6.06
G1 X112.10 Y296.14 Z-6.08
G1 X112.88 Y296.23 Z-6.10
G1 X113.65 Y296.32 Z-6.13
G1 X114.39 Y296.40 Z-6.16
G1 X115.10 Y296.47 Z-6.20
G1 X115.80 Y296.54 Z-6.25
G1 X116.48 Y296.60 Z-6.30
G1 X117.14 Y296.66 Z-6.36
G1 X117.81 Y296.71 Z-6.43
G1 X118.48 Y296.75 Z-6.51
G1 X119.17 Y296.78 Z-6.59
G1 X119.88 Y296.77 Z-6.70
G1 X120.62 Y296.74 Z-6.82
G1 X121.37 Y296.66 Z-6.97
G1 X122.12 Y296.52 Z-7.14
G1 X122.83 Y296.32 Z-7.33
G1 X123.48 Y296.05 Z-7.53
G1 X124.04 Y295.71 Z-7.72
G1 X124.47 Y295.32 Z-7.91
G1 X124.74 Y294.88 Z-8.08
G1 X124.85 Y294.40 Z-8.22
G1 X124.80 Y293.90 Z-8.35
G1 X124.60 Y293.38 Z-8.46
G1 X124.28 Y292.86 Z-8.58
G1 X123.87 Y292.35 Z-8.71
G1 X123.39 Y291.85 Z-8.86
G1 X122.88 Y291.36 Z-9.03
G1 X122.37 Y290.90 Z-9.22
G1 X121.84 Y290.45 Z-9.44
G1 X121.44 Y290.11 Z-9.61
G1 X120.61 Y289.42 Z-10.00
G1 X121.44 Y290.11 Z-9.44
G1 X121.84 Y290.45 Z-9.17
G1 X122.37 Y290.90 Z-8.81
G1 X122.88 Y291.36 Z-8.46
G1 X123.39 Y291.85 Z-8.09
G1 X123.87 Y292.35 Z-7.73
G1 X124.28 Y292.86 Z-7.39
G1 X124.60 Y293.38 Z-7.07
G1 X124.80 Y293.90 Z-6.79
G1 X124.85 Y294.40 Z-6.53
G1 X124.74 Y294.88 Z-6.27
G1 X124.47 Y295.32 Z-6.00
G1 X124.04 Y295.71 Z-5.70
G1 X123.48 Y296.05 Z-5.37
G1 X122.83 Y296.32 Z-5.00
G0 Z-5.00
G0 Z25.00

G0 X91.08 Y287.67
G1 X91.08 Y287.67 Z-5.00 F3000.00
G1 X92.20 Y287.54 Z-5.59
G1 X92.74 Y287.49 Z-5.82
G1 X93.45 Y287.43 Z-6.06
G1 X94.14 Y287.39 Z-6.24
G1 X94.86 Y287.37 Z-6.37
G1 X95.59 Y287.38 Z-6.46
G1 X96.33 Y287.41 Z-6.51
G1 X97.07 Y287.47 Z-6.53
G1 X97.81 Y287.56 Z-6.54
G1 X98.55 Y287.67 Z-6.54
G1 X99.30 Y287.81 Z-6.41
G1 X100.04 Y287.96 Z-6.33
G1 X100.78 Y288.13 Z-6.29
G1 X101.53 Y288.31 Z-6.29
G1 X102.28 Y288.50 Z-6.34
G1 X103.02 Y288.69 Z-6.43
G1 X103.77 Y288.88 Z-6.57
G1 X104.52 Y289.07 Z-6.74
G1 X105.26 Y289.25 Z-6.95
G1 X106.00 Y289.41 Z-7.19
G1 X106.73 Y289.54 Z-7.47
G1 X107.44 Y289.65 Z-7.76
G1 X108.14 Y289.73 Z-8.07
G1 X108.81 Y289.78 Z-8.37
G1 X109.50 Y289.80 Z-8.71
G1 X110.01 Y289.80 Z-8.96
G1 X111.07 Y289.77 Z-9.50
G1 X110.01 Y289.80 Z-8.56
G1 X109.50 Y289.80 Z-8.11
G1 X108.81 Y289.78 Z-7.51
G1 X108.14 Y289.73 Z-6.91
G1 X107.44 Y289.65 Z-6.29
G1 X106.73 Y289.54 Z-5.65
G1 X106.00 Y289.41 Z-5.00
G0 Z-5.00
G0 Z25.00

G0 X96.76 Y284.02
G1 X96.76 Y284.02 Z-5.00 F3000.00
G1 X95.93 Y283.38 Z-5.54
G1 X95.52 Y283.08 Z-5.74
G1 X94.97 Y282.67 Z-5.94
G1 X94.42 Y282.27 Z-6.07
G1 X93.84 Y281.85 Z-6.17
G1 X93.24 Y281.43 Z-6.22
G1 X92.62 Y281.02 Z-6.27
G1 X91.98 Y280.62 Z-6.32
G1 X91.33 Y280.24 Z-6.40
G1 X90.67 Y279.89 Z-6.55
G1 X90.00 Y279.57 Z-6.62
G1 X89.32 Y279.28 Z-6.77
G1 X88.63 Y279.02 Z-6.99
G1 X87.94 Y278.78 Z-7.28
G1 X87.25 Y278.56 Z-7.62
G1 X86.58 Y278.37 Z-8.00
G1 X85.89 Y278.18 Z-8.42
G1 X85.37 Y278.05 Z-8.76
G1 X84.28 Y277.78 Z-9.50
G0 Z-5.00
G0 Z25.00

G0 X97.54 Y281.77
G1 X97.54 Y281.77 Z-5.00 F3000.00
G1 X98.57 Y281.51 Z-5.61
G1 X99.05 Y281.36 Z-5.87
G1 X99.69 Y281.13 Z-6.19
G1 X100.30 Y280.85 Z-6.47
G1 X100.91 Y280.52 Z-6.74
G1 X101.52 Y280.13 Z-7.01
G1 X102.12 Y279.70 Z-7.26
G1 X102.69 Y279.22 Z-7.49
G1 X103.24 Y278.70 Z-7.70
G1 X103.75 Y278.15 Z-7.87
G1 X104.22 Y277.58 Z-7.72
G1 X104.64 Y276.98 Z-7.54
G1 X105.02 Y276.36 Z-7.35
G1 X105.36 Y275.72 Z-7.14
G1 X105.65 Y275.06 Z-6.94
G1 X105.91 Y274.39 Z-6.76
G1 X106.13 Y273.69 Z-6.60
G1 X106.31 Y272.99 Z-6.46
G1 X106.46 Y272.26 Z-6.35
G1 X106.58 Y271.52 Z-6.27
G1 X106.66 Y270.77 Z-6.20
G1 X106.71 Y270.00 Z-6.15
G1 X106.74 Y269.23 Z-6.11
G1 X106.73 Y268.45 Z-6.09
G1 X106.69 Y267.67 Z-6.09
G1 X106.63 Y266.89 Z-6.10
G1 X106.55 Y266.11 Z-6.12
G1 X106.44 Y265.34 Z-6.16
G1 X106.31 Y264.59 Z-6.21
G1 X106.15 Y263.86 Z-6.28
G1 X105.96 Y263.15 Z-6.36
G1 X105.73 Y262.48 Z-6.45
G1 X105.46 Y261.87 Z-6.55
G1 X105.14 Y261.32 Z-6.66
G1 X104.77 Y260.86 Z-6.78
G1 X104.33 Y260.49 Z-6.91
G1 X103.84 Y260.23 Z-7.05
G1 X103.29 Y260.06 Z-7.20
G1 X102.68 Y260.00 Z-7.36
G1 X102.02 Y260.02 Z-7.54
G1 X101.33 Y260.11 Z-7.72
G1 X100.61 Y260.26 Z-7.91
G1 X99.88 Y260.44 Z-8.11
G1 X99.15 Y260.64 Z-8.31
G1 X98.44 Y260.85 Z-8.51
G1 X97.75 Y261.06 Z-8.71
G1 X97.12 Y261.26 Z-8.89
G1 X96.48 Y261.47 Z-9.08
G1 X96.02 Y261.62 Z-9.22
G1 X95.08 Y261.92 Z-9.50
G1 X96.02 Y261.62 Z-8.88
G1 X96.48 Y261.47 Z-8.58
G1 X97.12 Y261.26 Z-8.16
G1 X97.75 Y261.06 Z-7.75
G1 X98.44 Y260.85 Z-7.30
G1 X99.15 Y260.64 Z-6.84
G1 X99.88 Y260.44 Z-6.36
G1 X100.61 Y260.26 Z-5.89
G1 X101.33 Y260.11 Z-5.44
G1 X102.02 Y260.02 Z-5.00
G0 Z-5.00
G0 Z25.00

G0 X101.60 Y278.34
G1 X101.60 Y278.34 Z-5.00 F3000.00
G1 X100.46 Y278.14 Z-5.62
G1 X99.93 Y278.01 Z-5.85
G1 X99.24 Y277.81 Z-6.10
G1 X98.60 Y277.57 Z-6.26
G1 X97.96 Y277.26 Z-6.37
G1 X97.33 Y276.91 Z-6.43
G1 X96.72 Y276.52 Z-6.45
G1 X96.10 Y276.09 Z-6.45
G1 X95.49 Y275.66 Z-6.47
G1 X94.88 Y275.21 Z-6.51
G1 X94.26 Y274.78 Z-6.47
G1 X93.63 Y274.35 Z-6.50
G1 X92.98 Y273.94 Z-6.60
G1 X92.32 Y273.55 Z-6.76
G1 X91.65 Y273.17 Z-6.97
G1 X90.96 Y272.82 Z-7.21
G1 X90.26 Y272.48 Z-7.48
G1 X89.55 Y272.17 Z-7.77
G1 X88.85 Y271.87 Z-8.06
G1 X88.15 Y271.59 Z-8.38
G1 X87.49 Y271.34 Z-8.70
G1 X86.81 Y271.10 Z-9.07
G1 X86.30 Y270.91 Z-9.36
G1 X85.26 Y270.55 Z-10.00
G1 X86.30 Y270.91 Z-8.97
G1 X86.81 Y271.10 Z-8.47
G1 X87.49 Y271.34 Z-7.80
G1 X88.15 Y271.59 Z-7.13
G1 X88.85 Y271.87 Z-6.44
G1 X89.55 Y272.17 Z-5.72
G1 X90.26 Y272.48 Z-5.00
G0 Z-5.00
G0 Z25.00

G0 X103.50 Y276.09
G1 X103.50 Y276.09 Z-5.00 F3000.00
G1 X103.11 Y275.03 Z-5.24
G1 X102.90 Y274.54 Z-5.41
G1 X102.61 Y273.91 Z-5.68
G1 X102.30 Y273.34 Z-5.99
G1 X101.94 Y272.77 Z-6.36
G1 X101.53 Y272.23 Z-6.78
G1 X101.08 Y271.71 Z-7.24
G1 X100.60 Y271.21 Z-7.76
G1 X100.07 Y270.73 Z-8.31
G1 X99.52 Y270.27 Z-8.90
G1 X98.95 Y269.83 Z-9.10
G1 X98.36 Y269.39 Z-9.28
G1 X97.76 Y268.97 Z-9.43
G1 X97.15 Y268.55 Z-9.57
G1 X96.53 Y268.14 Z-9.67
G1 X95.90 Y267.73 Z-9.75
G1 X95.26 Y267.33 Z-9.81
G1 X94.62 Y266.93 Z-9.83
G1 X93.96 Y266.53 Z-9.84
G1 X93.30 Y266.14 Z-9.83
G1 X92.63 Y265.76 Z-9.79
G1 X91.95 Y265.38 Z-9.73
G1 X91.26 Y265.01 Z-9.65
G1 X90.57 Y264.66 Z-9.53
G1 X89.86 Y264.32 Z-9.37
G1 X89.13 Y263.99 Z-9.17
G1 X88.39 Y263.67 Z-8.93
G1 X87.65 Y263.37 Z-8.66
G1 X86.90 Y263.09 Z-8.40
G1 X86.16 Y262.83 Z-8.15
G1 X85.45 Y262.59 Z-7.97
G1 X84.76 Y262.37 Z-7.86
G1 X84.13 Y262.17 Z-7.85
G1 X83.50 Y261.98 Z-7.95
G1 X83.04 Y261.84 Z-8.08
G1 X82.10 Y261.57 Z-8.50
G0 Z-5.00
G0 Z25.00

G0 X114.23 Y287.60
G1 X114.23 Y287.60 Z-5.00 F3000.00
G1 X114.49 Y286.57 Z-5.33
G1 X114.56 Y286.11 Z-5.58
G1 X114.57 Y285.50 Z-5.98
G1 X114.47 Y284.95 Z-6.40
G1 X114.26 Y284.41 Z-6.87
G1 X113.93 Y283.89 Z-7.37
G1 X113.50 Y283.38 Z-7.88
G1 X112.97 Y282.88 Z-8.38
G1 X112.37 Y282.39 Z-8.85
G1 X111.70 Y281.92 Z-9.23
G1 X110.98 Y281.44 Z-8.99
G1 X110.21 Y280.97 Z-8.65
G1 X109.41 Y280.52 Z-8.21
G1 X108.51 Y280.04 Z-7.64
G1 X107.81 Y279.68 Z-7.15
G1 X106.23 Y278.90 Z-6.00
G0 Z-5.00
G0 Z25.00

G0 X107.35 Y277.28
G1 X107.35 Y277.28 Z-5.00 F3000.00
G1 X108.00 Y276.45 Z-5.60
G1 X108.32 Y276.07 Z-5.85
G1 X108.76 Y275.57 Z-6.15
G1 X109.21 Y275.10 Z-6.41
G1 X109.70 Y274.62 Z-6.64
G1 X110.23 Y274.16 Z-6.83
G1 X110.79 Y273.70 Z-7.00
G1 X111.38 Y273.25 Z-7.13
G1 X111.99 Y272.81 Z-7.23
G1 X112.61 Y272.38 Z-7.29
G1 X113.25 Y271.96 Z-7.11
G1 X113.90 Y271.55 Z-6.94
G1 X114.54 Y271.16 Z-6.78
G1 X115.19 Y270.77 Z-6.64
G1 X115.85 Y270.39 Z-6.51
G1 X116.50 Y270.02 Z-6.40
G1 X117.17 Y269.65 Z-6.31
G1 X117.83 Y269.29 Z-6.24
G1 X118.49 Y268.93 Z-6.18
G1 X119.16 Y268.58 Z-6.13
G1 X119.82 Y268.25 Z-6.11
G1 X120.48 Y267.93 Z-6.10
G1 X121.13 Y267.63 Z-6.12
G1 X121.79 Y267.36 Z-6.14
G1 X122.46 Y267.11 Z-6.19
G1 X123.13 Y266.89 Z-6.25
G1 X123.82 Y266.70 Z-6.33
G1 X124.52 Y266.55 Z-6.43
G1 X125.24 Y266.43 Z-6.54
G1 X125.96 Y266.34 Z-6.67
G1 X126.70 Y266.28 Z-6.81
G1 X127.44 Y266.24 Z-6.97
G1 X128.20 Y266.22 Z-7.15
G1 X128.96 Y266.21 Z-7.34
G1 X129.73 Y266.20 Z-7.54
G1 X130.50 Y266.20 Z-7.77
G1 X131.27 Y266.21 Z-8.00
G1 X132.02 Y266.22 Z-8.25
G1 X132.74 Y266.22 Z-8.50
G1 X133.43 Y266.23 Z-8.77
G1 X134.07 Y266.24 Z-9.03
G1 X134.71 Y266.25 Z-9.31
G1 X135.17 Y266.26 Z-9.53
G1 X136.11 Y266.27 Z-10.00
G1 X135.17 Y266.26 Z-9.34
G1 X134.71 Y266.25 Z-9.02
G1 X134.07 Y266.24 Z-8.57
G1 X133.43 Y266.23 Z-8.13
G1 X132.74 Y266.22 Z-7.64
G1 X132.02 Y266.22 Z-7.14
G1 X131.27 Y266.21 Z-6.61
G1 X130.50 Y266.20 Z-6.08
G1 X129.73 Y266.20 Z-5.54
G1 X128.96 Y266.21 Z-5.00
G0 Z-5.00
G0 Z25.00

G0 Z-5.00
M30
